arpt_id,icao_id,arpt_name,rwy_id,lat_decimal,long_decimal,observation_time,wind_speed_kt,flight_category,raw_text
00C,,ANIMAS AIR PARK,01/19,37.20317833,-107.8691953,,,,
00F,,BROADUS,10/28,45.47047222,-105.4571389,,,,
00M,,THIGPEN FLD,16/34,31.95375,-89.23533333,,,,
00N,,BUCKS,18/36,39.47302777,-75.18441666,,,,
00R,,LIVINGSTON MUNI,12/30,30.68586111,-95.01791666,,,,
00S,,MC KENZIE BRIDGE STATE,06/24,44.18155555,-122.0855556,,,,
00U,,BIG HORN COUNTY,08/26,45.74438888,-107.6604444,2023-12-27T22:35:00Z,5.0,VFR,K00U 272235Z AUTO 16005KT 10SM CLR 05/M05 A3017 RMK A01
00W,,LOWER GRANITE STATE,14/32,46.67275,-117.4416667,,,,
01A,,PURKEYPILE,05/23,62.94075555,-152.2696097,,,,
01G,,PERRY-WARSAW,04/22,42.74134861,-78.05214805,,,,
01J,,HILLIARD AIRPARK,18/36,30.68596666,-81.90634305,,,,
01K,,CALDWELL MUNI,17/35,37.03661111,-97.58555555,,,,
01M,,TISHOMINGO COUNTY,17/35,34.49181761,-88.20121033,,,,
01U,,DUCKWATER,03/21,38.85325,-115.6346667,,,,
02A,,CHILTON COUNTY,08/26,32.85048447,-86.61143247,,,,
02C,,CAPITOL DRIVE,03/21,43.08964136,-88.17944525,,,,
02G,,COLUMBIANA COUNTY,07/25,40.67330555,-80.64141666,,,,
02T,,WISE RIVER,02/20,45.77002777,-112.9804722,,,,
03B,,MANSFIELD MUNI,07/25,37.12677777,-92.62161111,,,,
03D,,MEMPHIS MEML,12/30,40.44725,-92.22694444,,,,
03N,,UTIRIK,07/25,11.23333333,169.85,,,,
03S,,SANDY RIVER,08/26,45.40161111,-122.2286944,,,,
04A,,FRANK SIKES,04/22,31.73638694,-86.26245463,,,,
04G,,LANSDOWNE,02/20,41.13047222,-80.61958333,,,,
04M,,CALHOUN COUNTY,15/33,33.93008333,-89.34327777,,,,
04V,,SAGUACHE MUNI,11/29,38.09939444,-106.1743278,2023-12-27T22:32:00Z,8.0,VFR,K04V 272232Z AUTO 13008KT 10SM CLR 01/M11 A3017 RMK AO2
04W,,FIELD OF DREAMS,06/24,46.02286811,-92.89517441,2023-12-27T22:35:00Z,0.0,MVFR,K04W 272235Z AUTO 00000KT 10SM OVC015 01/00 A3009 RMK AO2
04Y,,HAWLEY MUNI,16/34,46.88377777,-96.35061111,,,,
05C,,GRIFFITH-MERRILLVILLE,08/26,41.519841,-87.39950797,,,,
05D,,NEW TOWN MUNI,12/30,47.96785416,-102.4781164,,,,
05K,PAKX,WILDER RUNWAY,06R/24L,60.19848083,-154.3230492,,,,
05N,,SOUTH OAKS AERODROME,07/25,35.48218472,-77.3557743,,,,
05S,,VERNONIA MUNI,09/27,45.85210625,-123.2428693,,,,
05U,,EUREKA,18/36,39.60375,-116.0036111,2023-12-27T22:30:00Z,0.0,VFR,K05U 272230Z AUTO 00000KT 10SM 05/00 A3019 RMK A01
05V,,BLANCA,03/21,37.41111916,-105.55168,,,,
05Y,,HENNING MUNI,17/35,46.30398888,-95.44225833,,,,
06A,,MOTON FLD MUNI,13/31,32.46047222,-85.68002777,,,,
06C,,SCHAUMBURG RGNL,11/29,41.98934083,-88.10124277,2023-12-27T22:35:00Z,6.0,VFR,K06C 272235Z AUTO 03006KT 10SM SCT080 BKN085 BKN120 04/00 A2995 RMK AO2 T00351005
06D,,ROLLA MUNI/LEONARD KRECH FLD,07/25,48.88441722,-99.62092666,2023-12-27T22:35:00Z,5.0,VFR,K06D 272235Z AUTO 34005KT 10SM CLR 01/M10 A3013 RMK AO2
06M,,EUPORA,14/32,33.53483333,-89.31311111,,,,
06N,,RANDALL,08/26,41.43191194,-74.39156083,,,,
06U,,JACKPOT/HAYDEN FLD,15/33,41.97582933,-114.6580158,,,,
06Y,,HERMAN MUNI,14/32,45.82996055,-96.16061444,,,,
07A,,FRANKLIN FLD,14/32,32.1675925,-85.81119666,,,,
07F,,GLADEWATER MUNI,17/35,32.52883333,-94.97175,,,,
07K,,CENTRAL CITY MUNI/LARRY REINEKE FLD,16/34,41.1115613,-98.05133561,,,,
07N,,BERMUDIAN VALLEY AIRPARK,16/34,40.01676166,-77.00386666,,,,
07R,,BISHOP-WINDHAM,15/33,27.61016666,-97.75252777,,,,
07S,,BEAUMONT HOTEL,18/36,37.65930416,-96.52769166,,,,
07V,,CUCHARA VALLEY AT LA VETA,06/24,37.52382444,-105.0092686,,,,
07Y,,HILL CITY/QUADNA MOUNTAIN,16/34,46.955895,-93.59744288,,,,
08A,,WETUMPKA MUNI,18/36,32.52733333,-86.33102777,,,,
08B,,MERRYMEETING FLD,14/32,44.0,-69.88713888,,,,
08C,,RIVERVIEW,14/32,42.93672263,-85.8057525,,,,
08D,,STANLEY MUNI,10/28,48.3008825,-102.4067539,2023-12-27T22:35:00Z,5.0,VFR,K08D 272235Z AUTO 25005KT 10SM CLR 01/M05 A3016 RMK AO2
08F,,CITY OF COALGATE,17/35,34.53175888,-96.23305388,,,,
08K,,HARVARD STATE,14/32,40.65133333,-98.07988888,,,,
08M,,CARTHAGE-LEAKE COUNTY,17/35,32.76158333,-89.53038888,,,,
08N,,KELLER BROTHERS,07/25,40.29155138,-76.32874722,,,,
08R,,RICHMOND,11/29,41.4895,-71.62063888,,,,
08U,,STEVENS-CROSBY,01/19,41.51575122,-115.8599207,,,,
09A,,BUTLER/CHOCTAW COUNTY,12/30,32.11930555,-88.12747222,,,,
09J,,JEKYLL ISLAND,18/36,31.07447222,-81.42777777,,,,
09K,,SARGENT MUNI,16/34,41.63491666,-99.34213888,,,,
09M,,CHARLESTON MUNI,18/36,33.99136111,-90.07855555,,,,
09N,,AIRHAVEN,02/20,41.83263888,-73.87616666,,,,
09R,,TYLER COUNTY,16/34,30.77520055,-94.4585325,,,,
09S,,SULLIVAN LAKE STATE,16/34,48.84089527,-117.2839858,,,,
09T,,LAZY G BAR RANCH,17/35,33.28132069,-97.49669333,,,,
0A3,,SMITHVILLE MUNI,06/24,35.98544444,-85.80911111,,,,
0A4,,JOHNSON CITY,04/22,36.36371666,-82.30902611,,,,
0A7,,HENDERSONVILLE,15/33,35.30761666,-82.43317416,,,,
0A8,,BIBB COUNTY,10/28,32.93693888,-87.09054722,,,,
0A9,,ELIZABETHTON MUNI,06/24,36.37155794,-82.17272433,2023-12-27T22:35:00Z,,VFR,K0A9 272235Z AUTO 10SM CLR 08/07 A2983 RMK AO2
0AK,,PILOT STATION,04/22,61.96147697,-162.9423546,,,,
0B1,,BETHEL RGNL,14/32,44.42516666,-70.80991666,,,,
0B2,,BREWER,01/19,44.76383333,-68.76786111,,,,
0B4,,HARTINGTON MUNI/ BUD BECKER FLD,03/21,42.60308333,-97.2535,,,,
0B5,,TURNERS FALLS,16/34,42.59161111,-72.523,,,,
0B7,,WARREN-SUGARBUSH,04/22,44.11738888,-72.827,,,,
0B8,,ELIZABETH FLD,12/30,41.25213888,-72.03163888,,,,
0C0,,DACY,14/32,42.40247222,-88.63238888,,,,
0C1,,TRIPLE R,02/20,39.48775,-94.78113888,,,,
0C2,,HINCKLEY,09/27,41.77086277,-88.70341444,,,,
0C4,,PENDER MUNI,15/33,42.11341811,-96.72781338,,,,
0C5,,CANADIAN LAKES,18/36,43.57701111,-85.284,,,,
0C8,,CUSHING FLD LTD,18/36,41.519475,-88.60562888,,,,
0D7,,ADA,09/27,40.79060805,-83.82910388,,,,
0D8,,GETTYSBURG MUNI,13/31,44.98661111,-99.95288888,2023-12-27T22:35:00Z,14.0,LIFR,K0D8 272235Z AUTO 33014KT 4SM BR OVC003 M00/M00 A3010 RMK A01
0E0,,MORIARTY MUNI,08/26,34.97816666,-106.0000278,2023-12-27T22:35:00Z,9.0,VFR,K0E0 272235Z AUTO 31009KT 10SM CLR 07/M10 A3014 RMK AO2 T00731100
0E8,,CROWNPOINT,18/36,35.71765888,-108.2015961,,,,
0E9,,CORYDON,09/27,40.75622777,-93.24033611,,,,
0F2,,BOWIE MUNI,17/35,33.60166666,-97.77555555,2023-12-27T22:35:00Z,12.0,VFR,K0F2 272235Z AUTO 33012G19KT 10SM CLR 09/M01 A3007 RMK AO2 T00851015
0F3,,SPIRIT LAKE MUNI,16/34,43.38742083,-95.13946805,,,,
0F4,,LOUP CITY MUNI,04/22,41.28636111,-98.99002777,,,,
0F7,,FOUNTAINHEAD LODGE AIRPARK,18/36,35.38866666,-95.60027777,,,,
0F9,,TISHOMINGO AIRPARK,17/35,34.1985,-96.6745,,,,
0G3,,TECUMSEH MUNI,15/33,40.40094444,-96.17044444,,,,
0G6,,WILLIAMS COUNTY,07/25,41.46730555,-84.50677777,,,,
0G7,,FINGER LAKES RGNL,11/29,42.88355555,-76.78116666,,,,
0H1,,TREGO WAKEENEY,17/35,39.00652777,-99.89294444,,,,
0H7,,KAHOKA MUNI,10/28,40.42172222,-91.70666666,,,,
0I2,,BRAZIL CLAY COUNTY,09/27,39.47673555,-87.09970916,,,,
0I8,,CYNTHIANA-HARRISON COUNTY,11/29,38.36616388,-84.28334444,,,,
0ID,,W E RANCH,17/35,42.44818625,-111.7775431,,,,
0J0,,ABBEVILLE MUNI,17/35,31.60022222,-85.23830833,,,,
0J4,,FLORALA MUNI,04/22,31.04247361,-86.31156111,2023-12-27T21:58:00Z,0.0,VFR,K0J4 272158Z AUTO 00000KT 10SM FEW090 16/06 A2995 RMK AO2 SLP140 T01560061
0J8,,FLYING TEN,18/36,29.61891666,-82.50877777,,,,
0K6,,DOBIE'S,17/35,36.17934722,-95.580275,,,,
0K7,,HUMBOLDT MUNI,12/30,42.73486111,-94.24547222,,,,
0L4,,LIDA JUNCTION,18/36,37.49188888,-117.1884167,,,,
0L7,,JEAN,02L/20R,35.76826436,-115.329622,,,,
0L9,,ECHO BAY,06/24,36.31102777,-114.4638889,,,,
0M0,,BILLY FREE MUNI,18/36,33.88452777,-91.53427777,,,,
0M2,,REELFOOT LAKE,01/19,36.47533333,-89.34630555,,,,
0M3,,PAUL BRIDGES FLD,02/20,35.54597416,-87.59732444,,,,
0M4,,BENTON COUNTY,04/22,36.00954166,-88.12472777,,,,
0M5,,HUMPHREYS COUNTY,03/21,36.11661111,-87.73816666,,,,
0M8,,BYERLEY,17/35,32.82587916,-91.187665,,,,
0M9,,DELHI MUNI,18/36,32.41072222,-91.49852777,,,,
0N0,,ROOSTERVILLE,18/36,39.28983333,-94.44244444,,,,
0N4,,CHANDELLE,04/22,39.20230555,-75.48541666,,,,
0N6,,ALBANNA AVIATION,15/33,39.01288888,-75.53397222,,,,
0O2,,BAKER,15/33,35.28627777,-116.0813611,,,,
0O4,,CORNING MUNI,17/35,39.94610805,-122.1711167,,,,
0O9,,WARD FLD,06/24,41.84558333,-123.9847778,,,,
0P1,,VAN PAK,16/34,39.83169444,-99.56844444,,,,
0P2,,SHOESTRING AVIATION AIRFIELD,06U/24U,39.79625416,-76.64639305,,,,
0P8,,LAZY B RANCH,05/23,40.02442361,-76.8153,,,,
0Q3,,SONOMA VALLEY,17/35,38.22394225,-122.449711,,,,
0Q4,,SELMA,10/28,36.5810005,-119.656978,,,,
0Q5,,SHELTER COVE,12/30,40.02816666,-124.0743056,,,,
0Q9,,SONOMA SKYPARK,08/26,38.25747222,-122.4345556,,,,
0R0,,COLUMBIA/MARION COUNTY,05/23,31.29784638,-89.81148694,2023-12-27T22:35:00Z,4.0,VFR,K0R0 272235Z AUTO 25004KT 10SM CLR 14/08 A2995 RMK AO2 PWINO
0R1,,ATMORE MUNI,18/36,31.01613888,-87.44675,,,,
0R2,,LINCOLN MUNI,18/36,38.40233333,-93.33225,,,,
0R4,,CONCORDIA PARISH,14/32,31.562,-91.50647222,2023-12-27T22:35:00Z,15.0,VFR,K0R4 272235Z AUTO 26015KT 10SM CLR 16/00 A2997 RMK AO2 T01590004
0R5,,DAVID G JOYCE,09/27,31.96366222,-92.66026055,,,,
0R6,,HAMPTON MUNI,02/20,33.52261111,-92.46027777,,,,
0R7,,THE RED RIVER,18/36,31.99027777,-93.30761111,,,,
0S0,,LIND,05/23,46.97684194,-118.5872311,,,,
0S1,,MEADOW CREEK USFS,17/35,47.84936516,-113.4174194,,,,
0S5,,NEZPERCE MUNI,15/33,46.23852777,-116.2385556,,,,
0S7,,DOROTHY SCOTT INTL,15/33,48.95897222,-119.4119722,,,,
0S9,,JEFFERSON COUNTY INTL,09/27,48.05380555,-122.8106389,2023-12-27T22:35:00Z,8.0,VFR,K0S9 272235Z AUTO 11008KT 10SM CLR 12/07 A2974 RMK AO2
0U0,,LANDMARK USFS,16/34,44.64211111,-115.5333889,,,,
0U1,,WARM SPRINGS CREEK,02/20,44.14222222,-115.3140556,,,,
0U2,,COPPER BASIN,13/31,43.80197222,-113.8315278,,,,
0U3,,MAHONEY CREEK USFS,04/22,44.74458333,-114.9213889,,,,
0U7,,HOLLOW TOP,05/23,43.32375,-113.5905,,,,
0U8,,MAY,09/27,44.61033333,-113.8948611,,,,
0U9,,LEE WILLIAMS MEML,08/26,44.46127777,-116.7580278,,,,
0V3,,PIONEER VILLAGE FLD,05/23,40.51491666,-98.94563888,,,,
0V4,,BROOKNEAL/CAMPBELL COUNTY,06/24,37.14172222,-79.01638888,2023-12-27T22:35:00Z,0.0,MVFR,K0V4 272235Z AUTO 00000KT 10SM SCT006 BKN010 OVC014 12/12 A2979 RMK AO1
0V7,,KAYENTA,05/23,36.71644444,-110.2284444,,,,
0VG,,LEE COUNTY,07/25,36.654085,-83.21784666,2023-12-27T22:35:00Z,0.0,VFR,K0VG 272235Z AUTO 00000KT 10SM CLR 09/07 A2984 RMK AO2
0W3,,HARFORD COUNTY,10/28,39.56820083,-76.202965,,,,
0Y6,,LAKE MILLS MUNI,18/36,43.41366666,-93.51175,,,,
10C,,GALT FLD,18/36,42.40288888,-88.37511111,,,,
10D,,WINSTED MUNI,09/27,44.95385,-94.06539027,,,,
10G,,HOLMES COUNTY,09/27,40.53670125,-81.95594116,2023-12-27T22:35:00Z,6.0,LIFR,K10G 272235Z AUTO 32006KT 1 3/4SM BR OVC003 07/07 A2984 RMK AO2
10U,,OWYHEE,05/23,41.95362833,-116.18207,,,,
10X,,OX RANCH,17/35,29.46148194,-100.1142892,,,,
11A,,CLAYTON MUNI,10/28,31.88332444,-85.48522472,,,,
11K,,SQUADRON FLD,01/19,37.46117222,-95.24194444,,,,
11N,,CANDLELIGHT FARMS,17/35,41.56916666,-73.46208333,,,,
11R,,BRENHAM MUNI,16/34,30.2196755,-96.37440277,2023-12-27T22:35:00Z,9.0,VFR,K11R 272235Z AUTO 33009KT 10SM CLR 16/00 A3003 RMK AO2 T01620002
11S,,SEKIU,08/26,48.26611638,-124.3139647,,,,
11V,,EASTON/VALLEY VIEW/,14/32,40.32735694,-104.6093944,,,,
11Y,,FLYING FEATHERS,18/36,44.06263127,-88.19246663,,,,
12A,,ARKAVALLEY,18/36,35.17752961,-92.33506697,,,,
12D,,TOWER MUNI,08/26,47.81815555,-92.28606666,,,,
12G,,SHELBY COMMUNITY,03/21,40.87286111,-82.69738888,,,,
12J,,BREWTON MUNI,12/30,31.05071138,-87.06726666,,,,
12K,,SUPERIOR MUNI,18/36,40.04619986,-98.06125544,,,,
12N,,AEROFLEX/ANDOVER,03/21,41.00861972,-74.73803388,2023-12-27T21:54:00Z,3.0,VFR,K12N 272154Z AUTO 35003KT 08/07 A2995 RMK AO1 SLP147 T00780067
12S,,MONUMENT MUNI,14/32,44.83152777,-119.4296667,,,,
12V,,ONA AIRPARK,07/25,38.44088888,-82.20077777,,,,
12Y,,LE SUEUR MUNI,13/31,44.44088808,-93.91584727,,,,
13C,,LAKEVIEW/GRIFFITH FLD,10/28,43.45225,-85.26463888,,,,
13K,,LT WILLIAM M MILLIKEN,18/36,37.85161611,-96.29202444,,,,
13Q,,JEWETT MESA,06/24,34.00430555,-108.6797778,,,,
13W,,CAMANO ISLAND AIRFIELD,16/34,48.25694444,-122.4361944,,,,
13Y,,LITTLEFORK MUNI/HANOVER,09/27,48.40827777,-93.579425,,,,
14A,,LAKE NORMAN AIRPARK,14/32,35.61386944,-80.89943055,,,,
14G,,FREMONT,09/27,41.33308333,-83.16119444,,,,
14J,,CARL FOLSOM,01/19,31.41004166,-86.09033611,,,,
14M,,HOLLANDALE MUNI,08/26,33.18251488,-90.83049347,,,,
14N,,BELTZVILLE,08/26,40.8442875,-75.63535416,,,,
14S,,WESTPORT,12/30,46.89695083,-124.1007453,,,,
14Y,,TODD FLD,16/34,45.89759416,-94.87362277,2023-12-27T22:35:00Z,0.0,LIFR,K14Y 272235Z AUTO 00000KT 1 1/4SM BR OVC004 00/00 A3005 RMK AO2
15A,,MARK REYNOLDS/NORTH MOBILE COUNTY,03/21,30.90913888,-87.99633333,,,,
15F,,HASKELL MUNI,18/36,33.19148686,-99.71787263,,,,
15G,,WELTZIEN SKYPARK,03/21,41.02818472,-81.79814722,,,,
15J,,COOK COUNTY,15/33,31.13675777,-83.45422333,,,,
15M,,IUKA,01/19,34.77333333,-88.16608333,2023-12-27T22:35:00Z,0.0,VFR,K15M 272235Z AUTO 00000KT 10SM BKN047 OVC055 12/02 A2985 RMK AO2 T01150023
15N,,JENKINS,12/30,39.11733333,-75.58441666,,,,
15W,,DENNIS FARMS,09/27,42.89441666,-84.39222222,,,,
15Z,PAMX,MCCARTHY,01/19,61.43781908,-142.902503,,,,
16A,PPIT,NUNAPITCHUK,18/36,60.906,-162.4405833,,,,
16D,,PERHAM MUNI,13/31,46.61097222,-95.60611111,,,,
16G,,SENECA COUNTY,06/24,41.09405555,-83.2125,,,,
16J,,DAWSON MUNI,14/32,31.74328805,-84.41929138,,,,
16S,,MYRTLE CREEK MUNI,03/21,42.99726111,-123.3153472,,,,
16W,,LITTLE GOOSE LOCK AND DAM,07/25,46.58394444,-118.0035833,,,,
16X,,PROPWASH,17/35,33.08061111,-97.35841666,,,,
17A,,TRIGGER GAP,10/28,36.32825,-93.62221388,,,,
17G,,PORT BUCYRUS/CRAWFORD COUNTY,09/27,40.78158333,-82.97480555,,,,
17J,,DONALSONVILLE MUNI,01/19,31.00650722,-84.87763666,2023-12-27T22:35:00Z,3.0,VFR,K17J 272235Z AUTO 25003KT 10SM CLR 14/05 A2994 RMK AO2 T01430047
17K,,BOISE CITY,04/22,36.77430555,-102.5104444,,,,
17M,,MAGEE MUNI,18/36,31.862765,-89.80061444,,,,
17N,,CROSS KEYS,09/27,39.70547583,-75.03300305,,,,
17S,,CHEHALEM AIRPARK,07/25,45.32372777,-123.0542694,,,,
17V,,HAXTUN MUNI,17/35,40.62444444,-102.6079722,,,,
18A,,FRANKLIN-HART,08/26,34.34036111,-83.13080555,2023-12-27T22:35:00Z,4.0,VFR,K18A 272235Z AUTO 25004KT 10SM CLR 12/08 A2984 RMK AO2 T01240077
18I,,MC CREARY COUNTY,04/22,36.69538888,-84.3915,,,,
18K,,FOWLER,03/21,37.38427777,-100.1861944,,,,
18T,,TATUM,12/30,33.26080555,-103.2784861,,,,
18V,,PLATTE VALLEY AIRPARK,15/33,40.10272222,-104.7011944,,,,
18Y,,MILACA MUNI,16/34,45.77246472,-93.63218444,,,,
19M,,C A MOORE,01/19,33.12546111,-90.02555694,,,,
19N,,PINE VALLEY,05/23,39.77844444,-74.94780555,,,,
19S,,SUBLETTE MUNI,08/26,37.49686111,-100.8329167,2023-12-27T22:35:00Z,13.0,MVFR,K19S 272235Z AUTO 35013KT 10SM OVC022 03/00 A3009 RMK AO2 T00311004
1A1,,GREEN ACRES,03/21,42.14944444,-73.75047222,,,,
1A2,,ARTHUR,17/35,47.11263611,-97.20814722,,,,
1A3,,MARTIN CAMPBELL FLD,02/20,35.01581611,-84.34683111,,,,
1A4,,LOGAN FLD,05/23,31.10370277,-86.0626,,,,
1A5,,MACON COUNTY,07/25,35.22231219,-83.41999661,2023-12-27T22:30:00Z,3.0,VFR,K1A5 272230Z AUTO 25003KT 10SM CLR 10/04 A2986 RMK AO2 T01040044
1A6,,MIDDLESBORO/BELL COUNTY,10/28,36.61026,-83.73731527,2023-12-27T22:35:00Z,0.0,VFR,K1A6 272235Z AUTO 00000KT 10SM CLR 09/07 A2984 RMK AO2 T00850066
1A7,,JACKSON COUNTY,18/36,36.39681694,-85.64132527,,,,
1A8,,GOLDFIELD,H1,37.72205861,-117.2363658,,,,
1A9,,PRATTVILLE/GROUBY FLD,09/27,32.43872222,-86.51269444,2023-12-27T22:35:00Z,,VFR,K1A9 272235Z AUTO 10SM CLR 11/03 A2991 RMK AO2 T01110028
1B0,,DEXTER RGNL,16/34,45.0045075,-69.23743666,,,,
1B1,,COLUMBIA COUNTY,03/21,42.29130555,-73.71033333,,,,
1B2,,KATAMA AIRPARK,06/24,41.35845055,-70.52447055,,,,
1B5,,FRANCONIA,18/36,44.19595036,-71.75070327,,,,
1B6,,HOPEDALE INDUSTRIAL PARK,18/36,42.10648583,-71.51009,,,,
1B8,,CHAPIN FLD,05/23,43.05269444,-73.36313888,,,,
1B9,,MANSFIELD MUNI,04/22,42.00087916,-71.19804111,,,,
1BT,,BONNE TERRE MUNI,14/32,37.91898055,-90.57520277,,,,
1C1,,PAXTON,18/36,40.44897888,-88.12773805,,,,
1C3,,ARGYLE,03/21,43.25452777,-73.47019444,,,,
1C5,,BOLINGBROOK'S CLOW INTL,18/36,41.69591666,-88.1295,,,,
1C8,,COTTONWOOD,18/36,42.29168583,-89.13621833,,,,
1C9,,FRAZIER LAKE AIRPARK,05W/23W,36.95283333,-121.4626389,,,,
1D1,,MILBANK MUNI,07/25,45.2305,-96.56608333,2023-12-27T22:40:00Z,5.0,LIFR,K1D1 272240Z AUTO 33005KT 1 1/2SM UP BR OVC003 00/00 A3007 RMK AO2
1D2,,CANTON-PLYMOUTH-METTETAL,18/36,42.34780555,-83.45633333,,,,
1D3,,PLATTE MUNI,14/32,43.40471525,-98.83049091,,,,
1D4,,MAYFIELD,09/27,40.99255638,-81.43177916,,,,
1D6,,HECTOR MUNI,12/30,44.73110252,-94.713786,,,,
1D7,,THE SIGURD ANDERSON,12/30,45.29311111,-97.51361111,,,,
1D8,,REDFIELD MUNI,17/35,44.85656722,-98.53122833,2023-12-27T22:35:00Z,11.0,LIFR,K1D8 272235Z AUTO 33011KT 6SM UP BR BKN003 OVC007 01/01 A3008 RMK AO2
1DA,,BIG BAR USFS,17/35,45.53457777,-116.5309167,,,,
1DS,,DRY SWAMP,02/20,33.38426111,-80.907025,,,,
1E2,,TERLINGUA RANCH,02/20,29.4515,-103.3976111,,,,
1E4,,PALO DURO,17/35,35.14372222,-101.8392222,,,,
1E7,,BUFFALO,02/20,35.06388888,-101.8775833,,,,
1E8,,DEGRASSE MOORES,02/20,44.38791666,-75.06633333,,,,
1F0,,ARDMORE DOWNTOWN EXEC,17/35,34.14697222,-97.12266666,2023-12-27T22:35:00Z,13.0,VFR,K1F0 272235Z AUTO 33013KT 10SM CLR 07/M05 A3007 RMK AO2 T00651046
1F2,,PLATEAU SKY RANCH,06/24,43.22555194,-74.11445019,,,,
1F4,,MADILL MUNI,18/36,34.14040194,-96.81203222,,,,
1F5,,HOXIE-SHERIDAN COUNTY,17/35,39.36508333,-100.4380833,,,,
1F7,,AIRPARK EAST,13/31,32.81294444,-96.35202777,,,,
1G0,,WOOD COUNTY,10/28,41.391,-83.63013888,,,,
1G1,,ELYRIA,09/27,41.33152777,-82.10025,,,,
1G3,,KENT STATE UNIVERSITY,01/19,41.15138888,-81.41511111,,,,
1G4,,GRAND CANYON WEST,17/35,35.98611111,-113.8169167,,,,
1G5,,MEDINA MUNI,01/19,41.13144444,-81.76488888,,,,
1G8,,EDDIE DEW MEML AIRPARK,17/35,40.47598888,-80.62805972,,,,
1H0,,CREVE COEUR,16/34,38.72733333,-90.50841666,,,,
1H1,,AIRLANE ENTERPRISES,10/28,43.20588888,-76.17930555,,,,
1H2,,EFFINGHAM COUNTY MEML,11/29,39.07044444,-88.53352777,2023-12-27T22:35:00Z,4.0,VFR,K1H2 272235Z AUTO 05004KT 10SM OVC060 06/02 A2985 RMK AO2 T00590021
1H3,,STATE TECHNICAL COLLEGE OF MISSOURI,09/27,38.47161111,-91.81722222,,,,
1H4,,GREENVILLE-RAINBOW,01/19,42.41970277,-74.00689166,,,,
1H5,,WILLOW SPRINGS MEML,17/35,36.98961805,-91.95407638,,,,
1H6,,HARVEY YOUNG,N/S,36.13891666,-95.82505555,,,,
1H8,,CASEY MUNI,18/36,39.30250916,-88.00406194,,,,
1H9,,NEST OF EAGLES,01/19,45.83561575,-91.80283775,,,,
1I1,,MARCY FLD,02/20,44.22085555,-73.78801111,,,,
1I3,,SHAWNEE FLD,18/36,39.04272222,-87.00275,,,,
1I5,,FREEHOLD,12/30,42.364,-74.06502777,,,,
1I8,,CONVERSE,07/25,40.57320277,-85.89959722,,,,
1I9,,DELPHI MUNI,18/36,40.54081083,-86.68146638,,,,
1J9,,FORT WALTON BEACH,18/36,30.40630555,-86.82919444,,,,
1K1,,LLOYD STEARMAN FLD,17/35,37.77444444,-97.11322222,,,,
1K2,,LINDSAY MUNI,01/19,34.84945138,-97.58529166,,,,
1K4,,DAVID JAY PERRY,13/31,35.1550675,-97.47039388,,,,
1K5,,WAYNOKA MUNI,17/35,36.5713,-98.85466388,,,,
1K6,,ELLINWOOD MUNI,08/26,38.37284027,-98.59864305,,,,
1K7,,FREDONIA,17/35,37.58070416,-95.83715555,,,,
1K8,,SOUTH GRAND LAKE RGNL,18/36,36.54636111,-95.01352777,,,,
1K9,,SATANTA MUNI,03/21,37.45666666,-100.9846111,,,,
1KS,,LINN COUNTY,18/36,38.17343333,-94.690325,,,,
1L1,,LINCOLN COUNTY,17/35,37.78741666,-114.4198889,,,,
1L3,,SEARCHLIGHT,H1,35.44455555,-114.9093611,,,,
1L4,,KIDWELL,15/33,35.30554944,-114.8827528,,,,
1L7,,ESCALANTE MUNI,13/31,37.74536111,-111.5701667,,,,
1L8,,GENERAL DICK STOUT FLD,01/19,37.14021536,-113.3060799,,,,
1L9,,PAROWAN,04/22,37.85963888,-112.8158611,,,,
1M2,,BELZONI MUNI,03/21,33.14518055,-90.51528472,,,,
1M3,,ARDMORE,01/19,34.97908333,-86.88327777,,,,
1M4,,POSEY FLD,18/36,34.28033333,-87.60041666,2023-12-27T21:56:00Z,8.0,VFR,K1M4 272156Z AUTO 18008KT 10SM BKN065 12/01 A2986 RMK AO2 SLP108 T01170006
1M5,,DOUGLAS HUNTER FLD,01/19,36.59286111,-86.47691666,2023-12-27T22:35:00Z,4.0,VFR,K1M5 272235Z AUTO 11004KT 10SM SCT080 BKN120 07/04 A2982 RMK A01
1M6,,STEVENS RANCH,01/19,45.28804291,-106.1452956,,,,
1M7,,FULTON,09/27,36.52563888,-88.91783333,,,,
1M8,,MYRICKS,09/27,41.83905555,-71.02647222,,,,
1M9,,LAKE BARKLEY STATE PARK,02/20,36.81780138,-87.90751666,,,,
1MO,,MOUNTAIN GROVE MEML,08/26,37.12086141,-92.31010666,,,,
1N1,,SANDIA AIRPARK ESTATES EAST,09/27,35.09461111,-106.1645556,,,,
1N3,,ALBERT,11/29,40.9716875,-78.24297916,,,,
1N5,,BENNETT,08/26,38.41276933,-75.61693077,,,,
1N7,,BLAIRSTOWN,07/25,40.97113313,-74.99750405,,,,
1O1,,GRANDFIELD MUNI,08/26,34.23758944,-98.74200916,,,,
1O2,,LAMPSON FLD,10/28,38.99061111,-122.9007222,,,,
1O3,,LODI,12/30,38.20244166,-121.2691417,,,,
1O4,,THOMAS MUNI,17/35,35.73366666,-98.73052777,,,,
1O5,,MONTAGUE-YREKA ROHRER FLD,15/33,41.72998333,-122.5444806,,,,
1O6,,DUNSMUIR MUNI-MOTT,14/32,41.26291944,-122.2720375,,,,
1O8,,TIPTON MUNI,17/35,34.458625,-99.17133333,,,,
1OK,,FAIRMONT FLD,17/35,36.36523611,-97.66784166,,,,
1P1,,PLYMOUTH MUNI,12/30,43.77825416,-71.75385,2023-12-27T22:35:00Z,0.0,LIFR,K1P1 272235Z AUTO 00000KT 3/4SM -SN OVC002 05/05 A3004 RMK AO2 T00470046
1PP,,STILWELL / CHEROKEE NATION,17/35,35.75718472,-94.64985694,,,,
1Q1,,ECKERT FLD,13/31,36.16238888,-119.0506389,,,,
1Q2,,SPAULDING,16/34,40.65030555,-120.7685089,,,,
1Q4,,NEW JERUSALEM,12/30,37.67777777,-121.3011944,,,,
1Q5,,GRAVELLY VALLEY,01/19,39.45072222,-122.9546111,,,,
1Q9,,MILI,05/23,6.08333333,171.7333333,,,,
1QK,,GOVE COUNTY,17/35,39.03859,-100.2338883,,,,
1R1,,JENA,18/36,31.66881472,-92.15759555,,,,
1R4,,WOODWORTH,01/19,31.12635277,-92.50128888,,,,
1R7,,BROOKHAVEN-LINCOLN COUNTY,05/23,31.60583333,-90.40930555,,,,
1R8,,BAY MINETTE MUNI,08/26,30.87033333,-87.81933333,2023-12-27T22:35:00Z,5.0,VFR,K1R8 272235Z AUTO 17005KT 10SM CLR 13/09 A2994 RMK AO2
1RL,,POINT ROBERTS AIRPARK,16/34,48.97713888,-123.0792222,,,,
1S1,,ECKHART INTL,15/33,48.99047222,-116.5020556,,,,
1S2,,DARRINGTON MUNI,10/28,48.2586125,-121.6102036,,,,
1S3,,TILLITT FLD,09/27,46.27115077,-106.6239021,2023-12-27T22:45:00Z,0.0,VFR,K1S3 272245Z AUTO 00000KT 10SM 06/M04 A3018 
1S4,,SEILING,17/35,36.15536111,-98.93369444,,,,
1S5,,SUNNYSIDE MUNI,07/25,46.32707222,-119.9703622,,,,
1S6,,PRIEST RIVER MUNI,01/19,48.19064583,-116.9098611,,,,
1S7,,SLATE CREEK,12/30,45.67177777,-116.3057222,,,,
1S8,,ARLINGTON MUNI,06/24,45.72255555,-120.1769722,,,,
1S9,,CHEWELAH MUNI,17/35,48.31395819,-117.743426,,,,
1T7,,KESTREL AIRPARK,12/30,29.81175,-98.42605555,,,,
1U0,,BEAR TRAP,06/24,42.97533333,-113.35075,,,,
1U1,,MOOSE CREEK /USFS/,04/22,46.12631944,-114.9217028,,,,
1U2,,MUD LAKE/WEST JEFFERSON COUNTY,04/22,43.85126527,-112.5010278,,,,
1U3,,MURPHY,12/30,43.21594444,-116.5483611,,,,
1U4,,NEW MEADOWS,14/32,44.978,-116.2839167,,,,
1U6,,OAKLEY MUNI,17/35,42.23388888,-113.8776389,,,,
1U7,,BEAR LAKE COUNTY,10/28,42.24976111,-111.3416272,2023-12-27T22:35:00Z,5.0,VFR,K1U7 272235Z AUTO 27005KT 10SM CLR M05/M07 A3029 RMK A01
1U9,,PINE,16/34,43.46625,-115.3100278,,,,
1V0,,NAVAJO LAKE,06/24,36.80829055,-107.6526142,,,,
1V2,,GRANT COUNTY,17/35,42.00999444,-101.7700639,,,,
1V6,,FREMONT COUNTY,17/35,38.42856022,-105.1068544,2023-12-27T22:35:00Z,8.0,VFR,K1V6 272235Z AUTO 12008KT 10SM CLR 08/M06 A3011 RMK AO2
1V8,,LEACH,12/30,37.78491666,-106.0469167,,,,
1W1,,GROVE FLD,07/25,45.62782944,-122.4043114,,,,
1W3,,MEXICO FARMS,09/27,39.6059875,-78.76045972,,,,
1WF,,WACO FLD,18/36,40.01479444,-84.19807916,,,,
1X1,,HIGGINS/LIPSCOMB COUNTY,18/36,36.10590277,-100.0257067,,,,
1Y3,,JUDGE LEWIS FLD/MOUNT AYR MUNI,17/35,40.70638888,-94.22027777,,,,
1Y5,,NEW HAMPTON MUNI,17/35,43.08719583,-92.3432325,,,,
1Y9,,PAULLINA MUNI,17/35,42.98788888,-95.66447222,,,,
1Z1,,GRAND CANYON BAR TEN AIRSTRIP,16/34,36.2565,-113.2308889,,,,
20A,,ROBBINS FLD,06/24,33.97127777,-86.38038888,,,,
20K,,QUAIL CREEK,16/34,65.35471944,-149.7613778,,,,
20M,,MACON MUNI,18/36,33.13372222,-88.536,,,,
20N,,KINGSTON-ULSTER,15/33,41.98525,-73.96433333,,,,
20T,,ARESTI AERODROME,14/32,32.47069472,-97.56030055,,,,
20U,,BEACH,12/30,46.92516666,-103.9820556,2023-12-27T22:35:00Z,5.0,VFR,K20U 272235Z AUTO 28005KT 10SM CLR 02/M07 A3018 RMK AO2
20V,,MC ELROY AIRFIELD,09/27,40.05343416,-106.3689744,2023-12-27T22:35:00Z,0.0,VFR,K20V 272235Z AUTO 00000KT 10SM CLR M06/M11 A3028 RMK AO2
21D,,LAKE ELMO,14/32,44.99719666,-92.85368666,2023-12-27T22:35:00Z,0.0,VFR,K21D 272235Z AUTO 00000KT 10SM CLR 00/M03 A3008 RMK AO2
21F,,JACKSBORO MUNI,18/36,33.22786111,-98.14644444,,,,
21N,,MATTITUCK,01/19,40.98694444,-72.51913888,,,,
21W,,RANGER CREEK,15/33,47.01313888,-121.5336667,,,,
22D,,BANDEL,01/19,40.13059444,-80.09613888,,,,
22F,,KENT COUNTY,17/35,33.22911111,-100.5691111,,,,
22I,,VINTON COUNTY,09/27,39.328125,-82.44182166,,,,
22M,,PONTOTOC COUNTY,11/29,34.27555555,-89.03802777,,,,
22N,,JAKE ARNER MEML,08/26,40.80950888,-75.76149638,2023-12-27T22:35:00Z,3.0,IFR,K22N 272235Z AUTO 05003KT 4SM RA OVC007 08/07 A2993 RMK AO2
22S,,PAISLEY,13/31,42.71797222,-120.5627778,,,,
22T,,TECUMSEH MILLS,07/25,42.03384863,-83.87835352,,,,
23D,,KARLSTAD MUNI,17/35,48.57760138,-96.54126805,,,,
23M,,CLARKE COUNTY,16/34,32.0859545,-88.73902519,,,,
23N,,BAYPORT AERODROME,18/36,40.75759611,-73.05268972,,,,
23R,,DEVINE MUNI,17/35,29.13838888,-98.94188888,,,,
23S,,SEELEY LAKE,16/34,47.18194444,-113.4452222,,,,
23W,,CORNUCOPIA FLD,05/23,46.86605138,-91.08391805,,,,
24A,,JACKSON COUNTY,15/33,35.31721111,-83.20970361,2023-12-27T22:25:00Z,6.0,VFR,K24A 272225Z AUTO 29006G15KT 10SM CLR 11/M01 A2984 RMK AO2 T01121007
24C,,LOWELL CITY,12/30,42.95465833,-85.34561666,,,,
24F,,CYPRESS RIVER,05/23,32.74431416,-94.30468861,,,,
24J,,SUWANNEE COUNTY,07/25,30.30038888,-83.02438888,,,,
24K,,KRASSEL USFS,17/35,44.97422222,-115.72975,,,,
24M,,WILDERNESS AIRPARK,09/27,43.24474638,-85.71170888,,,,
24N,,JICARILLA APACHE NATION,17/35,36.828535,-106.8841914,,,,
24R,,DILLEY AIRPARK,12/30,28.6855,-99.18908333,,,,
24S,,PINEHURST STATE,04/22,42.11019444,-122.3831111,,,,
25D,,FOREST LAKE,13/31,45.24740972,-92.99285416,,,,
25J,,LOWER CHATTAHOOCHEE RGNL,18/36,31.70188888,-84.82697222,,,,
25M,,RIPLEY,03/21,34.72272222,-89.01469444,,,,
25U,,MEMALOOSE USFS,17/35,45.42786111,-116.6938889,,,,
26A,,ASHLAND/LINEVILLE,09/27,33.28419722,-85.80896527,,,,
26N,,OCEAN CITY MUNI,06/24,39.26347916,-74.60747638,,,,
26R,,JACKSON COUNTY,15/33,29.00099916,-96.58196194,,,,
26U,,MC DERMITT STATE,16/34,42.01030555,-117.7271389,,,,
26W,,WOLF LAKE,18/36,42.20972222,-84.23166666,,,,
27C,,MECOSTA MORTON,03/21,43.6300463,-85.26148936,,,,
27K,,GEORGETOWN-SCOTT COUNTY RGNL,03/21,38.23443416,-84.43468361,,,,
27P,,ELDORA,18/36,42.32990555,-93.11428333,,,,
27R,,ELDORADO,17/35,30.86222222,-100.6108611,,,,
27W,,LAKE WENATCHEE STATE,09/27,47.81941361,-120.7198942,,,,
28A,,GOOSE CREEK,04/22,35.12097944,-80.58728944,,,,
28J,,PALATKA MUNI - LT KAY LARKIN FLD,09/27,29.65838247,-81.68950305,2023-12-27T22:35:00Z,0.0,VFR,K28J 272235Z AUTO 00000KT 10SM CLR 15/13 A2993 RMK AO2
28M,,CRANLAND,18/36,42.02513888,-70.83811111,,,,
28N,,VINELAND-DOWNSTOWN,12/30,39.53958333,-74.96766666,,,,
28U,,OWYHEE RESERVOIR STATE,13/31,43.42483333,-117.3456667,,,,
29C,,GRINDSTONE AIR HARBOR,18/36,44.04677777,-82.91441666,,,,
29D,,GROVE CITY,10/28,41.14602777,-80.16775,,,,
29F,,JOE VAUGHN SPRAYING,17/35,34.39283333,-101.7599167,,,,
29N,,KROELINGER,10/28,39.52400416,-75.04634277,,,,
29S,,GARDINER,10/28,45.04993555,-110.7466008,,,,
2A0,,MARK ANTON,03/21,35.48625,-84.93108333,2023-12-27T22:35:00Z,4.0,VFR,K2A0 272235Z AUTO 19004KT 10SM OVC070 12/02 A2983 RMK A01
2A1,,JAMESTOWN MUNI,01/19,36.34970361,-84.94665333,,,,
2A2,,HOLLEY MOUNTAIN AIRPARK,05/23,35.65071902,-92.40381294,,,,
2A3,PALB,LARSEN BAY,04/22,57.53508333,-153.9766667,,,,
2A6,,HOLLY GROVE MUNI,15/33,34.58244444,-91.16522222,,,,
2A8,,ADDISON MUNI,05/23,34.21714166,-87.15815833,,,,
2A9,PFKO,KOTLIK,02/20,63.03058333,-163.5326389,,,,
2AK,,LIME VILLAGE,10/28,61.35913055,-155.4403861,,,,
2AN,,TISCHNER AIR,02/20,64.25450555,-149.1920778,,,,
2B1,,CAPE COD,05/23,41.68527777,-70.40225,,,,
2B2,,PLUM ISLAND,10/28,42.79536111,-70.83944444,,,,
2B3,,PARLIN FLD,12/30,43.38706858,-72.1876105,,,,
2B6,,HOLLISTER FLD,05/23,39.43756194,-83.70825611,,,,
2B7,,PITTSFIELD MUNI,18/36,44.76852777,-69.37441666,,,,
2B9,,POST MILLS,05/23,43.88372222,-72.25208333,,,,
2C5,,ALMENA,09/27,42.25298472,-85.85165416,,,,
2C6,,TRI-COUNTY,02/20,40.774,-90.07441666,,,,
2C7,PFSH,SHAKTOOLIK,15/33,64.37108333,-161.2239722,,,,
2C8,,CAVALIER MUNI,16/34,48.78372222,-97.63197222,2023-12-27T22:35:00Z,3.0,VFR,K2C8 272235Z AUTO 09003KT 10SM CLR M01/M01 A3014 RMK AO2
2D1,,LEE FLD,18/36,40.96997075,-81.09866697,,,,
2D5,,OAKES MUNI,H1,46.17329611,-98.08003861,2023-12-27T22:35:00Z,12.0,LIFR,K2D5 272235Z AUTO 34012KT 6SM BR OVC003 00/00 A3010 RMK AO2
2D7,,BEACH CITY,10/28,40.64635138,-81.5559,,,,
2E2,,SHARPE'S STRIP,18/36,42.95160833,-82.77586527,,,,
2E5,,DELL CITY MUNI,08/26,31.94762222,-105.1917833,,,,
2E6,,GROTON MUNI,15/33,45.5345,-98.09525,,,,
2E7,,MC LEAN/GRAY COUNTY,17/35,35.24686111,-100.5468056,,,,
2E8,,CACKLEBERRY,06/24,42.42513194,-83.86855416,,,,
2F0,,IRAAN MUNI,14/32,30.90622222,-101.8898056,,,,
2F1,,SHAMROCK MUNI,17/35,35.23461111,-100.1853056,,,,
2F4,,T-BAR,08/26,33.181,-101.8193889,,,,
2F6,,SKIATOOK MUNI,N/S,36.35514416,-96.01072561,,,,
2F7,,COMMERCE MUNI,18/36,33.29286111,-95.89641666,,,,
2G1,,CONCORD AIRPARK,03/21,41.6670435,-81.19718336,,,,
2G2,,GEARY A BATES/JEFFERSON COUNTY AIRPARK,14/32,40.36061111,-80.70169444,2023-12-27T22:35:00Z,0.0,MVFR,K2G2 272235Z AUTO 00000KT 3SM BR SCT013 BKN021 OVC043 11/11 A2980 RMK A01
2G4,,GARRETT COUNTY,09/27,39.58080555,-79.33594444,2023-12-27T22:25:00Z,5.0,LIFR,K2G4 272225Z AUTO 14005KT M1/4SM FG OVC001 08/08 A2980 RMK AO2 TSNO
2G5,,GRANITE SHOALS/ BOB SYLVESTER AIRPARK,02/20,30.58935472,-98.37030361,,,,
2G8,,GORHAM,12/30,44.39358194,-71.19808888,,,,
2G9,,SOMERSET COUNTY,14/32,40.03850313,-79.01529641,2023-12-27T22:35:00Z,0.0,IFR,K2G9 272235Z AUTO 00000KT 10SM BKN005 BKN060 OVC075 07/06 A2981 RMK AO2
2GC,,GRAYS CREEK,17/35,34.89369166,-78.84353055,,,,
2H0,,SHELBY COUNTY,14/32,39.41130277,-88.84552222,,,,
2H2,,JERRY SUMNERS SR AURORA MUNI,18/36,36.96230555,-93.69533333,,,,
2H5,,HOUSTON FORT BEND,17/35,29.49916666,-95.89838888,,,,
2H9,,ROLETTE,15/33,48.6668625,-99.85316111,,,,
2I0,,MADISONVILLE RGNL,05/23,37.3559275,-87.39821972,2023-12-27T22:35:00Z,3.0,VFR,K2I0 272235Z AUTO 12003KT 10SM SCT070 OVC075 09/01 A2983 RMK AO2 T00850012
2I3,,ROUGH RIVER STATE PARK,02/20,37.60981527,-86.50716527,,,,
2IS,,AIRGLADES,13/31,26.73517083,-81.05106,2023-12-27T22:35:00Z,3.0,VFR,K2IS 272235Z AUTO 08003KT 7SM OVC100 22/14 A2994 RMK AO2 T02160141
2J0,,WAKULLA COUNTY,18/36,29.98945555,-84.39539166,,,,
2J3,,LOUISVILLE MUNI,13/31,32.98594444,-82.38480555,,,,
2J5,,MILLEN,17/35,32.89302777,-81.96522222,2023-12-27T22:35:00Z,0.0,VFR,K2J5 272235Z AUTO 00000KT 10SM CLR 15/09 A2987 RMK AO2 T01490094
2J8,,PIERSON MUNI,05/23,29.25002777,-81.45933333,,,,
2J9,,QUINCY MUNI,14/32,30.59788638,-84.55744027,2023-12-27T22:35:00Z,3.0,VFR,K2J9 272235Z AUTO 27003KT 10SM CLR 15/07 A2994 RMK AO2
2K1,,POND CREEK MUNI,15/33,36.66253027,-97.80866611,,,,
2K4,,SCOTT FLD,17/35,34.89261111,-99.52822222,,,,
2K5,,TELIDA,02/20,63.37898472,-153.2842153,,,,
2K6,,ELK COUNTY,18/36,37.38091666,-96.27111111,,,,
2K7,,NEODESHA MUNI,15/33,37.43536444,-95.64611888,,,,
2K8,,ARGONIA MUNI,17/35,37.27536666,-97.75875,,,,
2K9,,HASKELL,17/35,35.83286111,-95.66741666,,,,
2KL,,SUNRISE BEACH,12/30,30.59922222,-98.40922222,,,,
2L0,,PINEVILLE MUNI,18/36,31.34219166,-92.44357777,,,,
2L1,,LARIMORE MUNI,12/30,47.90671388,-97.64097222,,,,
2M0,,PRINCETON-CALDWELL COUNTY,05/23,37.11513216,-87.85708216,,,,
2M1,,HARRY S TRUMAN RGNL,03/21,39.01963888,-94.0865,,,,
2M2,,LAWRENCEBURG-LAWRENCE COUNTY,17/35,35.23430111,-87.25794361,2023-12-27T22:35:00Z,4.0,VFR,K2M2 272235Z AUTO 20004KT 10SM BKN060 OVC070 12/M01 A2982 RMK A01
2M4,,G V MONTGOMERY,17/35,32.35494444,-89.48816666,,,,
2M7,,HOFFMAN'S BLACK MOUNTAIN AERODROME,15/33,45.53161666,-84.30804444,,,,
2M8,,CHARLES W BAKER,18U/36U,35.27848038,-89.93299661,,,,
2MO,,MOUNT VERNON MUNI,18/36,37.06839027,-93.88493027,,,,
2N2,,NEWFOUND VALLEY,03/21,43.59201805,-71.75146805,,,,
2N4,,OWASCO AIRFIELD,11/29,42.73652777,-76.48625,,,,
2N5,,KAMPEL,05/23,40.04950972,-76.97715,,,,
2N6,,REDWING,11/29,40.02708333,-74.69088888,,,,
2O1,,GANSNER FLD,07/25,39.94391666,-120.9453889,,,,
2O3,,ANGWIN-PARRETT FLD,16/34,38.58002777,-122.4354722,,,,
2O6,,CHOWCHILLA,12/30,37.11327777,-120.247,,,,
2O7,,INDEPENDENCE,14/32,36.81637238,-118.2049326,,,,
2O8,,HINTON MUNI,18/36,35.50722222,-98.34255555,,,,
2P2,,WASHINGTON ISLAND,14/32,45.38825458,-86.92404027,2023-12-27T22:35:00Z,6.0,MVFR,K2P2 272235Z AUTO 35006KT 10SM OVC026 03/00 A3003 RMK AO2 T00250000
2P7,,ALDERMAN,01/19,40.05686308,-80.96318794,,,,
2Q0,,FLYING W,09/27,34.42892222,-80.06993888,,,,
2Q9,,DYER,12/30,37.60965361,-118.0064889,,,,
2R0,,WAYNESBORO MUNI,02/20,31.64355388,-88.635095,,,,
2R1,,LE MAIRE MEML,04/22,29.89906944,-91.666,,,,
2R2,,HENDRICKS COUNTY-GORDON GRAHAM FLD,18/36,39.74677777,-86.47516666,2023-12-27T22:35:00Z,4.0,VFR,K2R2 272235Z AUTO 04004KT 9SM OVC080 06/00 A2987 RMK AO2 T00630003 $
2R4,,PETER PRINCE FLD,18/36,30.6376225,-86.99365305,,,,
2R5,,ST ELMO,06/24,30.50191666,-88.27511111,,,,
2R6,,BUNKIE MUNI,18/36,30.95674722,-92.23409972,,,,
2R7,,FRANKLINTON,13/31,30.81944444,-90.11252777,,,,
2R9,,KENEDY RGNL,16/34,28.82498569,-97.86556833,2023-12-27T22:35:00Z,7.0,VFR,K2R9 272235Z AUTO 32007KT 10SM CLR 21/M01 A3001 RMK AO2 T02051013
2RR,,RIVER RANCH RESORT,16/34,27.77933333,-81.20391666,,,,
2S0,,TWISP MUNI,10/28,48.35058527,-120.0939508,,,,
2S1,,VASHON MUNI,17/35,47.45858861,-122.4769719,,,,
2S2,,BEAVER MARSH,18/36,43.12752777,-121.8087222,,,,
2S4,,WARDEN,17/35,46.96581522,-119.0663317,,,,
2S5,,WATERVILLE,07/25,47.65600444,-120.0564628,,,,
2S6,,SPORTSMAN AIRPARK,17/35,45.29567333,-122.9553783,,,,
2S7,,CHILOQUIN STATE,17/35,42.57931844,-121.8790142,,,,
2S8,,WILBUR,02/20,47.75338888,-118.7439167,,,,
2S9,,WILLAPA HARBOR,11/29,46.69762055,-123.8233831,,,,
2T1,,MULESHOE MUNI,07/25,34.18513638,-102.6410981,,,,
2T2,,PERCIVAL SPRINGS,18/36,39.01444444,-88.53927777,,,,
2TX,,SALADO,02/20,30.92041666,-97.54,,,,
2U0,,SMITH PRAIRIE,06/24,43.49836111,-115.5469722,,,,
2U4,,ROCKFORD MUNI,16/34,43.1895,-112.5318056,,,,
2U5,,SHEARER /USFS/,18/36,45.9895,-114.8412778,,,,
2U7,,STANLEY,17/35,44.20855555,-114.9345278,,,,
2U8,,THOMAS CREEK,03/21,44.72330555,-115.0039722,,,,
2V5,,WRAY MUNI,17/35,40.10039694,-102.2411725,2023-12-27T22:35:00Z,17.0,VFR,K2V5 272235Z AUTO 33017G21KT 10SM BKN038 OVC045 03/M05 A3011 RMK AO2
2V6,,YUMA MUNI,16/34,40.10571047,-102.7144377,2023-12-27T22:39:00Z,12.0,VFR,K2V6 272239Z AUTO 33012KT 10SM BKN048 OVC060 02/M05 A3011 RMK AO2
2VA,,ZANGGER VINTAGE AIRPARK,12/30,43.44995,-96.40316944,,,,
2W1,,DE VERE FLD,08/26,47.17758111,-120.8526608,,,,
2W2,,CLEARVIEW AIRPARK,14/32,39.46702777,-77.01744444,,,,
2W3,,SWANSON,16/34,46.87166666,-122.2572222,,,,
2W5,,MARYLAND,02/20,38.59704861,-77.07245833,,,,
2W6,,ST MARY'S COUNTY RGNL,11/29,38.31535666,-76.55011583,2023-12-27T22:30:00Z,6.0,LIFR,K2W6 272230Z AUTO 11006KT 10SM OVC004 13/13 A2979 RMK AO1
2Y1,,DRAKE,09/27,42.31751388,-93.4151625,,,,
2Y4,,ROCKWELL CITY MUNI,12/30,42.38782222,-94.61890277,,,,
2Z2,,EUREKA CREEK,16/34,65.17591138,-150.2205386,,,,
2Z3,,EVA CREEK,08/26,64.04211111,-148.8631389,,,,
30F,,LAKEVIEW,18L/36R,33.13138888,-97.01419444,,,,
30K,,INGALLS MUNI,17/35,37.90686111,-100.5314167,,,,
30M,,RALPH M SHARPE,01/19,34.65908333,-90.37622222,,,,
31D,,INTER COUNTY,E/W,40.3334025,-79.77921222,,,,
31E,,EAGLES NEST,14/32,39.66545416,-74.30804444,,,,
32A,,DANVILLE MUNI,11/29,35.0872625,-93.42892416,,,,
32S,,STEVENSVILLE,12/30,46.52511111,-114.0528056,,,,
33A,,FAIRVIEW,14/32,35.15733333,-82.12375,,,,
33J,,GENEVA MUNI,11/29,31.052625,-85.86894444,,,,
33K,,KINSLEY MUNI,18/36,37.90899444,-99.40310555,,,,
33M,,WATER VALLEY MUNI,15/33,34.16786111,-89.68488888,,,,
33N,,DELAWARE AIRPARK,09/27,39.21869444,-75.60047222,2023-12-27T22:35:00Z,10.0,LIFR,K33N 272235Z AUTO 09010KT 10SM OVC004 12/12 A2982 RMK A01
33R,,GROVETON-TRINITY COUNTY,16/34,31.08433333,-95.16411111,,,,
33S,,PRU FLD,01/19,47.12345277,-118.3893278,,,,
33U,,DUTCH JOHN,11/29,40.9178125,-109.3906607,,,,
33V,,WALDEN-JACKSON COUNTY,17/35,40.75038888,-106.2715278,,,,
34G,,MERILLAT,18/36,41.975045,-83.92521916,,,,
34M,,CAMPBELL MUNI,18/36,36.48605555,-90.01569444,,,,
34R,,HALLETTSVILLE MUNI,17/35,29.38995833,-96.95605972,,,,
35A,,"UNION COUNTY, TROY SHELTON FLD",05/23,34.68695277,-81.64116666,2023-12-27T22:35:00Z,5.0,VFR,K35A 272235Z AUTO 23005KT 10SM CLR 14/12 A2985 RMK A02 T01430124
35C,,WELLS,18/36,43.12863333,-85.50518611,,,,
35D,,PADGHAM FLD,11/29,42.53043652,-85.823779,,,,
35S,,WASCO STATE,07/25,45.58920416,-120.6739847,,,,
35X,,TRIPLE-ACE FLD,02/20,33.25185555,-97.55355555,,,,
36K,,KEARNY COUNTY,02/20,37.96944444,-101.2555833,2023-12-27T22:35:00Z,18.0,MVFR,K36K 272235Z AUTO 34018G24KT 10SM OVC029 04/01 A3011 RMK AO2
36S,,HAPPY CAMP,04/22,41.79067944,-123.3889444,,,,
37F,,MUNDAY MUNI,17/35,33.46872222,-99.58622222,,,,
37K,,HIGGS,18/36,33.92597222,-97.29636111,,,,
37M,,HORNERSVILLE MEML,06/24,36.04199741,-90.14913438,,,,
37N,,GARRISON DAM RECREATIONAL AIRPARK,11/29,47.48272777,-101.4081486,,,,
37S,,FORT PECK,05/23,48.00483333,-106.4778889,,,,
37T,,CALICO ROCK-IZARD COUNTY,15/33,36.16452777,-92.14447222,,,,
37V,,ARAPAHOE MUNI,15/33,40.34158333,-99.90780555,,,,
38C,,CAIN FLD,18/36,43.59847222,-85.49247222,,,,
38D,,SALEM AIRPARK INC,10R/28L,40.94808083,-80.86208194,,,,
38I,,COOK,09/27,40.09116805,-83.68936944,,,,
38K,,LUCAS,17/35,39.061955,-98.52534416,,,,
38N,,SMYRNA,10/28,39.30366666,-75.58380555,,,,
38S,,DEER LODGE-CITY-COUNTY,13/31,46.38783333,-112.7649444,2023-12-27T22:45:00Z,7.0,VFR,K38S 272245Z AUTO 17007KT 10SM 03/M07 A3015 
38U,,WAYNE WONDERLAND,13/31,38.36291472,-111.5959867,,,,
38W,,LYNDEN MUNI/JANSEN FLD,08/26,48.95589611,-122.4581183,,,,
39G,,AVOCA,09/27,43.03047777,-82.66946388,,,,
39K,,VERSAAIR SERVICES,16/34,38.69172222,-95.69016666,,,,
39N,,PRINCETON,10/28,40.39908888,-74.65900638,,,,
39P,,STROM FLD,07/25,46.55036083,-122.2666258,,,,
39T,,TRIPP CREEK,09/27,43.06475277,-84.48915166,,,,
39Z,,FLYING-A-RANCH,09/27,43.10511388,-86.12126944,,,,
3A2,,NEW TAZEWELL MUNI,07/25,36.40889722,-83.55718583,,,,
3A4,,GREENSBORO EXEC,17/35,35.94194444,-79.6855,,,,
3A5,,FLYING M RANCH,08/26,38.61275033,-119.0023202,,,,
3A9,,ARLINGTON MUNI,04/22,44.39382916,-97.12294769,,,,
3AK,,DRY BAY,05/23,59.16433333,-138.4888056,,,,
3AU,,AUGUSTA MUNI,18/36,37.67163888,-97.07786111,2023-12-27T22:35:00Z,9.0,MVFR,K3AU 272235Z AUTO 31009KT 10SM OVC028 01/M06 A3006 RMK AO2
3B0,,SOUTHBRIDGE MUNI,02/20,42.10111111,-72.03883333,,,,
3B1,,GREENVILLE MUNI,14/32,45.46283138,-69.55164944,,,,
3B3,,STERLING,16/34,42.42591666,-71.79286111,,,,
3B4,,SEACOAST AIRFIELD,12/30,43.1431343,-70.77343611,,,,
3B5,,TWITCHELL,04W/22W,44.18894444,-70.23286111,,,,
3B8,,SHADY ACRES,16/34,47.07038888,-122.3710833,,,,
3C1,,MISHAWAKA PILOTS CLUB,12/30,41.65699305,-86.03472388,,,,
3CK,,LAKE IN THE HILLS,08/26,42.20680925,-88.32299705,,,,
3CM,,JAMES CLEMENTS MUNI,18W/36W,43.54694444,-83.89547222,,,,
3CU,,CABLE UNION,08/26,46.19493305,-91.24845305,,,,
3D1,,CRIVITZ MUNI,18/36,45.21464086,-88.07329816,,,,
3D2,,EPHRAIM/GIBRALTAR,01/19,45.13570747,-87.18812808,2023-12-27T22:35:00Z,6.0,VFR,K3D2 272235Z AUTO 36006KT 10SM CLR 01/00 A3002 RMK AO2 T00130000
3D8,,BORDNER,09/27,41.336,-83.72319444,,,,
3DA,,DALTON,09/27,43.05684069,-83.80460008,,,,
3DW,,DOWNTOWN,11/29,37.22270555,-93.24834861,,,,
3E0,,MIAMI-ROBERTS COUNTY,02/20,35.71393222,-100.6031922,,,,
3EV,,SKYLANE,18/36,38.01194444,-87.59486111,,,,
3EX,,EXCELSIOR SPRINGS MEML,03/21,39.33727777,-94.19741666,,,,
3F2,,CISCO MUNI,17/35,32.41502777,-98.99683333,,,,
3F3,,C E 'RUSTY' WILLIAMS,18/36,32.07277777,-93.76561111,2023-12-27T22:35:00Z,6.0,VFR,K3F3 272235Z AUTO 30006KT 10SM CLR 12/00 A3004 RMK AO2 T01220001
3F4,,VIVIAN,09/27,32.86133333,-94.01015361,,,,
3F5,,FOREST HILL,09/27,42.91155986,-84.67486425,,,,
3F6,,DAN E RICHARDS MUNI,H1,34.02763305,-100.2820025,,,,
3F7,,JONES MEML,18/36,35.80704611,-96.42113583,,,,
3F9,,MINEOLA WISENER FLD,18L/36R,32.67667497,-95.51095811,,,,
3FK,,FRANKLIN FLYING FLD,03/21,39.42643888,-86.05832194,,,,
3FU,,FAULKTON MUNI,13/31,45.03067361,-99.11287222,,,,
3G2,,GRYGLA MUNI - MEL WILKENS FLD,17/35,48.29408333,-95.62597222,,,,
3G3,,WADSWORTH MUNI,02/20,41.00306111,-81.75652194,,,,
3G4,,ASHLAND COUNTY,01/19,40.90297222,-82.25563888,,,,
3G6,,TRI-CITY,18/36,40.906,-81.00002777,,,,
3G8,,GEN-AIRPARK,09/27,41.43977777,-90.11005555,,,,
3G9,,BUTLER FARM SHOW,18/36,40.85256444,-79.97477972,,,,
3GM,,GRAND HAVEN MEML AIRPARK,09/27,43.03405555,-86.19816666,,,,
3GV,,EAST KANSAS CITY,05/23,39.01464119,-94.21485844,,,,
3H4,,HILLSBORO MUNI,16/34,47.35940777,-97.06041638,,,,
3HO,,HOBART SKY RANCH,18/36,41.5559,-87.26392222,,,,
3I2,,MASON COUNTY,07/25,38.91463472,-82.09857888,,,,
3I3,,SKY KING,09/27,39.54778666,-87.3773525,,,,
3I4,,RICHWOOD MUNI,10/28,38.25838888,-80.65133333,,,,
3I7,,DAYTON/PHILLIPSBURG,03/21,39.91327777,-84.4004125,,,,
3J0,,HAMPTON COUNTY,11/29,32.86651111,-81.08097027,,,,
3J1,,RIDGELAND-CLAUDE DEAN,18/36,32.49685055,-80.99314888,,,,
3J6,,DAVIS FLD,01/19,30.79636111,-82.02816666,,,,
3JC,,FREEMAN FLD,18/36,39.04333333,-96.84327777,,,,
3K3,,SYRACUSE-HAMILTON COUNTY MUNI,18/36,37.99858305,-101.7476078,2023-12-27T22:35:00Z,16.0,VFR,K3K3 272235Z AUTO 35016G22KT 10SM 04/M02 A3010 RMK AO2
3K7,,MARK HOARD MEML,17/35,38.45752638,-101.3508647,,,,
3K8,,COMANCHE COUNTY,17/35,37.22286111,-99.33202777,,,,
3KK,,KANKAKEE,09/27,41.10003222,-87.91671,,,,
3L2,,SKY RANCH,12/30,35.79294444,-115.6264167,,,,
3L7,,MILWRICK FLYING M,09/27,44.73834555,-83.37969222,,,,
3LF,,LITCHFIELD MUNI,09/27,39.1625,-89.67463888,2023-12-27T22:35:00Z,4.0,MVFR,K3LF 272235Z AUTO 23004KT 5SM -RA SCT013 BKN021 OVC029 03/01 A2984 RMK AO2 P0003 T00250009
3M0,,GASTONS,06/24,36.34905555,-92.55580555,,,,
3M5,,MOONTOWN,09/27,34.74736111,-86.46097222,,,,
3M7,,LAFAYETTE MUNI,01/19,36.52002777,-86.05805555,,,,
3M8,,NORTH PICKENS,01/19,33.38675277,-88.00657916,,,,
3M9,,WARREN MUNI,03/21,33.56044333,-92.08538861,,,,
3MY,,MOUNT HAWLEY AUXILIARY,18/36,40.79580555,-89.61347222,,,,
3N0,,NAMORIK,07/25,5.63166666,168.125,,,,
3N1,,MALOELAP,04/22,8.70833333,171.2333333,,,,
3N6,,OLD BRIDGE,06/24,40.32988666,-74.34678694,,,,
3N8,,MAHNOMEN COUNTY,17/35,47.26050516,-95.92808683,2023-12-27T22:35:00Z,9.0,LIFR,K3N8 272235Z AUTO 02009KT 1/2SM FG OVC003 00/00 A3009 RMK AO2 T00020002
3NP,,NAPOLEON,15/33,42.1710038,-84.25930872,,,,
3O1,,GUSTINE,18/36,37.26055555,-120.96425,,,,
3O3,,PURCELL MUNI - STEVEN E SHEPHARD FLD,17/35,34.98334972,-97.38263833,,,,
3O4,,SAYRE MUNI,17/35,35.16770916,-99.65780611,,,,
3O5,,WALTERS MUNI,16/34,34.37258444,-98.40588583,,,,
3O8,,HARRIS RANCH,14/32,36.24811111,-120.2384722,,,,
3O9,,GRAND LAKE RGNL,17/35,36.5775775,-94.86190027,,,,
3P3,,MOTT MUNI,10/28,46.35916194,-102.3282442,,,,
3Q0,,MINA,13/31,38.37986111,-118.09675,,,,
3R2,,LE GROS MEML,04/22,30.16177777,-92.48397222,,,,
3R4,,HART,12/30,31.54424722,-93.48380555,,,,
3R7,,JENNINGS,13/31,30.24269902,-92.67349927,2023-12-27T22:35:00Z,6.0,VFR,K3R7 272235Z AUTO 30006KT 10SM CLR 17/01 A2997 RMK AO2 T01720014
3R8,,HONAKER FLD,02/20,38.6577,-85.79058472,,,,
3R9,,LAKEWAY AIRPARK,16/34,30.35749111,-97.99446777,,,,
3RC,,ROSCOMMON CONSERVATION,18/36,44.47369627,-84.56367416,,,,
3S2,,SWANS FLD,12/30,44.51413888,-70.40680555,,,,
3S4,,ILLINOIS VALLEY,18/36,42.1036,-123.6824167,,,,
3S5,,SCHIFFER ACRES,08/26,43.03619444,-84.43418055,,,,
3S6,,TOKETEE STATE,11/29,43.22344444,-122.4211667,,,,
3S7,,NEHALEM BAY STATE,15/33,45.69813888,-123.9296389,,,,
3S8,,GRANTS PASS,13/31,42.51012083,-123.38799,2023-12-27T22:35:00Z,0.0,VFR,K3S8 272235Z AUTO 00000KT 10SM SCT038 OVC070 12/08 A2990 RMK AO2
3S9,,CONDON STATE PAULING FLD,07/25,45.24656666,-120.16645,,,,
3T0,,CEDAR MILLS,07/25,33.83934608,-96.81006897,,,,
3T2,,WOLFE AIR PARK,02/20,29.47908333,-95.32655555,,,,
3T3,,BOYCEVILLE MUNI,08/26,45.04395325,-92.02132816,,,,
3T4,,TETLIN,08/26,63.12469444,-142.5185556,,,,
3T5,,FAYETTE RGNL AIR CENTER,16/34,29.90797222,-96.95,2023-12-27T22:35:00Z,6.0,VFR,K3T5 272235Z AUTO 33006KT 10SM CLR 17/00 A3001 RMK AO2 T01670003 $
3T6,,CLARK,17/35,33.13361111,-97.29702777,,,,
3T7,,MIDDLE BASS ISLAND,10/28,41.68838888,-82.80816666,,,,
3T8,,WILDCAT CANYON,15/33,31.67855555,-97.36255555,,,,
3T9,,BIG BEND RANCH STATE PARK,08/26,29.47108333,-103.9364167,,,,
3TA,,STAFFORD MUNI,17/35,37.95834833,-98.65036194,,,,
3TE,,AL MEYERS,18/36,42.02511083,-83.93929694,,,,
3TR,,JERRY TYLER MEML,04/22,41.83588888,-86.22516666,,,,
3TX,,AKROVILLE,05/23,33.39285063,-97.35384722,,,,
3U0,,MURPHY HOT SPRINGS,01/19,42.02355555,-115.3354444,,,,
3U1,,WARREN /USFS/,12/30,45.26811111,-115.6836111,,,,
3U2,,JOHNSON CREEK,17/35,44.91172222,-115.4855278,,,,
3U3,,BOWMAN FLD,04/22,46.1534145,-112.8677346,2023-12-27T22:45:00Z,7.0,VFR,K3U3 272245Z AUTO 14007KT 10SM 02/M09 A3013 
3U4,,ST LABRE MISSION,13/31,45.60655555,-106.27425,,,,
3U5,,AUGUSTA,01/19,47.46341666,-112.3801111,,,,
3U7,,BENCHMARK,12/30,47.48202777,-112.8723056,,,,
3U8,,BIG SANDY,13/31,48.16343586,-110.1142839,,,,
3U9,,BOULDER,11/29,46.21166666,-112.1076111,,,,
3V0,,CUSTER STATE PARK,15/33,43.72491666,-103.3499792,,,,
3VS,,ROY OTTEN MEML AIRFIELD,07/25,38.42827222,-92.87526388,,,,
3W2,,PUT IN BAY,03/21,41.63666666,-82.82833333,,,,
3W3,,KENTMORR AIRPARK,10/28,38.91811111,-76.35883333,,,,
3W5,,MEARS FLD,07/25,48.52983833,-121.7582489,,,,
3W6,,BLADENBORO,02/20,34.54286111,-78.77816666,,,,
3W7,,GRAND COULEE DAM,04/22,47.92205555,-119.083,,,,
3W8,,EUREKA MUNI,07/25,45.79999072,-99.64272,,,,
3W9,,MIDDLE BASS-EAST POINT,09/27,41.69444444,-82.79655555,,,,
3X5,,NORTH BASS ISLAND,01/19,41.718,-82.82111111,,,,
3Y2,,GEORGE L SCOTT MUNI,17/35,42.98522222,-91.79063888,,,,
3Y3,,WINTERSET MUNI,14/32,41.36280555,-94.02119444,,,,
3Y4,,WOODBINE MUNI,17/35,41.73609944,-95.68361722,,,,
3Y7,,ISABEL MUNI,13/31,45.38971111,-101.4375722,,,,
3Z1,,FEATHER RIVER,12/30,64.83172722,-166.1315222,,,,
40C,,WATERVLIET MUNI,07/25,42.20072172,-86.24936555,,,,
40D,,THREE LAKES MUNI,03/21,45.79001805,-89.12128888,,,,
40G,,VALLE,01/19,35.65064583,-112.1480542,,,,
40I,,RED STEWART AIRFIELD,08/26,39.50533777,-84.12187916,,,,
40U,,MANILA,07/25,40.98639444,-109.6785269,2023-12-27T22:35:00Z,4.0,VFR,K40U 272235Z AUTO 13004KT 10SM CLR 01/M08 A3028 RMK AO2 T00061084
41C,,CALKINS FLD,01/19,42.69169833,-85.64585527,,,,
41F,,FLOYDADA MUNI,17/35,34.00152777,-101.33025,,,,
41G,,UNIVERSITY AIRPARK,08/26,42.84099861,-84.47904722,,,,
41N,,BRACEVILLE,01/19,41.2111675,-80.96925722,,,,
41U,,MANTI-EPHRAIM,03/21,39.33141666,-111.6126111,2023-12-27T22:35:00Z,3.0,VFR,K41U 272235Z AUTO 30003KT 10SM CLR 04/M05 A3025 RMK AO1 T00401048
42A,,MELBOURNE MUNI - JOHN E MILLER FLD,03/21,36.07098027,-91.83013555,,,,
42B,,GOODSPEED,14/32,41.44565444,-72.4556425,,,,
42C,,WHITE CLOUD,18/36,43.55984722,-85.77415277,,,,
42I,,PARR,10/28,40.00729166,-82.01347916,,,,
42J,,KEYSTONE HEIGHTS,05/23,29.84475,-82.04752777,2023-12-27T22:35:00Z,3.0,VFR,K42J 272235Z AUTO 26003KT 10SM CLR 15/10 A2992 RMK A01
42M,,THAYER MEML,09/27,36.52228444,-91.57198694,,,,
42U,,MORGAN COUNTY,03/21,41.14867555,-111.7671486,,,,
42V,,JONES,15/33,40.05805,-101.5468336,,,,
43A,,MONTGOMERY COUNTY,03/21,35.38464972,-79.79026638,,,,
43B,,DEBLOIS FLIGHT STRIP,15/33,44.726875,-67.99136111,,,,
43D,,ODESSA MUNI,02/20,47.34758333,-118.6772222,,,,
43G,,BELLEVILLE,18/36,42.1772668,-83.54536258,,,,
43K,,MARION MUNI,18/36,38.33761111,-96.98825,,,,
43Y,,NORTHOME MUNI,12/30,47.88799377,-94.25812916,,,,
44A,,ROLLE AIRFIELD,17/35,32.51630555,-114.6983889,,,,
44B,,CHARLES A CHASE JR MEML FLD,09/27,45.17747222,-69.24466666,,,,
44C,,BELOIT,07/25,42.49777777,-88.96761111,,,,
44G,,BETZ,09/27,41.8550375,-83.87076944,,,,
44M,,TENKILLER LAKE AIRPARK,05/23,35.70497222,-94.93613888,,,,
44N,,SKY ACRES,17/35,41.70742388,-73.7380225,,,,
44T,,HOSKINS FLD,07/25,46.99238888,-122.8278333,,,,
44U,,SALINA-GUNNISON,02/20,39.02912833,-111.8382583,,,,
45G,,BRIGHTON,04/22,42.56995694,-83.7785125,,,,
45K,,MINNEAPOLIS CITY COUNTY,16/34,39.09433333,-97.72105555,,,,
45R,,HAWTHORNE FLD,13/31,30.33633333,-94.25755555,,,,
45S,,SILVER LAKE F S STRIP,03/21,43.1109725,-121.0941667,,,,
46D,,CARRINGTON MUNI,13/31,47.45111111,-99.15133333,2023-12-27T22:35:00Z,,VFR,K46D 272235Z AUTO 10SM FEW012 SCT018 M00/M02 A3014 RMK A01
46U,,ALPINE,13/31,43.18180555,-111.0385,2023-12-27T22:35:00Z,7.0,VFR,K46U 272235Z AUTO 19007KT 10SM CLR M06/M11 A3031 RMK A01
47K,,MOUNDRIDGE MUNI,17/35,38.20909166,-97.502725,,,,
47N,,CENTRAL JERSEY RGNL,07/25,40.52444444,-74.59830555,,,,
47V,,CURTIS MUNI,12/30,40.63875,-100.4734167,,,,
47Y,,PELICAN RAPIDS MUNI-LYON'S FLD,15/33,46.64132916,-96.10414444,,,,
48A,,COCHRAN,11/29,32.40065805,-83.27840638,2023-12-27T22:35:00Z,3.0,VFR,K48A 272235Z AUTO 22003KT 10SM CLR 16/05 A2989 RMK AO2 T01560055
48D,,CLARE MUNI,09/27,43.83444444,-84.74022222,,,,
48G,,GAVAGAN FLD,14/32,43.10344444,-82.89022222,,,,
48I,,BRAXTON COUNTY,02/20,38.68711111,-80.65208333,,,,
48K,,NESS CITY MUNI,17/35,38.47375694,-99.90911888,,,,
48S,,HARLEM,11/29,48.56629455,-108.7740362,,,,
48U,,GTR GREEN RIVER INTERGALACTIC SPACEPORT,04/22,41.45795555,-109.4901986,,,,
48X,,MANATEE,07/25,27.64259722,-82.51991666,,,,
48Y,,PINEY PINECREEK BORDER,15/33,48.99897494,-95.98208613,,,,
49A,,GILMER COUNTY,03/21,34.62819444,-84.52655555,2023-12-27T22:35:00Z,0.0,VFR,K49A 272235Z AUTO 00000KT 10SM CLR 08/07 A2988 RMK AO2 LTG DSNT N
49B,,STURGIS MUNI,05/23,44.41867697,-103.3777239,,,,
49C,,CAMP LAKE,18/36,42.52779722,-88.15619722,,,,
49F,,RANKIN,17/35,31.22702777,-101.9529167,,,,
49G,,WEND VALLEY,18/36,42.57795,-84.9090125,,,,
49K,,NORWICH,17/35,37.45557388,-97.833665,,,,
49N,,LUFKER,N/S,40.82482083,-72.75093305,,,,
49R,,REAL COUNTY,15/33,29.74550111,-99.7608925,,,,
49U,,SHOSHONI MUNI,11/29,43.25097222,-108.1220556,,,,
49X,,CHEMEHUEVI VALLEY,16/34,34.52888888,-114.4319722,,,,
4A2,,ATMAUTLUAK,15/33,60.86788888,-162.2742778,,,,
4A4,,POLK COUNTY/CORNELIUS MOORE FLD,10/28,34.01852861,-85.14475916,,,,
4A5,,SEARCY COUNTY,05/23,35.89869444,-92.65633333,,,,
4A6,,SCOTTSBORO MUNI-WORD FLD,04/22,34.68869444,-86.00594444,2023-12-27T22:35:00Z,0.0,VFR,K4A6 272235Z AUTO 00000KT 10SM CLR 09/05 A2987 RMK AO2
4A9,,ISBELL FLD,04/22,34.47369444,-85.72138888,2023-12-27T22:35:00Z,0.0,VFR,K4A9 272235Z AUTO 00000KT 10SM SCT060 09/05 A2987 RMK AO2 T00910052
4AK,,LIVENGOOD CAMP,15/33,65.46726944,-148.6537472,,,,
4B0,,SOUTH ALBANY,01/19,42.56072222,-73.83394444,,,,
4B1,,DUANESBURG,10/28,42.75986111,-74.13463888,,,,
4B6,,TICONDEROGA MUNI,02/20,43.87727777,-73.41313888,,,,
4B7,,SCHROON LAKE,16/34,43.8625795,-73.74054722,,,,
4B8,,ROBERTSON FLD,02/20,41.68933333,-72.86469444,2023-12-27T22:35:00Z,0.0,LIFR,K4B8 272235Z AUTO 00000KT 7SM -RA OVC004 07/07 A3001 RMK AO2 RAB2209 CIG 004V007 P0000 T00690069 $
4B9,,SIMSBURY,03/21,41.91619444,-72.77694444,,,,
4C2,,WALKER/ROWE WATERLOO,09/27,41.43116138,-84.98163166,,,,
4C4,,GIFFORD FLD,04/22,44.88752361,-71.5077245,,,,
4C7,,ACKLEY MUNI,15/33,42.54744444,-93.03341666,,,,
4C8,,ALBIA MUNI,13/31,40.99627777,-92.76569444,,,,
4D0,,ABRAMS MUNI,18/36,42.77488194,-84.73313638,,,,
4D1,,THREE CASTLES AIRPARK,10/28,43.66991388,-90.23470694,,,,
4D2,,HOODOO MEADOWS,03/21,45.05644805,-114.5583636,,,,
4D8,,FULLER,18/36,43.33339388,-95.1590925,,,,
4D9,,ALMA MUNI,17/35,40.11247222,-99.34641666,,,,
4E7,,ELLENDALE MUNI,17/35,46.01633333,-98.51569444,,,,
4E8,,RICHARDTON,11/29,46.89581666,-102.3567444,,,,
4F1,,WESTPORT,03/21,36.22141666,-96.3465,,,,
4F2,,PANOLA COUNTY-SHARPE FLD,17/35,32.17608333,-94.29880555,2023-12-27T22:35:00Z,6.0,VFR,K4F2 272235Z AUTO 32006KT 10SM CLR 11/M01 A3002 RMK AO2 T01101010
4F7,,KIZER FLD,18/36,33.80388888,-93.36216666,,,,
4F8,,WILSON,02/20,33.44319444,-93.05430555,,,,
4F9,,LA MOURE ROTT MUNI,16/34,46.34728055,-98.28148611,,,,
4G1,,GREENVILLE MUNI,15/33,41.44676644,-80.39119675,,,,
4G2,,HAMBURG,01/19,42.7008925,-78.91475694,,,,
4G4,,YOUNGSTOWN ELSER METRO,10/28,40.96179527,-80.67732638,,,,
4G5,,MONROE COUNTY,07/25,39.77905138,-81.10278055,,,,
4G7,,FAIRMONT MUNI-FRANKMAN FLD,05/23,39.44754072,-80.16763469,,,,
4G8,,COLUMBIA,18/36,41.31868019,-81.96044183,,,,
4I3,,KNOX COUNTY,10/28,40.32891166,-82.52607055,2023-12-27T22:35:00Z,4.0,LIFR,K4I3 272235Z AUTO 35004KT 4SM BR OVC004 06/06 A2984 RMK AO2
4I9,,MORROW COUNTY,10/28,40.52452305,-82.85006111,,,,
4J1,,BRANTLEY COUNTY,01/19,31.20606888,-81.90598611,,,,
4J2,,BERRIEN COUNTY,10/28,31.21254458,-83.22525655,,,,
4J5,,QUITMAN BROOKS COUNTY,10/28,30.80518333,-83.58906672,,,,
4J8,,TREUTLEN COUNTY,16/34,32.38738888,-82.56338888,,,,
4K0,,PEDRO BAY,09/27,59.79694444,-154.1299722,,,,
4K5,,OUZINKIE,08/26,57.94215516,-152.4649931,,,,
4K6,,BLOOMFIELD MUNI,18/36,40.73210555,-92.42826888,,,,
4KA,POKA,TUNUNAK,16/34,60.56952777,-165.2462778,,,,
4KS,,WALZ,03/21,37.04516388,-98.57018055,,,,
4M0,,LAKE ANN AIRWAY ESTATES,09/27,44.69615277,-85.91404861,,,,
4M1,,CARROLL COUNTY,07/25,36.38134194,-93.62454027,,,,
4M2,,BOONEVILLE MUNI,09/27,35.14952633,-93.86338955,,,,
4M3,,CARLISLE MUNI,09/27,34.80822222,-91.71211111,,,,
4M4,,SHADY LAWN FLD,09/27,43.12858472,-84.38129305,,,,
4M5,,DERMOTT MUNI,01/19,33.48795333,-91.44261138,,,,
4M7,,RUSSELLVILLE-LOGAN COUNTY,07/25,36.79961111,-86.81091666,,,,
4M8,,CLARENDON MUNI,18/36,34.64666888,-91.39472055,,,,
4M9,,CORNING MUNI,18/36,36.40423138,-90.64792638,2023-12-27T22:35:00Z,13.0,VFR,K4M9 272235Z AUTO 29013G20KT 10SM OVC055 05/M02 A2991 RMK AO2 PWINO
4MB,,MOULTONBOROUGH,02/20,43.76745702,-71.38762616,,,,
4N0,,NEWMANS,18/36,42.28892638,-85.75001055,,,,
4N1,,GREENWOOD LAKE,06/24,41.12838888,-74.34652777,,,,
4N2,,MIDDLESEX VALLEY,03/21,42.71394444,-77.27205555,,,,
4N4,,LIDGERWOOD MUNI,17/35,46.08918333,-97.16613472,,,,
4N7,,GREENE,07/25,42.30424138,-75.78713722,,,,
4O1,,SNYDER,17/35,34.62772222,-99.014,,,,
4O4,,MC CURTAIN COUNTY RGNL,02/20,33.90936111,-94.85936111,2023-12-27T22:35:00Z,6.0,VFR,K4O4 272235Z AUTO 30006G14KT 10SM CLR 06/M05 A3004 RMK AO2
4O5,,CHEROKEE MUNI,17/35,36.78830833,-98.35843055,,,,
4O7,,DECKER FLD,03/21,36.37216666,-98.17844444,,,,
4P3,,FLANDREAU MUNI,18/36,44.004055,-96.59317388,,,,
4R1,,I H BASS JR MEML,14/32,31.01533333,-89.48255555,,,,
4R3,,JACKSON MUNI,01/19,31.47055972,-87.89590138,,,,
4R5,,MAJOR GILBERT FLD,04/22,46.78866666,-90.75872222,2023-12-27T22:35:00Z,0.0,VFR,K4R5 272235Z AUTO 00000KT 10SM OVC038 02/01 A3010 RMK AO2 T00180007
4R6,,MILNOR MUNI,08/26,46.25829416,-97.43786861,,,,
4R7,,EUNICE,16/34,30.46628388,-92.42379916,,,,
4R9,,JEREMIAH DENTON,12/30,30.26048166,-88.12747305,,,,
4S1,,GOLD BEACH MUNI,16/34,42.41536111,-124.4249167,2023-12-27T22:35:00Z,19.0,MVFR,K4S1 272235Z AUTO 18019G33KT 5SM HZ 15/11 A2981 RMK AO2
4S2,,KEN JERNSTEDT AIRFIELD,07/25,45.67277677,-121.5338639,2023-12-27T22:35:00Z,5.0,MVFR,K4S2 272235Z AUTO 36005KT 10SM OVC016 05/02 A2998 RMK AO2
4S4,,SKYPORT,16/34,45.58261444,-123.052885,,,,
4S5,,ST THOMAS MUNI,17/35,48.6264375,-97.43905555,,,,
4S6,,TIETON STATE,02/20,46.63755138,-121.1239789,,,,
4S7,,MALIN,14/32,42.00113888,-121.3963611,,,,
4S9,,MULINO STATE,14/32,45.21655555,-122.5901944,,,,
4T2,,KENNETH COPELAND,17/35,32.97763172,-97.49229366,,,,
4U6,,CIRCLE TOWN COUNTY,03/21,47.41833333,-105.5608889,2023-12-27T22:40:00Z,3.0,VFR,K4U6 272240Z AUTO 18003KT 10SM 04/M03 A3015 RMK A01 Circle 
4U7,,WEST FORK LODGE,02/20,45.86225,-114.21775,,,,
4U9,,DELL FLIGHT STRIP,14/32,44.73575,-112.7196944,,,,
4V0,,RANGELY,07/25,40.09397222,-108.7630556,2023-12-27T22:35:00Z,0.0,VFR,K4V0 272235Z AUTO 00000KT 10SM CLR M06/M13 A3034 RMK AO2 T10611129
4V1,,SPANISH PEAKS AIRFIELD,09/27,37.69652891,-104.7849596,2023-12-27T22:35:00Z,5.0,VFR,K4V1 272235Z AUTO 13005KT 10SM OVC110 04/M07 A3015 RMK AO2
4V4,,NORTHWOOD MUNI/VINCE FLD,08/26,47.7248875,-97.58981111,,,,
4V6,,HAY SPRINGS MUNI,11/29,42.68191805,-102.7007375,,,,
4V8,,DEERFIELD VALLEY RGNL,01/19,42.92713555,-72.86565361,,,,
4V9,,ANTELOPE COUNTY,01/19,42.11225,-98.03977777,,,,
4W0,,BANDERA STATE,08/26,47.39536888,-121.5364719,,,,
4W4,,WHITFIELD FARMS,03/21,36.28347277,-79.07890138,,,,
4X4,,WESSINGTON SPRINGS,12/30,44.06188888,-98.53219444,,,,
4Y1,,RAETHER,17/35,42.56525138,-83.85630555,,,,
4Y4,,LAKES OF THE NORTH,06/24,44.91180555,-84.87533888,,,,
4Y8,,PARA FLD,06/24,43.20224444,-82.75388888,,,,
4Y9,,EAGLES LANDING,08/26,44.30779722,-85.7716625,,,,
4Z5,,HORSFELD,03/21,62.00723333,-141.1821139,,,,
4Z9,,JAKOLOF BAY,12/30,59.45216055,-151.5223811,,,,
50D,,IRON COUNTY,02/20,46.00907966,-88.27402563,,,,
50F,,BOURLAND FLD,17/35,32.58183333,-97.59077777,,,,
50G,,HOWARD NIXON MEML,09/27,43.18102272,-84.1324455,,,,
50I,,KENTLAND MUNI,09/27,40.75874233,-87.4291253,,,,
50K,,PAWNEE CITY MUNI,14/32,40.11616666,-96.19486111,,,,
50R,,LOCKHART MUNI,18/36,29.85033333,-97.67241666,,,,
50S,,PARMA,12/30,43.7787725,-116.9384861,,,,
51A,,HAWKINSVILLE-PULASKI COUNTY,10/28,32.28366666,-83.43797222,,,,
51D,,EDGELEY MUNI,14/32,46.34969444,-98.735,,,,
51G,,ALKAY,03/21,43.14340233,-83.79698125,,,,
51J,,LAKE CITY MUNI CJ EVANS FLD,01/19,33.85358055,-79.76811888,,,,
51K,,CEDAR AIR PARK,17/35,38.93109444,-94.88481111,,,,
51M,,OSCODA COUNTY/DENNIS KAUFFMAN MEML,10/28,44.67483333,-84.12204166,,,,
51R,,MADISONVILLE MUNI,18/36,30.91283333,-95.952,,,,
51Z,,MINTO AL WRIGHT,02/20,65.14816666,-149.3685833,,,,
52A,,MADISON MUNI,14/32,33.612125,-83.46044444,,,,
52F,,NORTHWEST RGNL,17/35,33.04984472,-97.2322375,,,,
52I,,GROSS,09/27,43.84683888,-84.01279444,,,,
52J,,LEE COUNTY/BUTTERS FLD,06/24,34.244485,-80.23603361,,,,
52K,,CHARLES E GRUTZMACHER MUNI,18/36,39.49795,-96.17508333,,,,
52S,,ST IGNATIUS,08/26,47.325,-114.0808333,,,,
52U,,WEATHERBY USFS,03/21,43.82513888,-115.3313611,,,,
52Y,,REMER MUNI,13/31,47.06800833,-93.91273333,,,,
53A,,DR C P SAVAGE SR,18/36,32.30306333,-84.00746805,,,,
53K,,OSAGE CITY MUNI,17/35,38.6335,-95.80180555,,,,
53T,,CANNON FLD,16/34,29.21607333,-98.54946194,,,,
53U,,FERNDALE AIRFIELD,15/33,48.06047222,-114.0011667,,,,
53W,,WOODRUFF LAKE,09/27,43.55460277,-84.97896388,,,,
54J,,DEFUNIAK SPRINGS,09/27,30.73111111,-86.15377777,2023-12-27T22:35:00Z,3.0,VFR,K54J 272235Z AUTO 21003KT 10SM CLR 12/08 A2996 RMK AO2 T01220081
54M,,WOLF RIVER,18/36,35.05402361,-89.58002638,,,,
54T,,RWJ AIRPARK,08/26,29.76189444,-94.84793888,,,,
54W,,ALBANY,09/27,42.71738683,-89.42418386,,,,
55G,,ARNOLD FLD,18/36,43.2978,-82.60786388,,,,
55H,,ATLANTA,16/34,43.81351083,-115.1350817,,,,
55I,,SLATE RUN,16/34,38.77752222,-81.31031941,,,,
55K,,OXFORD MUNI,17/35,37.26910833,-97.09335416,,,,
55M,,STAR CITY MUNI,18/36,33.92641666,-91.86111111,,,,
55S,,PACKWOOD,01/19,46.60416222,-121.6778997,,,,
55T,,EAGLES AERODROME,17/35,35.21447222,-101.4110278,,,,
55Y,,RUSHFORD MUNI/ROBERT W BUNKE FLD,16/34,43.815825,-91.830095,,,,
56C,,BOULDER CANYON,07/25,43.07568055,-85.26852361,,,,
56D,,WYANDOT COUNTY,18/36,40.88336858,-83.31453155,,,,
56F,,FISHER COUNTY,07/25,32.82430555,-100.4128333,,,,
56S,,SEASIDE MUNI,16/34,46.01499583,-123.9076575,,,,
57B,,ISLESBORO,01/19,44.30247222,-68.91058333,,,,
57C,,EAST TROY MUNI,08/26,42.79716666,-88.37261111,2023-12-27T22:35:00Z,3.0,VFR,K57C 272235Z AUTO 03003KT 10SM OVC065 02/M03 A2999 RMK AO2 T00211027
57D,,RAY COMMUNITY,01/19,42.73675155,-82.88883755,,,,
57S,,TROY,14/32,48.48022055,-115.9035067,,,,
58C,,JANA,18/36,42.87240277,-89.07556388,,,,
58J,,HUGGINS MEML,14/32,34.135575,-79.92141111,,,,
58M,,CLAREMONT,13/31,39.57416666,-75.86977777,,,,
58N,,REIGLE FLD,13/31,40.28676666,-76.5769875,,,,
58S,,WHITEFISH,11/29,48.40802,-114.2995761,,,,
58T,,HERITAGE CREEK AIRSTRIP,13/31,33.16602777,-97.47988888,,,,
59B,,NEWTON FLD,H1,45.63244416,-70.24749472,,,,
59M,,TORCHPORT,09/27,45.05486863,-85.35689663,,,,
5A1,,NORWALK-HURON COUNTY,10/28,41.24475,-82.55122222,,,,
5A2,,WARNER ROBINS AIR PARK,09/27,32.56063888,-83.67675,,,,
5A4,,OKOLONA MUNI/RICHARD STOVALL FLD,18/36,34.01580555,-88.72619444,,,,
5A6,,WINONA-MONTGOMERY COUNTY,03/21,33.46498777,-89.7302175,2023-12-27T22:35:00Z,0.0,VFR,K5A6 272235Z AUTO 00000KT 10SM OVC055 11/01 A2991 RMK AO2 T01130014
5A8,,ALEKNAGIK /NEW,15/33,59.28255555,-158.6178667,,,,
5A9,,ROOSEVELT MEML,18/36,32.9385,-84.69644444,,,,
5B1,,JOHN H BOYLAN STATE (ISLAND POND),14/32,44.78997222,-71.82641666,,,,
5B2,,SARATOGA COUNTY,05/23,43.05072222,-73.86163888,,,,
5B4,,BOWBELLS MUNI,08/26,48.80974944,-102.245445,,,,
5B5,,NAPOLEON MUNI,12/30,46.49426069,-99.75871186,,,,
5B6,,FALMOUTH AIRPARK,07/25,41.58558333,-70.54036111,,,,
5B7,,RENSSELAER COUNTY,18/36,42.69163888,-73.57997222,,,,
5B9,,DEAN MEML,01/19,44.08017283,-72.00775991,,,,
5BK,,BLACK RAPIDS,14/32,63.53514638,-145.8608861,,,,
5C1,,BOERNE STAGE AIRFIELD,17/35,29.72321902,-98.69455691,2023-12-27T22:35:00Z,5.0,VFR,K5C1 272235Z AUTO 35005KT 10SM CLR 16/M01 A3002 RMK AO1
5C8,,WASHBURN MUNI,08/26,47.35114888,-101.0258961,,,,
5CD,,CHANDALAR SHELF,01/19,68.06543944,-149.5797392,,,,
5D2,,NORTHWOOD MUNI,17/35,43.44877777,-93.20166666,,,,
5D5,,WOOLSEY MEML,09/27,45.16434686,-85.57547811,,,,
5D6,,PARSONS,09/27,40.64808055,-81.06952777,,,,
5D9,,BANDIT FLD AIRDROME,18/36,41.22394305,-82.95769055,,,,
5E9,,PACKER,09/27,40.40797638,-83.21936,,,,
5F0,,ARCADIA-BIENVILLE PARISH,14/32,32.53208333,-92.95277777,,,,
5F1,,POST-GARZA COUNTY MUNI,06/24,33.20330555,-101.3382222,,,,
5F4,,HOMER MUNI,12/30,32.7885,-93.00364416,,,,
5F5,,BLUEBIRD HILL,18/36,32.3446,-93.79989722,,,,
5G0,,LE ROY,10/28,42.98128138,-77.93524805,,,,
5G4,,EAU CLAIRE LAKES,18/36,46.34870491,-91.49652191,,,,
5G7,,BLUFFTON,05/23,40.88544444,-83.86863888,,,,
5G8,,GREENSBURG JEANNETTE RGNL,02/20,40.37633333,-79.60877777,,,,
5H4,,HARVEY MUNI,11/29,47.79122222,-99.93175,2023-12-27T22:35:00Z,6.0,VFR,K5H4 272235Z AUTO 32006KT 10SM CLR 01/M10 A3017 RMK AO2
5HO,,HOPE,17/35,60.90725277,-149.6228111,,,,
5I2,,FLORA MUNI,09/27,40.53975833,-86.54833305,,,,
5I4,,SHERIDAN,05/23,40.17815555,-86.21706944,,,,
5I6,,GALVESTON,18/36,40.584205,-86.25694027,,,,
5J5,,HOLLY HILL,04/22,33.301525,-80.39308055,,,,
5J9,,TWIN CITY,08/26,34.08841666,-78.86491666,,,,
5K0,,BRESSLER FLD,08/26,39.74413888,-101.5564722,,,,
5K1,,ZELMER MEML AIRPARK INC,18/36,39.4200475,-89.9912175,,,,
5K2,,TRIBUNE MUNI,17/35,38.45146333,-101.7500792,,,,
5K4,,SCHUY-RUSH,09/27,40.11754666,-90.59040527,,,,
5KS,,KASILOF,01/19,60.35052083,-151.2628564,,,,
5L0,,LAKOTA MUNI,15/33,48.02891666,-98.32575,,,,
5M0,,HARTSELLE/MORGAN COUNTY RGNL,18/36,34.40822222,-86.93294444,,,,
5M1,,DEWITT MUNI/WHITCOMB FLD,18/36,34.26227777,-91.3075,,,,
5M4,,FORDYCE MUNI,05/23,33.84579222,-92.36552888,,,,
5M5,,CRYSTAL LAKE,13/31,36.34361111,-94.44483333,,,,
5M6,,SUGAR SPRINGS AIRPARK,09/27,44.14037083,-84.436975,,,,
5M8,,GURDON LOWE FLD,08/26,33.92377777,-93.16813888,,,,
5MO,,APPLEGATE,16/34,40.39194583,-92.56477083,,,,
5N2,,PRENTICE,09/27,45.53833236,-90.27633486,,,,
5N4,,SKY HAVEN,12/30,46.626862,-97.62023219,,,,
5N7,,HAT FLD,08/26,43.09719055,-86.09461861,,,,
5N8,,CASSELTON ROBERT MILLER RGNL,13/31,46.85394444,-97.20786111,,,,
5NK,,NAKNEK,08W/26W,58.73466286,-157.0252104,,,,
5NN,PANO,NONDALTON,02/20,59.98023027,-154.8391747,,,,
5O1,,VICI MUNI,16/34,36.14105555,-99.30336111,,,,
5P2,,MC LAUGHLIN MUNI,13/31,45.7968175,-100.7842578,,,,
5P5,,PRESHO MUNI,10/28,43.90599722,-100.0366806,,,,
5QC,,QUARTZ CREEK / KOUGAROK,12/30,65.40593305,-164.6557247,,,,
5R1,,ROY WILCOX,12/30,31.45166688,-88.19442663,,,,
5R2,,OCEAN SPRINGS,18/36,30.38944444,-88.75344444,,,,
5R4,,FOLEY MUNI,18/36,30.42766666,-87.70097222,,,,
5R7,,ROY E RAY,18/36,30.45525,-88.21119444,,,,
5R8,,DE QUINCY INDUSTRIAL AIRPARK,16/34,30.44108333,-93.47361111,2023-12-27T22:35:00Z,8.0,VFR,K5R8 272235Z AUTO 30008KT 10SM CLR 17/M01 A2999 RMK AO2 T01661011
5S0,,OAKRIDGE STATE,09/27,43.75255555,-122.5045278,,,,
5S1,,GEORGE FELT,10/28,43.21544444,-123.4043889,,,,
5S2,,CRESCENT LAKE STATE,13/31,43.53279002,-121.9502589,,,,
5S4,,TOLEDO STATE,13/31,44.60102777,-123.9396111,,,,
5S5,,LAKE BILLY CHINOOK,16/34,44.51928472,-121.3206003,,,,
5S6,,CAPE BLANCO STATE,14/32,42.85802777,-124.5178056,,,,
5S9,,VALLEY VIEW,16/34,45.30817638,-122.3186964,,,,
5T4,,HERREID MUNI,12/30,45.84829166,-100.0739778,,,,
5T9,,MAVERICK COUNTY MEML INTL,13/31,28.85709277,-100.5134678,2023-12-27T22:35:00Z,12.0,VFR,K5T9 272235Z AUTO 31012G18KT 10SM CLR 20/M06 A3002 RMK A01
5U0,,DENTON,09/27,47.32086111,-109.9419167,,,,
5U1,,DUTTON,16/34,47.84719444,-111.6982778,,,,
5U5,,FAIRFIELD,18/36,47.63383333,-111.9811944,,,,
5U6,,FAIRVIEW,08/26,47.86252777,-104.0714167,,,,
5U7,,FORT SMITH LANDING STRIP,07/25,45.3207925,-107.9312219,,,,
5U8,,GERALDINE,08/26,47.596455,-110.2659133,,,,
5V4,,CALHAN,17/35,39.04830555,-104.293,,,,
5V5,,SHIPROCK AIRSTRIP,02/20,36.697665,-108.7009728,,,,
5V8,,KADOKA MUNI,04/22,43.83332611,-101.4970881,,,,
5W1,,WILSON CREEK,10/28,47.41848333,-119.1090833,,,,
5W4,,P K AIRPARK,04/22,35.01985972,-79.19100388,,,,
5W5,,TRIPLE W,16/34,35.62038888,-78.70027777,,,,
5Y0,,HARRISVILLE,03/21,44.66822222,-83.30511111,,,,
5Y1,,ALBERT J LINDBERG,09/27,46.03542916,-84.41769722,,,,
5Y2,,HOUGHTON LAKE STATE,16/34,44.33123611,-84.79098611,,,,
5Y3,,GUTZMER'S TWIN OAKS,18/36,42.85355555,-88.75980555,,,,
5Y4,,LOST CREEK,18/36,44.66001472,-84.23751194,,,,
5Y7,,HANLEY FLD,18/36,46.35411666,-86.62099027,,,,
5Z5,,KANTISHNA,10/28,63.54098611,-150.9950778,,,,
60C,,ELROY,06/24,43.70636138,-90.25762833,,,,
60F,,SEYMOUR MUNI,17/35,33.64851666,-99.26130555,,,,
60G,,SKYWAY ESTATES,08/26,42.58380833,-84.65148055,,,,
60J,,ODELL WILLIAMSON MUNI,06/24,33.90932,-78.43468555,,,,
60M,,SPENCER,01/19,42.2905,-71.96469444,,,,
60R,,NAVASOTA MUNI,17/35,30.36713888,-96.11294444,2023-12-27T22:35:00Z,8.0,VFR,K60R 272235Z AUTO 34008KT 10SM CLR 15/01 A3001 RMK AO2 SLP080 T01490014 $
61A,,CAMDEN MUNI,18/36,31.97975,-87.33911111,,,,
61C,,FORT ATKINSON MUNI,03/21,42.96320277,-88.81762805,,,,
61D,,PLAINWELL MUNI,01/19,42.467791,-85.64801344,,,,
61K,,SEDAN CITY,12/30,37.14838527,-96.18526972,,,,
61R,,NEWTON MUNI,14/32,30.88405555,-93.74247222,,,,
61S,,COTTAGE GROVE STATE,15/33,43.80407052,-123.0321162,,,,
62C,,CINDY GUNTLY MEML,18/36,42.81138886,-88.09408933,,,,
62D,,WARREN,04/22,41.26702777,-80.92736111,,,,
62K,,SENECA MUNI,18/36,39.84761111,-96.11691666,,,,
62S,,CHRISTMAS VALLEY,07/25,43.23625,-120.6646944,,,,
63B,,LIMINGTON-HARMON,11/29,43.76302777,-70.67247222,,,,
63C,,ADAMS COUNTY LEGION FLD,15/33,43.96058808,-89.78864444,,,,
63F,,STANTON MUNI,16/34,32.17358305,-101.8224722,,,,
63K,,HILLSIDE,17/35,38.82125,-94.60952777,,,,
63M,,HERMANN MUNI,07/25,38.70516805,-91.49055416,,,,
63S,,COLVILLE MUNI,01/19,48.5441693,-117.8835256,2023-12-27T22:35:00Z,0.0,VFR,K63S 272235Z AUTO 00000KT 10SM FEW120 M00/M01 A3006 RMK A01
63Y,,TYLER MUNI,14/32,44.28829027,-96.15095555,,,,
64G,,PAGE RGNL,17/35,47.17019444,-97.48191666,,,,
64I,,LEE BOTTOM,18/36,38.63144166,-85.44341944,,,,
64S,,PROSPECT STATE,02/20,42.74258333,-122.4889722,,,,
64V,,WALLACE MUNI,13/31,40.83222444,-101.1640447,,,,
65B,,LUBEC MUNI,08/26,44.83655555,-67.02697222,,,,
65G,,MAPLE GROVE,18/36,42.71805822,-84.06068027,,,,
65J,,WRENS MEML,11/29,33.22277777,-82.3845,,,,
65S,,BOUNDARY COUNTY,02/20,48.72597222,-116.2951667,2023-12-27T22:35:00Z,0.0,VFR,K65S 272235Z AUTO 00000KT 10SM CLR 01/M02 A3010 RMK AO2
66B,,GILLESPIE FLD,16/34,45.02962222,-67.36596666,,,,
66G,,WM 'TINY' ZEHNDER FLD,09/27,43.31435833,-83.71006388,,,,
66R,,ROBERT R WELLS JR,15/33,29.64151111,-96.51595555,2023-12-27T22:35:00Z,5.0,VFR,K66R 272235Z AUTO 36005KT 10SM CLR 17/01 A3003 RMK AO2 T01700014
66S,,CAVANAUGH BAY,15/33,48.51866666,-116.8221944,,,,
66V,,BLUFF,03/21,37.255,-109.6330278,,,,
66Y,,DIAMONDHEAD,18/36,30.36297944,-89.38765416,,,,
67L,,MESQUITE,02/20,36.83313888,-114.0558889,,,,
67R,,RIO GRANDE CITY MUNI,16/34,26.42428333,-98.84608055,,,,
67S,,PRIEST LAKE USFS,14/32,48.574,-116.9585833,,,,
67T,,OLD HOPPE PLACE,16/34,27.79970555,-97.85090277,,,,
68C,,CENTRAL COUNTY,12/30,44.50477475,-89.02573813,,,,
68D,,REDS HORSE RANCH USFS,14/32,45.34455972,-117.6264833,,,,
68F,,TEAGUE MUNI,15/33,31.66175,-96.3105,,,,
68R,,HAMP,09/27,43.39948611,-84.80124305,,,,
68S,,DAVENPORT,06/24,47.65206027,-118.1737731,,,,
68Y,,WELLS MUNI,17/35,43.74122083,-93.777175,,,,
69G,,RICHMOND FLD,18/36,42.44208333,-84.06436111,,,,
69K,,WAMEGO MUNI,18/36,39.19785833,-96.25894027,,,,
69N,,SLATINGTON,01/19,40.76359405,-75.60485241,,,,
69S,,AVEY FLD,17/35,48.99837944,-118.2225986,,,,
69V,,HUNTINGTON MUNI,08/26,39.36122472,-110.9169806,,,,
6A1,,BUTLER MUNI,01/19,32.56823583,-84.2466875,2023-12-27T22:35:00Z,4.0,VFR,K6A1 272235Z AUTO 29004KT 10SM CLR 14/04 A2990 RMK AO2 T01390039
6A2,,GRIFFIN-SPALDING COUNTY,14/32,33.22697222,-84.27494444,2023-12-27T22:35:00Z,7.0,VFR,K6A2 272235Z AUTO 29007KT 10SM CLR 13/04 A2988 RMK AO2
6A4,,JOHNSON COUNTY,06/24,36.41784527,-81.82513388,,,,
6A6,,KIMBALL MUNI,13/31,43.75833166,-98.97814833,,,,
6A8,PFAL,ALLAKAKET,05/23,66.55183333,-152.6221667,,,,
6AK,,RAINY PASS LODGE,11/29,62.08414194,-152.7175247,,,,
6B0,,MIDDLEBURY STATE,01/19,43.98647194,-73.09555166,2023-12-27T22:35:00Z,0.0,IFR,K6B0 272235Z AUTO 00000KT 1SM -DZ OVC018 07/05 A3001 RMK AO2 P0001 T00700047
6B4,,FRANKFORT-HIGHLAND,13/31,43.01610694,-75.16954166,,,,
6B6,,MINUTE MAN AIR FLD,12/30,42.46038541,-71.51801188,,,,
6B9,,SKANEATELES AERO DROME,04/22,42.91395972,-76.44076416,2023-12-27T22:35:00Z,0.0,MVFR,K6B9 272235Z AUTO 00000KT 4SM -RA BKN014 BKN035 OVC048 10/10 A2989 RMK AO2
6CM,,CHAPMAN MEML FLD,09/27,40.29545,-82.72997222,,,,
6D1,,BROOTEN MUNI/JOHN O BOHMER FLD,15/33,45.49751333,-95.10261916,,,,
6D3,,MADDOCK MUNI,12/30,47.9802625,-99.52695972,,,,
6D6,,GREENVILLE MUNI,10/28,43.14213888,-85.25386111,,,,
6D7,,DESHLER MUNI LANDING STRIP,09/27,41.21544444,-83.87086944,,,,
6D9,,IOSCO COUNTY,08/26,44.31283333,-83.42230555,,,,
6E5,,WILDER,16/34,44.4330475,-97.55816,,,,
6F1,,TALIHINA MUNI,01/19,34.70777138,-95.07378583,,,,
6F7,,MANNING FLD,07/25,32.827,-94.35452777,,,,
6G1,,TITUSVILLE,01/19,41.60880555,-79.74133333,,,,
6G4,,WYNKOOP,06/24,40.36506222,-82.49571805,,,,
6G5,,BARNESVILLE-BRADFIELD,09/27,40.00241666,-81.19183333,,,,
6G6,,COVE VALLEY,04/22,40.45451694,-78.23806638,,,,
6G8,,BROOKLYN,01/19,42.09421527,-84.24095138,,,,
6H4,,VAN WAGNEN,09/27,42.15576388,-84.33431944,,,,
6H8,,HAZELTON MUNI,17/35,46.48221666,-100.2637333,,,,
6I2,,LEBANON SPRINGFIELD-GEORGE HOERTER FLD,11/29,37.63347694,-85.24183805,2023-12-27T22:35:00Z,0.0,VFR,K6I2 272235Z AUTO 00000KT 10SM FEW085 08/04 A2985 RMK AO2
6I4,,BOONE COUNTY,18/36,40.00726361,-86.44055527,,,,
6J0,,LEXINGTON COUNTY,18/36,33.79463888,-81.24586111,,,,
6J2,,ST GEORGE,05/23,33.1955,-80.50847222,,,,
6J4,,SALUDA COUNTY,01/19,33.92679305,-81.79462777,,,,
6J6,,EDGEFIELD COUNTY,15/33,33.73686111,-81.81875,,,,
6J7,,BRANHAMS,16/34,34.28152777,-79.92761111,,,,
6J8,,OAK TREE LANDING,09/27,29.72026388,-82.66520833,,,,
6K2,,SHELBY COUNTY,17/35,39.81256666,-92.05021666,,,,
6K3,,CREIGHTON MUNI,13/31,42.47127777,-97.88475,,,,
6K4,,FAIRVIEW MUNI,17/35,36.29119444,-98.47580555,,,,
6K5,,SISTERS EAGLE AIR,02/20,44.30445833,-121.5390972,,,,
6K7,,GRUNDY CENTER MUNI,17/35,42.35055972,-92.84161388,,,,
6K8,PFTO,TOK JUNCTION,08/26,63.3295143,-142.953684,,,,
6K9,,KEOSAUQUA MUNI,06/24,40.73475,-91.94878305,,,,
6L3,,LISBON MUNI,03/21,46.44697333,-97.72821555,,,,
6L4,,LOGAN COUNTY,06/24,37.85568611,-81.91588333,,,,
6L5,,WISHEK MUNI,14/32,46.24962916,-99.53965833,,,,
6M0,,HAZEN MUNI DAVID DUCH FLD,18/36,34.75921388,-91.63804583,,,,
6M2,,HORSESHOE BEND,13/31,36.22136138,-91.75547388,,,,
6M6,,LEWIS COUNTY RGNL,18/36,40.12917638,-91.67826944,,,,
6M7,,MARIANNA/LEE COUNTY-STEVE EDWARDS FLD,18/36,34.78275,-90.80997222,,,,
6M8,,MARKED TREE MUNI,18/36,35.53309027,-90.40008888,,,,
6P3,,WAUNAKEE,09/27,43.17872944,-89.45128416,,,,
6P7,,MCVILLE,14/32,40.7345625,-79.59564583,,,,
6R1,,WELSH,07/25,30.24185455,-92.83073833,,,,
6R3,,CLEVELAND MUNI,16/34,30.35644444,-95.00802777,2023-12-27T22:35:00Z,4.0,VFR,K6R3 272235Z AUTO 33004KT 10SM CLR 17/00 A3001 RMK AO2 T01720000
6R5,,ALVIN AIRPARK,12/30,29.41475,-95.28891666,,,,
6R6,,TERRELL COUNTY,13/31,30.04647222,-102.2131667,2023-12-27T21:51:00Z,11.0,VFR,K6R6 272151Z AUTO 35011KT 16/M03 A3010 RMK AO1 SLP181 T01561033
6R7,,OLD HARBOR,03/21,57.21830555,-153.2698319,,,,
6S0,,BIG TIMBER AT HOWARD FLD,18/36,45.80647725,-109.9782566,2023-12-27T22:35:00Z,12.0,VFR,K6S0 272235Z AUTO 25012KT 10SM CLR 05/M11 A3014 RMK A01
6S1,,BRIDGER MUNI,16/34,45.29161388,-108.9256989,,,,
6S2,,FLORENCE MUNI,15/33,43.98281833,-124.1113672,2023-12-27T22:35:00Z,3.0,VFR,K6S2 272235Z AUTO VRB03G10KT 10SM BKN036 BKN065 BKN080 12/12 A2978 RMK AO2
6S3,,WOLTERMANN MEML,10/28,45.63052388,-109.239215,,,,
6S4,,DAVIS,07/25,44.74588888,-122.4213889,,,,
6S6,,POWERS,13/31,42.86936111,-124.0590278,,,,
6S8,,LAUREL MUNI,14/32,45.70517822,-108.7607711,2023-12-27T22:40:00Z,14.0,VFR,K6S8 272240Z AUTO 20014KT 10SM 03/M08 A3017 RMK A01 LAUREL
6S9,,STEHEKIN STATE,13/31,48.34577777,-120.7208056,,,,
6U5,,HINSDALE,16/34,48.38802055,-107.0832889,,,,
6U6,,HOGELAND,07/25,48.86013888,-108.6609444,,,,
6U7,,HYSHAM,07/25,46.29347222,-107.1933056,,,,
6V0,,EDGEMONT MUNI,16/34,43.295,-103.8429806,,,,
6V4,,WALL MUNI,12/30,43.99922222,-102.2535,,,,
6V5,,BISON MUNI,11/29,45.51833333,-102.4678333,,,,
6W0,,WADE F MALEY FLD,05/23,39.40611111,-80.27686111,,,,
6W4,,YANCEYVILLE MUNI,04/22,36.39977777,-79.39269444,,,,
6X0,,TARRANT FLD,12/30,32.0975,-95.29486111,,,,
6X8,,VULTURES ROW,18/36,33.34,-97.10305555,,,,
6Y0,,MOORESTOWN AIRPARK,09/27,44.46298322,-84.99659808,,,,
6Y1,,BOIS BLANC ISLAND,10/28,45.76629766,-84.50381394,,,,
6Y3,,NORTH FOX ISLAND,07/25,45.48209722,-85.78083333,,,,
6Y4,,VAN EFFEN FLD,12/30,46.0520625,-87.25829027,,,,
6Y5,,TWO HEARTED AIRSTRIP,07/25,46.69334583,-85.42209583,,,,
6Y6,,ST HELEN,18/36,44.36800347,-84.40215555,,,,
6Y8,,WELKE,09/27,45.72129261,-85.51972622,,,,
6Y9,,PRICKETT-GROOMS FLD,10/28,46.50865277,-88.70584722,,,,
6Z6,,NASH FLD INDIANOLA,18/36,41.30385277,-93.56749027,,,,
70D,,TITUS FLD,09/27,39.49888888,-79.85313888,,,,
70J,,CAIRO-GRADY COUNTY,13/31,30.88797222,-84.15472222,,,,
70S,,MEAD FLYING SERVICE,16/34,47.78718666,-117.3581828,,,,
70T,,FAIRVIEW,17/35,33.09444444,-97.42722222,,,,
71J,,OZARK/BLACKWELL FLD,13/31,31.431812,-85.62053391,,,,
71K,,WESTPORT,17/35,37.64769444,-97.38369444,,,,
71N,,SUNBURY,05/23,40.89175194,-76.77885333,,,,
72F,,THROCKMORTON MUNI,17/35,33.18000416,-99.1497625,,,,
72K,,WESTPORT AUXILIARY,17/35,37.60422222,-97.35886111,,,,
72S,,ROSALIA MUNI,02/20,47.23656783,-117.4213786,,,,
73C,,LANCASTER MUNI,18/36,42.78252777,-90.68108333,,,,
73F,,WINGS FOR CHRIST INTL FLIGHT ACADEMY,16/34,31.62377638,-97.0224975,,,,
73S,,WILLARD FLD,04/22,47.23553388,-117.0437497,,,,
74N,,BENDIGO,05/23,40.55899583,-76.5597125,,,,
74P,,CALVADA MEADOWS,H1,36.27205925,-115.9952593,,,,
74R,,HORIZON,11/29,29.28458333,-98.49830555,,,,
74S,,ANACORTES,18/36,48.49850694,-122.6624681,,,,
74T,,HICKS,17/35,33.18301111,-97.2546125,,,,
74V,,ROOSEVELT MUNI,07/25,40.27841388,-110.0513772,2023-12-27T22:35:00Z,5.0,VFR,K74V 272235Z AUTO VRB05KT 10SM CLR M02/M12 A3033 RMK AO2
75C,,OROGRANDE,01/19,45.72944444,-115.5277778,,,,
75G,,ROSSETTIE,18/36,42.19509722,-84.03086111,,,,
75J,,TURNER COUNTY,17/35,31.68761111,-83.63294444,,,,
75K,,BETHANY MEML,03/21,40.27683333,-94.00741666,,,,
76F,,VAN ZANDT COUNTY RGNL,17/35,32.68141666,-95.98413888,,,,
76G,,MARINE CITY,04/22,42.72137916,-82.59626527,,,,
76N,,SKYHAVEN,01/19,41.52816388,-75.94588055,,,,
76T,,BISHOP,17/35,33.26916666,-97.45186111,,,,
76V,,THOMAS MEML,16/34,42.52002777,-105.0200278,,,,
76Z,,NAKEEN,04/22,58.927605,-157.0471522,,,,
77F,,WINTERS MUNI,17/35,31.94719419,-99.98585005,,,,
77G,,MARLETTE TOWNSHIP,01/19,43.31183305,-83.09092027,,,,
77S,,HOBBY FLD,16/34,43.93075,-123.0066667,,,,
78A,,SWAN CREEK,02/20,36.20235638,-80.86812722,,,,
78I,,PAM'S PLACE,10/28,39.50164722,-86.6885018,,,,
78R,,SAN AUGUSTINE COUNTY,17/35,31.54043055,-94.17006666,,,,
78Y,,RANKIN,17/35,40.33169444,-94.83469444,,,,
79C,,BRENNAND,18/36,44.15998416,-88.55955472,,,,
79D,,PHILIPPI/BARBOUR COUNTY RGNL,08/26,39.16619027,-80.06234861,,,,
79J,,SOUTH ALABAMA RGNL AT BILL BENTON FLD,11/29,31.30836111,-86.39222222,2023-12-27T21:56:00Z,,VFR,K79J 272156Z AUTO 10SM CLR 14/05 A2993 RMK AO2 SLP133 T01440050 TSNO $
79S,,FORT BENTON,05/23,47.84418888,-110.6368611,,,,
7A0,,GREENSBORO MUNI,18/36,32.68154027,-87.66206916,,,,
7A3,,LANETT RGNL,06/24,32.81184305,-85.22948527,,,,
7A5,,ROANOKE MUNI ENLOE,12/30,33.12967777,-85.37221527,,,,
7A6,,STEVENSON,05/23,34.88627638,-85.80328888,,,,
7A8,,AVERY COUNTY/MORRISON FLD,17/35,35.94536111,-81.99622222,,,,
7AK,PAUT,AKUTAN,09/27,54.14461111,-165.6041083,,,,
7B2,,NORTHAMPTON,14/32,42.32800972,-72.61124027,,,,
7B3,,HAMPTON AIRFIELD,02/20,42.96126805,-70.83015416,,,,
7B4,,MILLER FARM LANDING STRIP,09/27,39.88450805,-82.58905111,,,,
7B6,,SKYLARK AIRPARK,10/28,41.92841666,-72.57638888,,,,
7B9,,ELLINGTON,01/19,41.92541666,-72.45711111,,,,
7C5,,SIG FLD,18/36,41.54828888,-92.53458333,,,,
7D3,,BALDWIN MUNI,09/27,43.87553563,-85.8420825,,,,
7D8,,GATES,08/26,41.35116583,-81.09954138,,,,
7D9,,GERMACK,01/19,41.77783222,-80.90397972,,,,
7F3,,CADDO MILLS MUNI,13/31,33.03622222,-96.24313888,,,,
7F5,,CANTON-HACKNEY,18/36,32.586245,-95.86274361,,,,
7F7,,CLIFTON MUNI/ISENHOWER FLD,14/32,31.81713333,-97.56956944,,,,
7G0,,LEDGEDALE AIRPARK,10/28,43.18119444,-77.9155,,,,
7G1,,HERRON,01/19,40.53311111,-80.54111111,,,,
7G2,,MC CLUSKY MUNI,13/31,47.46204722,-100.4872292,,,,
7G8,,GEAUGA COUNTY,11/29,41.44959555,-81.06293444,,,,
7G9,,CANTON MUNI,18/36,43.309,-96.57121666,,,,
7I2,,REESE,09/27,40.15523888,-85.31894583,,,,
7I4,,ORLEANS,06/24,38.65838694,-86.44304416,,,,
7K5,,KENMARE MUNI,08/26,48.6676125,-102.0480028,,,,
7K7,,GRAHAM FLD,15/33,42.5395,-96.48477777,,,,
7K8,,MARTIN FLD,14/32,42.45517777,-96.47216666,,,,
7KA,PAKA,TATITLEK,13/31,60.87238888,-146.6911667,,,,
7L2,,LINTON MUNI,09/27,46.22064088,-100.2456239,2023-12-27T22:35:00Z,6.0,VFR,K7L2 272235Z AUTO 31006KT 10SM CLR M00/M00 A3016 RMK AO2
7L8,,POST-AIR,10/28,39.75004277,-86.01387111,,,,
7M1,,MC GEHEE MUNI,18/36,33.62022111,-91.36484055,,,,
7M2,,MOUNTAIN VIEW WILCOX MEML FLD,09/27,35.86448027,-92.09033861,,,,
7M3,,BEARCE,08/26,34.52908111,-93.52942416,,,,
7M4,,OSCEOLA MUNI,01/19,35.69113888,-90.01011111,,,,
7M5,,OZARK/FRANKLIN COUNTY,04/22,35.51069583,-93.8393075,,,,
7M6,,PARIS MUNI,03/21,35.29911527,-93.68161388,,,,
7M7,,PIGGOTT MUNI,18/36,36.37820555,-90.16624166,,,,
7M8,,RECTOR,18/36,36.25006305,-90.31954555,,,,
7M9,,SALEM,02/20,36.35590805,-91.83095472,,,,
7MI,,FLUGPLATZ,09/27,43.34174305,-82.54828472,,,,
7N1,,CORNING-PAINTED POST,13/31,42.18010027,-77.12170194,,,,
7N4,,RAYMOND L KUSSMAUL JR MEML,18/36,42.07775,-83.98602361,,,,
7N7,,OLDMANS TOWNSHIP,07/25,39.73556333,-75.39772111,,,,
7N8,,BUTTER VALLEY GOLF PORT,16/34,40.39743888,-75.56318888,,,,
7NC,,DONALD'S AIR PARK INC,04/22,35.73168927,-76.67125908,,,,
7P5,,PISO,01/19,45.06588055,-88.42704861,,,,
7Q7,,WHITE RIVER MUNI,12/30,43.56166416,-100.7418056,,,,
7R9,,BAILES,17/35,29.16505555,-95.40108333,,,,
7S0,,RONAN,16/34,47.56716666,-114.1010833,,,,
7S2,,WINNETT,12/30,46.97666666,-108.365,,,,
7S3,,STARK'S TWIN OAKS AIRPARK,02/20,45.42845027,-122.9421569,,,,
7S4,,WISDOM,01/19,45.59158972,-113.4592256,,,,
7S5,,INDEPENDENCE STATE,16/34,44.86715155,-123.198245,,,,
7S6,,WHITE SULPHUR SPRINGS,01/19,46.49557861,-110.9119175,,,,
7S7,,VALIER,10/28,48.30014861,-112.2511415,,,,
7S8,,ROSS INTL,07/25,48.99855555,-111.9782222,,,,
7S9,,LENHARDT AIRPARK,02/20,45.18039833,-122.743425,,,,
7T0,,FREEDOM FLD,17/35,33.59361111,-97.21888888,,,,
7T7,,SKYWEST INC,06/24,31.85508333,-102.0739444,,,,
7U8,,RICHEY,14/32,47.62641666,-105.0795833,,,,
7V2,,NORTH FORK VALLEY,06/24,38.83130555,-107.6458611,,,,
7V3,,BIG FOOT AIRFIELD,18/36,42.52742138,-88.65139361,,,,
7V5,,BRUSH MUNI,07/25,40.26436111,-103.5756389,,,,
7V7,,RED CLOUD MUNI,16/34,40.08216666,-98.54136111,,,,
7V8,,JULESBURG MUNI,13/31,40.97025833,-102.3152736,,,,
7V9,,CITY OF LAS ANIMAS - BENT COUNTY,08/26,38.05402777,-103.2384722,,,,
7W1,,PORT OF ILWACO,10/28,46.3149125,-124.0038381,,,,
7W4,,LAKE ANNA,08/26,37.96581944,-77.74590277,2023-12-27T22:35:00Z,0.0,MVFR,K7W4 272235Z AUTO 00000KT 4SM BKN021 OVC029 14/14 A2976 RMK AO1 P0018 T01370137
7W5,,HENRY COUNTY,10/28,41.37426972,-84.06787916,,,,
7W6,,HYDE COUNTY,11/29,35.56203694,-75.95565416,2023-12-27T22:30:00Z,7.0,MVFR,K7W6 272230Z AUTO 13007KT 5SM DZ SCT008 BKN018 OVC029 17/16 A2973 RMK AO2 P0003 T01660161
7Y2,,THOMPSONVILLE,17/35,44.51779461,-85.97056783,,,,
7Y3,,BACKUS MUNI,15/33,46.827175,-94.50678611,,,,
7Y4,,BAGLEY MUNI,14/32,47.52403125,-95.3637125,,,,
7Y9,,BIG FALLS MUNI,11/29,48.20051566,-93.76237633,,,,
80A,,AMERICAN CREEK,02/20,65.10398194,-151.1772333,,,,
80C,,LONE HICKORY,16/34,36.06051444,-80.6901,,,,
80D,,CLARE COUNTY,05/23,44.05227519,-84.81314175,,,,
80F,,ANTLERS MUNI,17/35,34.19356805,-95.64986361,,,,
80G,,TRI-CITY,10/28,40.24785972,-81.73606944,,,,
80S,,LAVINA,07/25,46.30727777,-108.9548056,,,,
80T,,QUINCY MUNI,09/27,47.21161111,-119.8398333,,,,
80V,,MEDICINE BOW,06/24,41.88397222,-106.1827778,,,,
81B,,OXFORD COUNTY RGNL,15/33,44.15744444,-70.48127777,,,,
81D,,FLYIN TIGER,16/34,29.26496716,-95.41257005,,,,
81R,,SAN SABA COUNTY MUNI,13/31,31.23574527,-98.71769388,2023-12-27T22:35:00Z,12.0,VFR,K81R 272235Z AUTO 33012KT 10SM CLR 13/01 A3008 RMK AO2 T01260006
82A,,MARION COUNTY,14/32,32.28280555,-84.50369444,,,,
82C,,MAUSTON/NEW LISBON UNION,14/32,43.83876672,-90.13773355,2023-12-27T22:35:00Z,0.0,VFR,K82C 272235Z AUTO 00000KT 10SM CLR 02/M02 A3003 RMK AO2 T00221025
82J,,ROSCOE FLD,18/36,30.39827638,-87.34900416,,,,
82V,,PINE BLUFFS MUNI,08/26,41.15247222,-104.13475,2023-12-27T22:35:00Z,13.0,VFR,K82V 272235Z AUTO 32013KT 10SM 01/M07 A3014 RMK AO2
83D,,MACKINAC COUNTY,07/25,45.89144444,-84.73813888,,,,
83K,,HARRIS,04/22,43.40976388,-73.53265416,,,,
83V,,UPTON MUNI,13/31,44.09053666,-104.6407942,,,,
84D,,CHEYENNE EAGLE BUTTE,13/31,44.98438888,-101.2510556,,,,
84R,,SMITHVILLE CRAWFORD MUNI,17/35,30.02820777,-97.16703916,,,,
84Y,,BLOOMFIELD MUNI,14/32,42.57972444,-97.67367527,,,,
85N,,HOLLANDS INTL FLD,NE/SW,43.25487777,-78.7655,,,,
85U,,SOLDIER BAR USFS,07/25,45.09991416,-114.8009289,,,,
86F,,CARNEGIE MUNI,17/35,35.12372222,-98.57525,,,,
87I,,YAZOO COUNTY,17/35,32.88348416,-90.46398972,,,,
87K,,EL DORADO SPRINGS MEML,18/36,37.85713888,-93.99763888,,,,
87Y,,BLACKHAWK AIRFIELD,09/27,43.10470277,-89.18536111,,,,
88C,,PALMYRA MUNI,09/27,42.88354444,-88.59991666,,,,
88D,,HINDE,11/29,41.40449444,-82.60314722,,,,
88M,,EUREKA,01/19,48.96841666,-115.0794167,,,,
88R,,SPICEWOOD,17/35,30.47378194,-98.12143611,,,,
89D,,KELLEYS ISLAND LAND FLD,09/27,41.60318194,-82.68505416,,,,
89Y,,MAIDENS,09/27,42.73386111,-84.32211111,,,,
8A0,,ALBERTVILLE RGNL/THOMAS J BRUMLIK FLD,05/23,34.22911111,-86.25575,2023-12-27T22:35:00Z,4.0,VFR,K8A0 272235Z AUTO 26004KT 10SM CLR 10/00 A2987 RMK AO2
8A1,,GUNTERSVILLE MUNI/JOE STARNES FLD,06W/24W,34.40618919,-86.26087027,,,,
8A3,,LIVINGSTON MUNI,03/21,36.41350333,-85.31045583,2023-12-27T22:35:00Z,0.0,VFR,K8A3 272235Z AUTO 00000KT 10SM BKN075 08/00 A2983 RMK A01
8A7,,TWIN LAKES,09/27,35.914915,-80.45680638,,,,
8B0,,STEPHEN A BEAN MUNI,14/32,44.99209138,-70.66508527,2023-12-27T22:35:00Z,0.0,LIFR,K8B0 272235Z AUTO 00000KT 1/4SM FG BKN004 OVC012 03/03 A3002 RMK AO2
8B1,,HAWTHORNE-FEATHER AIRPARK,02/20,43.06127777,-71.90536111,,,,
8B2,,TWIN MOUNTAIN,09/27,44.26406408,-71.54674869,,,,
8B5,,TANNER-HILLER,06/24,42.35638888,-72.13008333,,,,
8C2,,SULLY MUNI,08/26,41.5741,-92.8466,,,,
8C4,,MATHEWS MEML,11/29,41.76335416,-91.15293583,,,,
8C5,,TOLEDO MUNI,17/35,41.98823161,-92.54798613,,,,
8C6,,TRAER MUNI,17/35,42.20083333,-92.45663888,,,,
8D1,,NEW HOLSTEIN MUNI,14/32,43.94410458,-88.11484169,,,,
8D3,,SISSETON MUNI,04/22,45.6695275,-96.99358555,2023-12-27T21:56:00Z,9.0,VFR,K8D3 272156Z AUTO 34009KT 01/00 A3005 RMK AO1 SLP194 P0001 T00060000
8D4,,PAUL C MILLER/SPARTA,07/25,43.1274375,-85.67913,,,,
8D7,,CLARK COUNTY,03/21,44.89503166,-97.71047916,,,,
8D8,,LAKE ANDES MUNI,12/30,43.14804888,-98.54035916,,,,
8D9,,HOWARD MUNI,13/31,44.03330294,-97.533675,,,,
8F3,,CROSBYTON MUNI,17/35,33.62383333,-101.2408611,,,,
8F5,,GREATER MORRIS COUNTY,17/35,33.14805916,-94.70014888,,,,
8F6,,MURDO MUNI,14/32,43.85213888,-100.7128056,,,,
8G1,,WILLARD,10/28,41.03875044,-82.7245648,,,,
8G2,,CORRY-LAWRENCE,14/32,41.90755555,-79.64105555,,,,
8G3,,GIERMEK EXEC,10/28,42.06761111,-78.40552777,,,,
8G6,,HARRISON COUNTY,13/31,40.23837027,-81.01288388,,,,
8G8,,KOONS,09/27,40.88269427,-80.88102266,,,,
8GK,,GALLATIN COUNTY,06/24,38.67949916,-84.92889805,,,,
8I1,,ROBINSON,09/27,38.69450638,-85.19828694,,,,
8I3,,GLENNDALE,18/36,40.43337083,-86.20332722,,,,
8J7,,TOMLINSON FLD,13/31,47.69638722,-99.13122861,,,,
8K0,,BUCKLIN,18/36,37.54569444,-99.64216666,,,,
8K2,,HARPER MUNI,12/30,37.27818638,-98.04347833,,,,
8K8,,CIMARRON MUNI,11/29,37.83286472,-100.3481583,,,,
8KA,,TATITNA,06/24,62.29328694,-153.3619531,,,,
8KS,,MAXWELL AVIATION,18/36,38.27869444,-98.07805,,,,
8M1,,BOONEVILLE/BALDWYN,15/33,34.59186111,-88.6485,,,,
8M2,,SALLY WOFFORD,01/19,35.59027222,-90.91367222,,,,
8M6,,MC VILLE MUNI,18/36,47.77031666,-98.18491388,,,,
8M7,,TRADEWATER,18/36,37.18591666,-87.675,,,,
8M8,,EAGLE II,18/36,44.80652777,-84.27619444,,,,
8N1,,GRIMES,11/29,40.48481416,-76.26356194,,,,
8N2,,SKYDIVE CHICAGO,03/21,41.39977777,-88.79391666,,,,
8N4,,FLYING DOLLAR,02/20,41.21492916,-75.24690277,,,,
8N8,,DANVILLE,09/27,40.94835208,-76.64392638,,,,
8NC,,ADAMS,01/19,34.57611666,-79.24881666,,,,
8S0,,STARR-BROWNING AIRSTRIP,06/24,48.601,-113.1153056,,,,
8S1,,POLSON,03W/21W,47.69544444,-114.1852778,,,,
8S2,,CASHMERE-DRYDEN,07/25,47.51475,-120.4846667,,,,
8S3,,SANTIAM JUNCTION STATE,06/24,44.43455555,-121.9422778,,,,
8S4,,ENTERPRISE MUNI,12/30,45.42483333,-117.26475,,,,
8T6,,LIVE OAK COUNTY,13/31,28.36280555,-98.11647222,2023-12-27T22:35:00Z,9.0,VFR,K8T6 272235Z AUTO 31009KT 9SM CLR 22/M01 A3000 RMK AO2
8T8,,SAN GERONIMO AIRPARK,17/35,29.51019444,-98.79841666,,,,
8U0,,RYEGATE,07/25,46.29047222,-109.2476944,,,,
8U1,,SAND SPRINGS STRIP,10/28,47.10413888,-107.5029167,,,,
8U2,,SCHAFER /USFS/,07/25,48.07961111,-113.245,,,,
8U3,,SCOBEY BORDER STATION/EAST POPLAR INTL,07/25,48.99952777,-105.40025,,,,
8U4,,SPOTTED BEAR /USFS/,14/32,47.96166666,-113.5594722,,,,
8U6,,TERRY,08/26,46.77713888,-105.3131111,,,,
8U8,,TOWNSEND,17/35,46.33123194,-111.4825861,,,,
8U9,,CANYON FERRY,16/34,46.41882111,-111.5771939,,,,
8V2,,STUART-ATKINSON MUNI,05/23,42.56269888,-99.03881027,,,,
8V3,,PARKSTON MUNI,15/33,43.37740838,-97.98971075,,,,
8V6,,DOVE CREEK,01/19,37.76475,-108.8886389,,,,
8V7,,SPRINGFIELD MUNI,17/35,37.45872222,-102.618,,,,
8W2,,NEW MARKET,06/24,38.65598472,-78.70849583,2023-12-27T22:35:00Z,0.0,LIFR,K8W2 272235Z AUTO 00000KT 10SM BKN004 BKN018 OVC023 10/09 A2980 RMK AO1 T01000093
8W3,,MANSFIELD,03/21,47.80938583,-119.6369294,,,,
8W5,,APEX AIRPARK,17/35,47.65641388,-122.7331375,,,,
8W9,,R & K SKYRANCH,16/34,46.83268277,-123.0914186,,,,
8WC,,WASHINGTON COUNTY,02/20,37.92919525,-90.73148402,,,,
8Y5,,CLARISSA MUNI,10/28,46.11301944,-94.90668972,,,,
8Y6,,LEADERS CLEAR LAKE,18/36,45.44441,-93.97109166,,,,
8Y8,,PELTZ FLD,18/36,43.26597222,-94.56250972,,,,
90F,,BROKEN BOW,17/35,34.01316666,-94.75833333,,,,
91C,,SAUK/PRAIRIE,18/36,43.29786111,-89.75580555,,,,
91F,,CARLTON LANDING FLD,15/33,35.1563375,-95.62143472,,,,
91N,,TURTLE LAKE MUNI,08/26,47.50960694,-100.9166,,,,
92C,,CARTER,03/21,44.64101666,-88.21451944,,,,
92F,,CHATTANOOGA SKY HARBOR,17/35,34.36886111,-98.68213888,,,,
92G,,MIDLAKES,14/32,42.81422222,-77.20291666,,,,
93B,,STONINGTON MUNI,H1,44.17322222,-68.68025,,,,
93C,,RICHLAND,17/35,43.2833575,-90.29828194,,,,
93F,,MIGNON LAIRD MUNI,18/36,35.60323472,-99.7030125,,,,
93Y,,DAVID CITY MUNI,01/19,41.23032972,-97.12253083,,,,
94C,,GILBERT FLD,09/27,43.44998527,-89.25011583,,,,
94E,,WHISKEY CREEK,17/35,32.76201972,-108.2083797,,,,
94K,,CASSVILLE MUNI,09/27,36.69741666,-93.90052777,,,,
94R,,GAV AIR,15/33,29.26439583,-96.00724583,,,,
94Z,,NOME CITY FLD,03/21,64.51142227,-165.3902302,,,,
95D,,BEULAH,10/28,47.25121388,-101.8150431,,,,
95F,,CLEVELAND MUNI,18/36,36.28416666,-96.46333333,,,,
95Z,,BRADLEY SKY-RANCH,15/33,64.75922222,-147.3876389,,,,
96D,,WALHALLA MUNI,15/33,48.94057319,-97.90277763,2023-12-27T22:35:00Z,0.0,VFR,K96D 272235Z AUTO 00000KT 10SM CLR 01/M06 A3014 RMK AO2
96G,,COWLEY FLD,09/27,43.37572222,-82.81883333,,,,
97G,,GLOWACKI,09/27,43.00003194,-84.59582027,,,,
97M,,EKALAKA,13/31,45.87648533,-104.5375713,,,,
97Y,,GENOA MUNI,11/29,41.40436805,-97.70972361,,,,
98D,,ONIDA MUNI,13/31,44.7005,-100.1014167,,,,
98G,,SEBEWAING TOWNSHIP,18/36,43.72950752,-83.46360225,,,,
98M,,GREATON AIRFIELD,06/24,43.57571666,-70.51885833,,,,
99A,,SMITH'S INTL,17/35,34.40622222,-91.95875,,,,
99N,,BAMBERG COUNTY,05/23,33.30452777,-81.10841666,,,,
99V,,CRAWFORD,E/W,38.70415361,-107.6436694,,,,
9A0,,LUMPKIN COUNTY-WIMPYS,16/34,34.58309166,-84.01995833,,,,
9A3,PACH,CHUATHBALUK,09/27,61.57905555,-159.2156389,,,,
9A4,,COURTLAND,18/36,34.65815833,-87.34855805,,,,
9A5,,BARWICK LAFAYETTE,02/20,34.68840333,-85.29035305,,,,
9A8,,UGASHIK,06/24,57.523425,-157.3959944,,,,
9A9,,SHIFLET FLD,10/28,35.72067972,-82.00983083,,,,
9AK,,TOTATLANIKA RIVER,07/25,64.02565972,-148.5223375,,,,
9B8,,SALMON RIVER AIRFIELD,17/35,41.58954333,-72.44230777,,,,
9C8,,EVART MUNI,06/24,43.89486111,-85.28475,,,,
9D0,,HIGHMORE MUNI,13/31,44.54076713,-99.45101227,,,,
9D1,,GREGORY MUNI - FLYNN FLD,13/31,43.22178019,-99.40342286,,,,
9D2,,HARDING COUNTY,12/30,45.57955497,-103.5289102,,,,
9D4,,DECK,01/19,40.35212777,-76.32964444,,,,
9D7,,CANDO MUNI,16/34,48.48002777,-99.23638888,2023-12-27T22:35:00Z,5.0,MVFR,K9D7 272235Z AUTO 36005KT 3SM HZ CLR 02/M09 A3016 RMK AO2
9D9,,HASTINGS,18/36,42.66330611,-85.34575333,,,,
9F0,,DUBLIN MUNI,15/33,32.06819916,-98.32532083,,,,
9F8,,HOVEN MUNI,13/31,45.25755861,-99.79783944,,,,
9F9,,SYCAMORE STRIP,17/35,32.62702777,-97.35400694,,,,
9G0,,BUFFALO AIRFIELD,06/24,42.86199388,-78.71658444,,,,
9G1,,PITTSBURGH NORTHEAST,17/35,40.60354627,-79.82611894,,,,
9G2,,PRICES,09/27,42.80761111,-83.76897222,,,,
9G3,,AKRON/JESSON FLD,07/25,43.02109622,-78.48263319,,,,
9G5,,ROYALTON,07/25,43.18200222,-78.55780527,,,,
9G6,,PINE HILL,10/28,43.17353083,-78.2746325,,,,
9G8,,EBENSBURG,07/25,40.46125416,-78.77531138,,,,
9G9,,GACKLE MUNI,17/35,46.62156388,-99.16446388,,,,
9I0,,HAVANA RGNL,09/27,40.22269305,-90.02278194,,,,
9I3,,WEST LIBERTY,07/25,37.91443333,-83.25194305,,,,
9K0,,COTTONWOOD FALLS,17/35,38.35862555,-96.55445166,,,,
9K2,PFKK,KOKHANOK,07/25,59.43328611,-154.8025917,,,,
9K6,,PATTY FLD,18/36,37.80044444,-96.79902777,,,,
9K7,,ELLSWORTH MUNI,17/35,38.75098777,-98.22917166,,,,
9K8,,KINGMAN/CLYDE CESSNA FLD,11/29,37.66901611,-98.12389169,,,,
9KS,,GREENSBURG MUNI,18/36,37.6227,-99.22837777,,,,
9M4,,ACKERMAN CHOCTAW COUNTY,01/19,33.3034575,-89.22840027,,,,
9M6,,KELLY-DUMAS,18/36,32.84764861,-91.40405555,,,,
9M8,,SHERIDAN-GRANT COUNTY RGNL,01/19,34.32752777,-92.35133333,,,,
9N1,,VANSANT,07/25,40.48426972,-75.09961611,,,,
9N3,,SEAMANS FLD,04/22,41.58935472,-75.75608055,,,,
9N7,,FARMERS PRIDE,10/28,40.44286833,-76.44162722,,,,
9R5,,HUNT,14L/32R,27.88666713,-97.34963605,,,,
9S1,,FOUR WINDS,18/36,33.36827638,-96.75469444,,,,
9S2,,SCOBEY,12/30,48.80772222,-105.4394722,,,,
9S3,,LAKESIDE MUNI,15/33,43.58317027,-124.1803919,,,,
9S4,,MINERAL COUNTY,12/30,47.16825944,-114.8537411,,,,
9S5,,THREE FORKS,03/21,45.87811111,-111.5694444,2023-12-27T21:55:00Z,4.0,VFR,K9S5 272155Z AUTO 06004KT 10SM M03/M07 A3017 RMK Three Forks 
9S7,,WINIFRED,08/26,47.55538888,-109.3867097,,,,
9S9,,LEXINGTON,08/26,45.45413888,-119.6902778,2023-12-27T22:35:00Z,0.0,MVFR,K9S9 272235Z AUTO 00000KT 4SM -RA FEW035 SCT049 OVC060 02/02 A3003 RMK AO2
9U0,,TURNER,10/28,48.85031944,-108.4037528,,,,
9U1,,WILSALL,01/19,46.04954583,-110.6849542,,,,
9U7,,CURRANT RANCH,03/21,38.73604583,-115.4803053,,,,
9V5,,MODISETT,14/32,42.73657547,-102.4443601,,,,
9V6,,MARTIN MUNI,14/32,43.16564944,-101.7126981,,,,
9V7,,EADS MUNI,17/35,38.47513888,-102.8108611,,,,
9V9,,CHAMBERLAIN MUNI,18/36,43.76613708,-99.32122919,2023-12-27T22:35:00Z,10.0,IFR,K9V9 272235Z AUTO 30010KT 10SM BKN007 OVC013 00/00 A3009 RMK AO2 T00010001
9VG,,CAMPBELL FLD,14/32,37.45846944,-75.87881944,,,,
9W3,,SIMPSON,01/19,39.0934325,-80.02591222,,,,
9W8,,BAUBLITZ COMMERCIAL,10/28,39.85232361,-76.48635333,,,,
9W9,,CLIO CROP CARE,05/23,34.56141666,-79.53808333,,,,
9Y0,,BOWSTRING,07/25,47.55824444,-93.87006388,,,,
9Y1,,DUNN COUNTY WEYDAHL FLD,13/31,47.39133194,-102.7718125,,,,
9Y2,,EAST GULL LAKE,13/31,46.38385555,-94.37361388,,,,
9Y7,,BARRON MUNI,09/27,45.40745805,-91.83433972,,,,
9Z8,,LEVELOCK,01/19,59.12708333,-156.8598889,,,,
9Z9,,LAWING,15/33,60.41188472,-149.3693417,,,,
A05,,DIXIE USFS,18/36,45.52074055,-115.5176267,,,,
A08,,VAIDEN FLD,16/34,32.5105,-87.38477777,,,,
A09,,EAGLE AIRPARK,17/35,34.88816666,-114.6166389,,,,
A13,,BOLD,14/32,61.34133888,-148.9988806,,,,
A14,PAOC,PORTAGE CREEK,10/28,58.906525,-157.7111667,,,,
A20,,SUN VALLEY,18/36,35.00563888,-114.5650278,,,,
A24,,CALIFORNIA PINES,05/23,41.41225972,-120.6838861,,,,
A26,,ADIN,09/27,41.1865,-120.9543889,,,,
A28,,FORT BIDWELL,16/34,41.8765,-120.1466389,,,,
A30,,SCOTT VALLEY,16/34,41.55777777,-122.8549444,,,,
A32,,BUTTE VALLEY,16/34,41.88725,-121.9755833,,,,
A34,,DAYTON VALLEY AIRPARK,05/23,39.23841666,-119.5554444,,,,
A39,,AK-CHIN RGNL,04/22,32.99054861,-111.9189014,2023-12-27T22:35:00Z,0.0,VFR,KA39 272235Z AUTO 00000KT 10SM BKN090 BKN120 14/04 A3017 RMK AO2
A51,,COSTIN,18/36,29.75854361,-85.28908472,,,,
A57,,ALSEK RIVER,07/25,59.19913333,-138.4458778,,,,
A61,,TUNTUTULIAK,02/20,60.35110833,-162.6546111,,,,
A63,,TWIN HILLS,18/36,59.074525,-160.2750417,,,,
A67,,HARLEQUIN LAKE,05/23,59.41439583,-139.0337208,,,,
A68,,SITUK,13/31,59.55287083,-139.5102222,,,,
A69,,TANIS MESA,12/30,59.24959722,-138.5041653,,,,
A77,,YANKEE CREEK 2,13/31,63.00186805,-156.3673603,,,,
A79,,CHIGNIK LAKE,08/26,56.25545694,-158.7778319,,,,
AAA,KAAA,LOGAN COUNTY,03/21,40.15869444,-89.33502777,2023-12-27T22:30:00Z,1.0,VFR,WAAA 272230Z VRB01KT 9999 FEW019 25/24 Q1013 NOSIG
AAF,KAAF,APALACHICOLA RGNL-CLEVE RANDOLPH FLD,18/36,29.72754944,-85.0273775,2023-12-27T21:53:00Z,3.0,VFR,KAAF 272153Z AUTO 21003KT 10SM CLR 14/08 A2992 RMK AO2 PRESFR SLP132 T01440083
AAO,KAAO,COLONEL JAMES JABARA,18/36,37.74757416,-97.22111777,2023-12-27T22:34:00Z,11.0,MVFR,KAAO 272234Z AUTO 31011KT 10SM BKN028 01/M06 A3006 RMK AO2 T00061056 $
AAS,KAAS,TAYLOR COUNTY,05/23,37.35827777,-85.30941666,2023-12-27T22:00:00Z,2.0,VFR,DAAS 272200Z VRB02KT 9999 FEW026 SCT100 06/M01 Q1027
AAT,KAAT,ALTURAS MUNI,13/31,41.48286111,-120.5654167,2023-12-27T21:55:00Z,13.0,VFR,KAAT 272155Z AUTO 21013G22KT 10SM FEW044 BKN055 OVC070 07/01 A3002 RMK AO2 PK WND 20033/2119 RAB29E48 SLP161 P0000 T00670006
ABE,KABE,LEHIGH VALLEY INTL,13/31,40.65236277,-75.44040583,2023-12-27T22:00:00Z,7.0,VFR,PABE 272200Z 27007KT 9SM SCT029 OVC075 M06/M06 A2956 RMK AO2 SNE2157 P0000 T10611061
ABI,KABI,ABILENE RGNL,17L/35R,32.41133333,-99.68188888,2023-12-27T21:52:00Z,10.0,VFR,KABI 272152Z 35010KT 10SM BKN044 11/01 A3008 RMK AO2 SLP184 T01110006
ABO,TJAB,ANTONIO/NERY/JUARBE POL,08/26,18.45090138,-66.67544972,,,,
ABQ,KABQ,ALBUQUERQUE INTL SUNPORT,08/26,35.03893155,-106.6082622,2023-12-27T21:52:00Z,0.0,VFR,KABQ 272152Z 00000KT 10SM CLR 08/M12 A3016 RMK AO2 SLP211 T00781122 $
ABR,KABR,ABERDEEN RGNL,13/31,45.44679805,-98.42244083,2023-12-27T21:58:00Z,7.0,LIFR,PABR 272158Z 07007KT 1/2SM BR VV002 M24/M27 A2983
ABY,KABY,SOUTHWEST GEORGIA RGNL,17/35,31.53552777,-84.19447222,2023-12-27T21:53:00Z,4.0,VFR,KABY 272153Z 22004KT 10SM CLR 16/05 A2993 RMK AO2 SLP134 T01560050 $
ACB,KACB,ANTRIM COUNTY,02/20,44.9885775,-85.19834666,2023-12-27T22:35:00Z,3.0,MVFR,KACB 272235Z AUTO 36003KT 10SM OVC011 03/03 A3000 RMK AO2 T00330025
ACJ,KACJ,JIMMY CARTER RGNL,10/28,32.11080555,-84.18886111,2023-12-27T22:35:00Z,4.0,VFR,KACJ 272235Z AUTO 23004KT 10SM CLR 15/03 A2989 RMK AO2 T01480031 $
ACK,KACK,NANTUCKET MEML,15/33,41.25329944,-70.06051194,2023-12-27T21:53:00Z,5.0,VFR,KACK 272153Z 34005KT 10SM OVC075 09/08 A3004 RMK AO2 SLP171 T00940083
ACP,KACP,ALLEN PARISH,18/36,30.75050861,-92.68849083,2023-12-27T22:35:00Z,0.0,VFR,KACP 272235Z AUTO 00000KT 10SM CLR 18/M02 A2996 RMK AO2
ACQ,KACQ,WASECA MUNI/MAYNARD RICHARD STENSRUD FLD,15/33,44.07347222,-93.55294416,2023-12-27T22:35:00Z,0.0,VFR,KACQ 272235Z AUTO 00000KT 10SM CLR 00/M02 A3007 RMK AO2
ACT,KACT,WACO RGNL,14/32,31.61219444,-97.23030555,2023-12-27T21:51:00Z,10.0,VFR,KACT 272151Z 34010KT 10SM CLR 14/01 A3004 RMK AO2 SLP173 T01390006 $
ACV,KACV,CALIFORNIA REDWOOD COAST-HUMBOLDT COUNTY,14/32,40.97782638,-124.1084692,2023-12-27T21:53:00Z,16.0,VFR,KACV 272153Z AUTO 16016G23KT 10SM FEW110 16/09 A2987 RMK AO2 SLP120 T01610094
ACY,KACY,ATLANTIC CITY INTL,H1,39.45758333,-74.57716666,2023-12-27T21:54:00Z,9.0,LIFR,KACY 272154Z 07009KT 3/4SM OVC003 10/09 A2990 RMK AO2 SFC VIS 7 SLP126 T01000094
ACZ,KACZ,HENDERSON FLD,09/27,34.71786111,-78.00388888,2023-12-27T22:25:00Z,4.0,VFR,KACZ 272225Z AUTO 30004KT 10SM SCT006 BKN037 OVC046 18/18 A2974 RMK AO2 T01840175
ADC,KADC,WADENA MUNI,16/34,46.449945,-95.21083202,2023-12-27T22:35:00Z,0.0,IFR,KADC 272235Z AUTO 00000KT 10SM OVC007 01/00 A3006 RMK AO2
ADF,KADF,DEXTER B FLORENCE MEML FLD,04/22,34.09980555,-93.06608333,2023-12-27T22:00:00Z,8.0,VFR,SADF 272200Z 02008KT CAVOK 28/16 Q1007 RMK PP000
ADG,KADG,LENAWEE COUNTY,11/29,41.86763666,-84.07730583,2023-12-27T22:09:00Z,13.0,VFR,PADG 272209Z 08013G20KT 10SM -DRSN OVC043 M16/M18 A2954
ADH,KADH,ADA RGNL,H1,34.80426197,-96.67119975,2023-12-27T22:35:00Z,8.0,VFR,KADH 272235Z AUTO 32008G15KT 10SM CLR 05/M03 A3006 RMK AO2
ADK,PADK,ADAK,05/23,51.88358277,-176.6424822,2023-12-27T21:56:00Z,10.0,VFR,PADK 272156Z AUTO 19010KT 10SM BKN047 M01/M04 A2963 RMK AO2 SLP034 T10061039 FZRANO $
ADM,KADM,ARDMORE MUNI,17/35,34.30387344,-97.02059738,2023-12-27T21:50:00Z,11.0,VFR,KADM 272150Z 31011G17KT 10SM CLR 07/M05 A3006
ADQ,PADQ,KODIAK,08/26,57.74979388,-152.4939436,2023-12-27T21:53:00Z,6.0,VFR,PADQ 272153Z 28006KT 10SM OVC100 M06/M09 A2978 RMK AO2 SLP086 T10561089
ADS,KADS,ADDISON,16/34,32.96855555,-96.83644444,2023-12-27T22:47:00Z,10.0,VFR,KADS 272247Z 32010KT 13SM SKC 09/M03 A3007
ADT,KADT,ATWOOD-RAWLINS COUNTY CITY-COUNTY,04/22,39.8403385,-101.0424829,2023-12-27T22:35:00Z,8.0,MVFR,KADT 272235Z AUTO 33008KT 10SM -SN SCT008 BKN014 OVC020 A3014 RMK AO2
ADU,KADU,AUDUBON COUNTY,14/32,41.70152777,-94.92044444,2023-12-27T21:56:00Z,6.0,VFR,PADU 272156Z 20006KT 10SM FEW030 00/M06 A2973 RMK AO2 SLPNO T00001056
AEG,KAEG,DOUBLE EAGLE II,04/22,35.14490944,-106.7951739,2023-12-27T21:48:00Z,4.0,VFR,KAEG 272148Z 28004KT 10SM CLR 06/M14 A3016
AEJ,KAEJ,CENTRAL COLORADO RGNL,15/33,38.81419444,-106.1206111,2023-12-27T22:35:00Z,15.0,VFR,KAEJ 272235Z AUTO 32015G21KT 10SM CLR 04/M18 A3013 RMK AO2 T00351178
AEL,KAEL,ALBERT LEA MUNI,17/35,43.68131425,-93.36814836,2023-12-27T22:35:00Z,5.0,VFR,KAEL 272235Z AUTO 36005KT 10SM CLR 00/M01 A3004 RMK AO2
AEX,KAEX,ALEXANDRIA INTL,14/32,31.32737166,-92.54855583,2023-12-27T21:53:00Z,12.0,VFR,KAEX 272153Z 28012KT 10SM CLR 16/02 A2994 RMK AO2 SLP142 T01610017
AFE,PAFE,KAKE,11/29,56.9613625,-133.9102611,2023-12-27T22:32:00Z,3.0,IFR,PAFE 272232Z AUTO VRB03KT 1SM -SN BR BKN010 OVC016 01/M01 A2945 RMK AO2 RAE05SNB05 P0000 FZRANO
AFJ,KAFJ,WASHINGTON COUNTY,09/27,40.13647222,-80.29019444,,,,
AFK,KAFK,NEBRASKA CITY MUNI,05/23,40.60652777,-95.86666666,2023-12-27T22:35:00Z,12.0,MVFR,KAFK 272235Z AUTO 36012KT 10SM OVC015 00/M02 A3003 RMK AO2 T00001020
AFM,PAFM,AMBLER,10/28,67.10620055,-157.8571558,,,,
AFN,KAFN,JAFFREY AIRFIELD SILVER RANCH,16/34,42.80513416,-72.00302194,2023-12-27T22:46:00Z,0.0,IFR,KAFN 272246Z AUTO 00000KT 1SM BR OVC055 08/06 A3002 RMK AO2
AFO,KAFO,AFTON MUNI,16/34,42.70877055,-110.9421711,2023-12-27T22:35:00Z,0.0,VFR,KAFO 272235Z AUTO 00000KT 10SM CLR M08/M13 A3029 RMK AO2
AFP,KAFP,ANSON COUNTY/JEFF CLOUD FLD,16/34,35.02063777,-80.0771175,2023-12-27T22:30:00Z,5.0,MVFR,KAFP 272230Z AUTO 30005KT 10SM OVC018 16/14 A2979 RMK AO2 T01600138
AFW,KAFW,PEROT FLD/FORT WORTH ALLIANCE,16R/34L,32.99030666,-97.31942944,2023-12-27T21:53:00Z,13.0,VFR,KAFW 272153Z 31013KT 10SM FEW045 09/M02 A3006 RMK AO2 SLP183 T00941017
AGC,KAGC,ALLEGHENY COUNTY,10/28,40.35443763,-79.92904666,2023-12-27T22:38:00Z,4.0,MVFR,KAGC 272238Z 32004KT 10SM FEW006 OVC012 12/10 A2980 RMK AO2 T01170100
AGO,KAGO,RALPH C WEISER FLD,18/36,33.22747222,-93.217,2023-12-27T22:35:00Z,11.0,VFR,KAGO 272235Z AUTO 29011G17KT 10SM FEW044 09/M01 A2999 RMK A01
AGS,KAGS,AUGUSTA RGNL AT BUSH FLD,08/26,33.36994444,-81.9645,2023-12-27T21:53:00Z,0.0,VFR,KAGS 272153Z 00000KT 10SM CLR 16/10 A2983 RMK AO2 SLP101 T01610100
AGZ,KAGZ,WAGNER MUNI,14/32,43.06416613,-98.29638208,,,,
AHH,KAHH,AMERY MUNI,18/36,45.28114833,-92.37539222,,,,
AHN,KAHN,ATHENS/BEN EPPS,09/27,33.94864027,-83.32591416,2023-12-27T21:51:00Z,3.0,VFR,KAHN 272151Z 26003KT 10SM CLR 14/04 A2984 RMK AO2 SLP103 T01440039
AHQ,KAHQ,WAHOO MUNI,13/31,41.24060805,-96.594555,2023-12-27T22:35:00Z,11.0,VFR,KAHQ 272235Z AUTO 34011KT 10SM CLR M01/M04 A3007 RMK AO2 T10111036
AIA,KAIA,ALLIANCE MUNI,17/35,42.05322222,-102.80375,2023-12-27T21:53:00Z,8.0,VFR,KAIA 272153Z AUTO 34008KT 10SM FEW035 01/M06 A3012 RMK AO2 SLP223 T00111061
AIB,KAIB,HOPKINS FLD,11/29,38.23900222,-108.5628067,2023-12-27T22:35:00Z,4.0,VFR,KAIB 272235Z AUTO 26004KT 10SM CLR 04/M13 A3025 RMK AO2 T00431133
AID,KAID,ANDERSON MUNI-DARLINGTON FLD,12/30,40.10861111,-85.613,2023-12-27T22:00:00Z,3.0,IFR,VAID 272200Z 04003KT 2000 BR NSC 15/11 Q1018 NOSIG
AIG,KAIG,LANGLADE COUNTY,09/27,45.15394969,-89.11061675,2023-12-27T22:35:00Z,5.0,VFR,KAIG 272235Z AUTO 35005KT 10SM CLR 00/M04 A3004 RMK AO2 T10021040
AIK,KAIK,AIKEN RGNL,07/25,33.64938888,-81.68502777,2023-12-27T22:35:00Z,4.0,VFR,KAIK 272235Z AUTO 26004KT 10SM CLR 13/10 A2986 RMK AO2 T01310102
AIO,KAIO,ATLANTIC MUNI,12/30,41.40383333,-95.04875,2023-12-27T22:35:00Z,13.0,MVFR,KAIO 272235Z AUTO 36013G18KT 10SM OVC016 01/M00 A3000 RMK AO2
AIT,KAIT,AITKIN MUNI/STEVE KURTZ FLD,16/34,46.54846194,-93.67663216,2023-12-27T22:30:00Z,8.0,VFR,UAIT 272230Z 06004MPS 9999 SCT033CB 01/M00 Q1026 NOSIG RMK QFE744/0993
AIV,KAIV,GEORGE DOWNER,06/24,33.10674444,-88.197175,,,,
AIZ,KAIZ,LEE C FINE MEML,04/22,38.09602777,-92.54947222,2023-12-27T22:46:00Z,0.0,VFR,KAIZ 272246Z AUTO 00000KT 7SM -RA FEW017 BKN033 BKN046 01/M01 A2987 RMK AO2 RAB02E26B46SNE02 P0000 FZRANO
AJC,PAJC,CHIGNIK,02/20,56.31146263,-158.3732382,,,,
AJG,KAJG,MOUNT CARMEL MUNI,04/22,38.60652777,-87.72669444,2023-12-27T22:35:00Z,5.0,VFR,KAJG 272235Z AUTO 08005KT 10SM SCT047 SCT060 OVC075 08/02 A2984 RMK AO2 T00770022
AJO,KAJO,CORONA MUNI,07/25,33.89765408,-117.6024398,2023-12-27T21:56:00Z,6.0,VFR,KAJO 272156Z AUTO 24006KT 6SM HZ CLR 19/12 A3011 RMK AO2 SLP193 T01890117
AJR,KAJR,HABERSHAM COUNTY,06/24,34.49985166,-83.55666472,2023-12-27T22:35:00Z,6.0,VFR,KAJR 272235Z AUTO 23006KT 7SM CLR 12/09 A2984 RMK AO2 T01200091
AJZ,KAJZ,BLAKE FLD,03/21,38.78560333,-108.0620136,2023-12-27T21:56:00Z,14.0,VFR,PAJZ 272156Z AUTO 13014KT 6SM -SN BR FEW032 SCT050 OVC060 M06/M08 A2976 RMK AO2 SNB54 SLP084 P0000 T10561078 FZRANO $
AK0,,JAKES BAR,10/28,61.21887222,-142.8912111,,,,
AK1,,BUTTE MUNI,07/25,61.53031527,-149.0176361,,,,
AK7,PAAN,GOLD KING CREEK,09/27,64.19805555,-147.9286111,,,,
AK76,,EAST ALSEK RIVER,02/20,59.12628472,-138.4088319,,,,
AKA,PAAK,ATKA,16/34,52.22058333,-174.2061944,,,,
AKH,KAKH,GASTONIA MUNI,03/21,35.20262305,-81.14987583,2023-12-27T21:54:00Z,3.0,VFR,KAKH 272154Z AUTO 20003KT 10SM CLR 14/12 A2980 RMK AO2 SLP088 T01440122
AKI,PFAK,AKIAK,03/21,60.90289722,-161.2305833,,,,
AKK,PAKH,AKHIOK,04/22,56.93869083,-154.1825556,2023-12-27T22:30:00Z,21.0,IFR,UAKK 272230Z 25011MPS 9999 -SHSN DRSN BKN009 BKN030CB M01/M03 Q1015 NOSIG RMK QFE714/0952
AKN,PAKN,KING SALMON,12/30,58.67649347,-156.648691,2023-12-27T22:00:00Z,2.0,VFR,FAKN 272200Z AUTO 26002KT //// // ////// 15/14 Q1022
AKO,KAKO,COLORADO PLAINS RGNL,11/29,40.17563888,-103.2220278,2023-12-27T21:53:00Z,15.0,VFR,KAKO 272153Z AUTO 33015KT 10SM BKN060 03/M07 A3010 RMK AO2 SLP210 T00281067
AKP,PAKP,ANAKTUVUK PASS,02/20,68.13361111,-151.7433333,2023-12-27T21:56:00Z,11.0,VFR,PAKP 272156Z AUTO 19011KT 10SM CLR M23/M26 A2969 RMK AO2 SLP154 T12331261 FZRANO
AKQ,KAKQ,WAKEFIELD MUNI,02/20,36.98722222,-77.00113888,2023-12-27T22:44:00Z,3.0,IFR,KAKQ 272244Z AUTO 11003KT 3SM -RA BR BKN006 OVC012 17/16 A2975 RMK AO2 RAB01 P0001 T01670156
AKR,KAKR,AKRON FULTON INTL,07/25,41.03742361,-81.46768472,2023-12-27T22:46:00Z,4.0,IFR,KAKR 272246Z AUTO 27004KT 10SM BKN005 OVC014 08/07 A2983 RMK AO2 T00830067
AKW,PAKW,KLAWOCK,02/20,55.57922222,-133.076,2023-12-27T21:53:00Z,,VFR,PAKW 272153Z AUTO A2923 RMK AO2 SLPNO PWINO FZRANO TSNO $
ALB,KALB,ALBANY INTL,10/28,42.74911611,-73.80198,2023-12-27T21:51:00Z,4.0,VFR,KALB 272151Z 16004KT 10SM FEW030 SCT045 OVC065 10/06 A3000 RMK AO2 SLP161 OCNL BINOVC T01000061
ALI,KALI,ALICE INTL,17/35,27.74088888,-98.02694444,2023-12-27T21:53:00Z,9.0,VFR,KALI 272153Z AUTO 31009G14KT 10SM CLR 23/03 A2999 RMK AO2 SLP153 T02330028
ALM,KALM,ALAMOGORDO-WHITE SANDS RGNL,04/22,32.83941666,-105.9911389,2023-12-27T22:35:00Z,5.0,VFR,KALM 272235Z AUTO 19005KT 10SM CLR 11/M12 A3016 RMK AO2
ALN,KALN,ST LOUIS RGNL,11/29,38.88991666,-90.046,2023-12-27T21:50:00Z,5.0,IFR,KALN 272150Z COR VRB05KT 3SM -SN OVC006 01/00 A2984
ALO,KALO,WATERLOO RGNL,18/36,42.55844916,-92.40102333,2023-12-27T21:54:00Z,8.0,VFR,KALO 272154Z 03008KT 10SM OVC046 03/01 A3000 RMK AO2 SLP166 T00280006
ALS,KALS,SAN LUIS VALLEY RGNL/BERGMAN FLD,02/20,37.435125,-105.8678753,2023-12-27T21:52:00Z,5.0,VFR,KALS 272152Z AUTO 20005KT 10SM CLR 01/M11 A3013 RMK AO2 SLP249 T00111106
ALW,KALW,WALLA WALLA RGNL,02/20,46.09254166,-118.2840825,2023-12-27T22:00:00Z,4.0,VFR,FALW 272200Z AUTO 23004KT //// // ////// 20/12 Q1008
ALX,KALX,THOMAS C RUSSELL FLD,18/36,32.91475,-85.96294444,2023-12-27T22:35:00Z,0.0,VFR,KALX 272235Z AUTO 00000KT 10SM CLR 10/05 A2990 RMK AO2 T01020050
AMA,KAMA,RICK HUSBAND AMARILLO INTL,13/31,35.21936111,-101.7059167,2023-12-27T21:53:00Z,17.0,VFR,KAMA 272153Z 33017G28KT 10SM FEW046 10/M02 A3005 RMK AO2 PK WND 34030/2121 SLP166 T01001022
AMG,KAMG,BACON COUNTY,16/34,31.53605777,-82.50655333,2023-12-27T21:53:00Z,3.0,VFR,KAMG 272153Z AUTO 24003KT 10SM CLR 17/08 A2989 RMK AO2 SLP120 T01670083
AMN,KAMN,GRATIOT COMMUNITY,09/27,43.32214194,-84.68793861,2023-12-27T22:35:00Z,5.0,IFR,KAMN 272235Z AUTO 31005KT 10SM -RA OVC009 04/03 A2992 RMK AO2 T00430030
AMT,KAMT,ALEXANDER SALAMON,05/23,38.8516725,-83.56600722,,,,
AMW,KAMW,AMES MUNI,01/19,41.99204361,-93.62182083,2023-12-27T22:11:00Z,12.0,MVFR,KAMW 272211Z AUTO 02012G20KT 7SM -RA OVC013 02/00 A2999 RMK AO2 P0000 T00220000
ANB,KANB,ANNISTON RGNL,05/23,33.58816666,-85.85811111,2023-12-27T21:53:00Z,4.0,VFR,KANB 272153Z AUTO 23004KT 10SM CLR 12/02 A2989 RMK AO2 SLP125 T01170017
ANC,PANC,TED STEVENS ANCHORAGE INTL,07L/25R,61.17408472,-149.9981375,2023-12-27T21:53:00Z,0.0,IFR,PANC 272153Z 00000KT 10SM OVC009 M09/M12 A2988 RMK AO2 VIS 2 N SLP122 T10941117
AND,KAND,ANDERSON RGNL,H2,34.49458333,-82.70938888,2023-12-27T21:56:00Z,6.0,VFR,KAND 272156Z AUTO 22006KT 10SM CLR 14/09 A2982 RMK AO2 SLP094 T01440094
ANE,KANE,ANOKA COUNTY/BLAINE (JANES FLD),09/27,45.14488888,-93.21019444,2023-12-27T22:48:00Z,0.0,VFR,KANE 272248Z 00000KT 10SM CLR 01/M03 A3007
ANG,,ANGAUR AIRSTRIP,05/23,6.9,134.15,,,,
ANI,PANI,ANIAK,11/29,61.58140527,-159.5452981,2023-12-27T21:56:00Z,17.0,VFR,PANI 272156Z AUTO 15017G23KT 7SM -SN SCT060 OVC075 M06/M09 A2965 RMK AO2 PK WND 14026/2140 SNB2058 SLP035 P0000 T10561094 FZRANO $
ANJ,KANJ,SAULT STE MARIE MUNI/SANDERSON FLD,14/32,46.47922222,-84.36838888,2023-12-27T22:39:00Z,5.0,MVFR,KANJ 272239Z AUTO 36005KT 10SM SCT012 OVC018 06/04 A2998 RMK AO2 T00560039
ANK,KANK,SALIDA/HARRIETT ALEXANDER FLD,H1,38.53827777,-106.0486389,2023-12-27T22:35:00Z,12.0,VFR,KANK 272235Z AUTO 35012G16KT 10SM CLR 06/M20 A3019 RMK AO1 T00601199
ANP,KANP,LEE,12/30,38.94287638,-76.56839,2023-12-27T22:30:00Z,0.0,LIFR,VANP 272230Z 00000KT 1500 BR SCT100 17/15 Q1017 NOSIG
ANQ,KANQ,TRI-STATE STEUBEN COUNTY,05/23,41.63969833,-85.08349333,2023-12-27T22:35:00Z,4.0,IFR,KANQ 272235Z AUTO VRB04KT 6SM BR OVC006 04/04 A2988 RMK AO2
ANV,PANV,ANVIK,17/35,62.64733333,-160.1900556,2023-12-27T22:28:00Z,12.0,MVFR,PANV 272228Z AUTO 06012KT 7SM -SN BKN010 BKN016 OVC034 M18/M20 A2957 RMK AO2 CIG 009V013 P0000 FZRANO TSNO
ANW,KANW,AINSWORTH RGNL,17/35,42.57922222,-99.99297222,2023-12-27T22:35:00Z,7.0,IFR,KANW 272235Z AUTO 35007KT 7SM OVC008 M01/M02 A3010 RMK AO2 T10061019 TSNO
ANY,KANY,ANTHONY MUNI,18/36,37.15989861,-98.07952638,,,,
AOC,KAOC,ARCO-BUTTE COUNTY,06/24,43.60352777,-113.33425,2023-12-27T22:00:00Z,19.0,VFR,SAOC 272200Z 01019G29KT CAVOK 32/12 Q1003
AOH,KAOH,LIMA ALLEN COUNTY,10/28,40.70747797,-84.02707805,2023-12-27T21:56:00Z,0.0,VFR,PAOH 272156Z AUTO 00000KT 10SM CLR M01/M02 A2956 RMK AO2 SLP011 P0001 T10111017 FZRANO
AOO,KAOO,ALTOONA/BLAIR COUNTY,03/21,40.29636111,-78.32002777,2023-12-27T22:30:00Z,2.0,IFR,DAOO 272230Z VRB02KT 4000 BR FEW013 SCT026 08/08 Q1025
AOV,KAOV,AVA BILL MARTIN MEML,13/31,36.97188722,-92.68194583,2023-12-27T22:00:00Z,4.0,MVFR,DAOV 272200Z 13004KT 8000 SCT026 07/07 Q1025
APA,KAPA,CENTENNIAL,17L/35R,39.57011861,-104.8492931,2023-12-27T22:00:00Z,3.0,VFR,TAPA 272200Z 35003KT 320V030 9999 FEW022 25/20 Q1013 NOSIG
APC,KAPC,NAPA COUNTY,01R/19L,38.21318916,-122.2806872,2023-12-27T21:54:00Z,5.0,LIFR,KAPC 272154Z COR 08005KT 1SM -RA BR OVC003 12/11 A3002 RMK AO2 SLP157 P0007 T01220111
APF,KAPF,NAPLES MUNI,NE/SW,26.1524408,-81.77563919,2023-12-27T21:53:00Z,7.0,VFR,KAPF 272153Z 30007KT 10SM OVC100 19/18 A2994 RMK AO2 SLP136 T01940178
APN,KAPN,ALPENA COUNTY RGNL,01/19,45.07808333,-83.56030555,2023-12-27T21:56:00Z,5.0,VFR,PAPN 272156Z AUTO 12005KT 8SM CLR M03/M04 A2971 RMK AO2 SLP062 T10331039 FZRANO
APS,KAPS,PORT OF SOUTH LOUISIANA EXEC RGNL,17/35,30.08747222,-90.58283333,2023-12-27T22:15:00Z,5.0,VFR,KAPS 272215Z AUTO 27005KT 10SM CLR 15/08 A2996 RMK AO2
APT,KAPT,MARION COUNTY/BROWN FLD,04/22,35.06066666,-85.58530555,2023-12-27T21:50:00Z,3.0,VFR,PAPT 272150Z 35003KT 25SM SCT100 M26/M26 A2976 RMK NO SPECI.
APV,KAPV,APPLE VALLEY,08/26,34.57533138,-117.1861881,,,,
APY,KAPY,ZAPATA COUNTY,12/30,26.96878611,-99.24890833,2023-12-27T22:35:00Z,5.0,VFR,KAPY 272235Z AUTO 33005KT 10SM CLR 23/05 A3001 RMK AO2 T02250047 TSNO
AQH,PAQH,QUINHAGAK,12/30,59.75509305,-161.8453656,,,,
AQO,KAQO,LLANO MUNI,13/31,30.78422222,-98.65988888,2023-12-27T22:35:00Z,7.0,VFR,KAQO 272235Z AUTO 30007G13KT 10SM CLR 14/M00 A3006 RMK AO2
AQP,KAQP,APPLETON MUNI,04/22,45.22750175,-96.00452941,2023-12-27T22:33:00Z,0.0,IFR,KAQP 272233Z AUTO 00000KT 10SM OVC007 02/01 A3006 RMK AO2
AQR,KAQR,ATOKA MUNI,18/36,34.39833888,-96.14805972,,,,
AQT,PAQT,NUIQSUT,05/23,70.20983333,-151.0064722,2023-12-27T21:53:00Z,0.0,LIFR,PAQT 272153Z AUTO 00000KT 1/2SM FZFG VV003 M24/M25 A2987 RMK AO2 SLP118 I1000 T12391250 TSNO PNO
AQW,KAQW,HARRIMAN-AND-WEST,11/29,42.6962538,-73.17055305,2023-12-27T21:52:00Z,3.0,VFR,KAQW 272152Z AUTO VRB03KT 10SM OVC060 09/07 A3000 RMK AO2 SLP162 T00940072
AQX,KAQX,ALLENDALE COUNTY,17/35,32.99511166,-81.27023666,2023-12-27T22:35:00Z,0.0,VFR,KAQX 272235Z AUTO 00000KT 10SM CLR 15/12 A2984 RMK AO2 TSNO
AQY,,GIRDWOOD,02/20,60.96902222,-149.1193458,,,,
ARA,KARA,ACADIANA RGNL,17/35,30.03775833,-91.88389611,2023-12-27T21:53:00Z,5.0,VFR,KARA 272153Z 28005KT 10SM CLR 16/08 A2996 RMK AO2 SLP143 T01610083
ARB,KARB,ANN ARBOR MUNI,06/24,42.22292755,-83.74570883,2023-12-27T22:00:00Z,8.0,IFR,KARB 272200Z 33008KT 7SM OVC005 06/05 A2986 RMK AO2 T00610050
ARC,PARC,ARCTIC VILLAGE,02/20,68.11466944,-145.5794153,2023-12-27T22:00:00Z,5.0,VFR,SARC 272200Z 09005KT CAVOK 28/15 Q1009
ARG,KARG,WALNUT RIDGE RGNL,04/22,36.12466666,-90.92511111,2023-12-27T21:56:00Z,15.0,VFR,KARG 272156Z AUTO 29015KT 10SM OVC060 06/M04 A2990 RMK AO2 SLP128 T00611044
ARM,KARM,WHARTON RGNL,14/32,29.25427777,-96.15438888,2023-12-27T22:35:00Z,7.0,VFR,KARM 272235Z AUTO 35007KT 10SM CLR 17/00 A3002 RMK AO2 T01711003 TSNO
ARR,KARR,AURORA MUNI,15/33,41.77191666,-88.47566666,2023-12-27T22:30:00Z,2.0,IFR,WARR 272230Z 22002KT 4000 HZ FEW020 27/25 Q1011 NOSIG
ART,KART,WATERTOWN INTL,07/25,43.99183333,-76.01941666,2023-12-27T21:56:00Z,6.0,MVFR,KART 272156Z AUTO 06006KT 3SM -RA BR SCT016 OVC021 10/09 A2990 RMK AO2 SLP127 P0006 T01000089
ARV,KARV,LAKELAND/NOBLE F LEE MEML FLD,10/28,45.92791666,-89.73094444,2023-12-27T22:35:00Z,0.0,VFR,KARV 272235Z AUTO 00000KT 10SM CLR M01/M03 A3005 RMK AO2 T10101031
ARW,KARW,BEAUFORT EXEC,07/25,32.41216666,-80.63435416,2023-12-27T22:35:00Z,3.0,VFR,KARW 272235Z AUTO 25003KT 10SM CLR 15/11 A2985 RMK AO2
ASD,KASD,SLIDELL,18/36,30.34633333,-89.82080555,2023-12-27T22:22:00Z,9.0,VFR,PASD 272222Z 16009KT 10SM FEW023 FEW035 SCT090 M01/M03 A2971 RMK AO2 $
ASE,KASE,ASPEN-PITKIN COUNTY/SARDY FLD,15/33,39.22187833,-106.8682333,2023-12-27T21:53:00Z,6.0,VFR,KASE 272153Z 01006KT 10SM CLR M01/M12 A3019 RMK AO2 SLP243 T10061117
ASG,KASG,SPRINGDALE MUNI,18/36,36.17638888,-94.11925,2023-12-27T22:48:00Z,9.0,MVFR,KASG 272248Z 30009G15KT 10SM OVC028 02/M01 A2997
ASH,KASH,BOIRE FLD,14/32,42.78241388,-71.51409444,2023-12-27T22:08:00Z,4.0,MVFR,KASH 272208Z 29004KT 3SM BR BKN065 OVC110 08/ A3005 RMK AO2
ASJ,KASJ,TRI-COUNTY AT HENRY JOYNER FIELD,01/19,36.29752777,-77.17086111,2023-12-27T22:00:00Z,7.0,VFR,SASJ 272200Z 30007KT 280V340 9999 SCT060 26/21 Q1010 RMK PP000
ASL,KASL,HARRISON COUNTY,15/33,32.5205,-94.30777777,2023-12-27T22:35:00Z,9.0,VFR,KASL 272235Z AUTO 31009G15KT 9SM CLR 10/M01 A3000 RMK AO2 T01021011 $
ASN,KASN,TALLADEGA MUNI,04/22,33.56950416,-86.05120138,,,,
AST,KAST,ASTORIA RGNL,14/32,46.15797222,-123.8786111,2023-12-27T21:55:00Z,8.0,VFR,KAST 272155Z AUTO 12008KT 10SM -RA SCT042 BKN050 OVC065 12/07 A2972 RMK AO2 SLP063 P0000 T01170072 $
ASW,KASW,WARSAW MUNI,09/27,41.27469444,-85.84008333,2023-12-27T22:35:00Z,4.0,VFR,KASW 272235Z AUTO 33004KT 10SM CLR 06/01 A2989 RMK AO2 T00600016
ASX,KASX,JOHN F KENNEDY MEML,02/20,46.54852777,-90.91897222,2023-12-27T21:53:00Z,3.0,VFR,KASX 272153Z AUTO 23003KT 10SM OVC035 02/M01 A3009 RMK AO2 SLP200 T00221011
ASY,KASY,ASHLEY MUNI,14/32,46.02315555,-99.35257472,2023-12-27T22:37:00Z,27.0,IFR,PASY 272237Z 08027G35KT 1SM -SN FEW006 OVC014 M01/M02 A2909 RMK AO2A PK WND 08035/2209 PRESFR SLP855 WND DATA ESTMD PNO FZRANO $
ATA,KATA,HALL-MILLER MUNI,15/33,33.10252777,-94.19502777,2023-12-27T21:52:00Z,3.0,VFR,PATA 272152Z 09003KT 10SM FEW140 M32/M35 A2993 RMK AO2 SLP148 T13171350 PNO $
ATK,PATQ,ATQASUK EDWARD BURNELL SR MEML,07/25,70.46711111,-157.4356667,2023-12-27T21:53:00Z,0.0,VFR,PATK 272153Z 00000KT 10SM BKN070 M17/M18 A2988 RMK AO2 SLP127 T11671183
ATL,KATL,HARTSFIELD - JACKSON ATLANTA INTL,10/28,33.63669961,-84.427864,2023-12-27T21:55:00Z,3.0,VFR,PATL 272155Z AUTO VRB03KT 10SM BKN085 M21/M23 A2977 RMK AO2 SLP128 T12131233 $
ATM,PATM,TAYLOR MOUNTAIN,14/32,60.86777777,-157.3919444,2023-12-27T22:00:00Z,8.0,VFR,DATM 272200Z 10008KT CAVOK 18/M11 Q1019
ATS,KATS,ARTESIA MUNI,13/31,32.85194444,-104.4675833,2023-12-27T22:35:00Z,10.0,VFR,KATS 272235Z AUTO 15010KT 10SM CLR 13/M04 A3011 RMK AO2
ATW,KATW,APPLETON INTL,12/30,44.25809305,-88.51907222,2023-12-27T22:45:00Z,4.0,VFR,KATW 272245Z 01004KT 10SM BKN060 03/M02 A3002
ATY,KATY,WATERTOWN RGNL,17/35,44.91397222,-97.15472222,2023-12-27T22:33:00Z,6.0,IFR,KATY 272233Z AUTO 33006KT 1 1/4SM -SN BR BKN006 OVC012 00/M01 A3004 RMK AO2 SNB00 P0000 T00001006
AUG,KAUG,AUGUSTA STATE,08/26,44.32068694,-69.79730861,2023-12-27T22:00:00Z,14.0,VFR,DAUG 272200Z 04014KT 9999 FEW040 SCT100 12/02 Q1025
AUH,KAUH,AURORA MUNI - AL POTTER FLD,16/34,40.89413888,-97.99455555,2023-12-27T22:35:00Z,8.0,VFR,KAUH 272235Z AUTO 36008KT 10SM OVC034 M02/M06 A3008 RMK AO2 T10201058
AUK,PAUK,ALAKANUK,16/34,62.68305555,-164.7221944,2023-12-27T22:00:00Z,4.0,VFR,DAUK 272200Z 01004KT 9999 SCT040 SCT100 10/04 Q1027
AUM,KAUM,AUSTIN MUNI,17/35,43.66263888,-92.93291666,2023-12-27T22:35:00Z,4.0,VFR,KAUM 272235Z AUTO 01004KT 10SM OVC065 02/M01 A3004 RMK AO2
AUN,KAUN,AUBURN MUNI,07/25,38.95483333,-121.0817222,2023-12-27T22:35:00Z,7.0,IFR,KAUN 272235Z AUTO 17007KT 2 1/2SM HZ FEW032 BKN040 BKN055 11/08 A3008 RMK A01
AUO,KAUO,AUBURN UNIVERSITY RGNL,11/29,32.61511111,-85.434,2023-12-27T21:56:00Z,4.0,VFR,KAUO 272156Z AUTO 25004KT 10SM CLR 12/01 A2992 RMK AO2 SLP158 T01220006
AUS,KAUS,AUSTIN-BERGSTROM INTL,18L/36R,30.19452722,-97.66987611,2023-12-27T21:53:00Z,9.0,VFR,KAUS 272153Z 31009G17KT 10SM FEW100 18/M03 A3001 RMK AO2 SLP162 T01781033
AUW,KAUW,WAUSAU DOWNTOWN,13/31,44.92628452,-89.62700175,2023-12-27T21:54:00Z,5.0,VFR,KAUW 272154Z AUTO 36005KT 10SM CLR 03/M06 A3002 RMK AO2 SLP182 T00331061 $
AVC,KAVC,MECKLENBURG-BRUNSWICK RGNL,01/19,36.68827777,-78.05447222,2023-12-27T22:00:00Z,11.0,VFR,SAVC 272200Z 03011KT 9999 SCT045 20/10 Q1000 RMK PP000
AVK,KAVK,ALVA RGNL,09/27,36.77357672,-98.6711663,2023-12-27T22:35:00Z,12.0,VFR,KAVK 272235Z AUTO 36012KT 10SM OVC033 04/M01 A3008 RMK AO2
AVL,KAVL,ASHEVILLE RGNL,17/35,35.43611305,-82.5420475,2023-12-27T22:07:00Z,10.0,VFR,KAVL 272207Z 33010KT 10SM SCT026 13/09 A2981 RMK AO2 T01330089
AVO,KAVO,AVON PARK EXEC,05/23,27.59129988,-81.52896683,,,,
AVP,KAVP,WILKES-BARRE/SCRANTON INTL,04/22,41.33847222,-75.72338888,2023-12-27T22:27:00Z,4.0,MVFR,KAVP 272227Z 08004KT 10SM -RA OVC013 10/08 A2991 RMK AO2 RAB01 P0001 T01000078
AVQ,KAVQ,MARANA RGNL,12/30,32.40955555,-111.2183889,2023-12-27T22:35:00Z,4.0,VFR,KAVQ 272235Z AUTO 31004KT 10SM 16/M03 A3013 RMK AO2 T01601034
AVX,KAVX,CATALINA,04/22,33.40499722,-118.4157694,2023-12-27T22:12:00Z,5.0,VFR,KAVX 272212Z AUTO 29005KT 10SM SCT004 14/12 A3014 RMK AO2 T01390117
AWG,KAWG,WASHINGTON MUNI,18/36,41.27569444,-91.67608333,2023-12-27T21:56:00Z,8.0,MVFR,PAWG 272156Z 09008KT 10SM -RASN FEW010 BKN025 OVC040 03/M02 A2941
AWI,PAWI,WAINWRIGHT,06/24,70.638,-159.99475,,,,
AWM,KAWM,WEST MEMPHIS MUNI,17/35,35.13505555,-90.23444444,2023-12-27T22:27:00Z,9.0,MVFR,PAWM 272227Z AUTO 13009KT 7SM -SN FEW020 BKN027 OVC033 M13/M14 A2955 RMK AO2 P0000 FZRANO
AWO,KAWO,ARLINGTON MUNI,11/29,48.16075,-122.1590278,2023-12-27T21:56:00Z,8.0,VFR,KAWO 272156Z AUTO 17008KT 10SM BKN065 13/04 A2976 RMK AO2 SLP083 T01330044
AXA,KAXA,ALGONA MUNI,18/36,43.07791666,-94.27194444,2023-12-27T22:35:00Z,10.0,VFR,KAXA 272235Z AUTO 01010KT 10SM SCT020 00/M00 A3003 RMK A01
AXH,KAXH,HOUSTON/SOUTHWEST,09/27,29.50613888,-95.47691666,2023-12-27T22:35:00Z,6.0,VFR,KAXH 272235Z AUTO 32006KT 10SM CLR 18/00 A3001 RMK AO2 T01760002
AXN,KAXN,CHANDLER FLD,04/22,45.86630555,-95.39466666,2023-12-27T22:45:00Z,3.0,LIFR,KAXN 272245Z AUTO 01003KT 1 1/2SM BR OVC003 01/M01 A3006 RMK AO2 T00061006
AXQ,KAXQ,CLARION COUNTY,06/24,41.22494444,-79.44216666,,,,
AXS,KAXS,ALTUS/QUARTZ MOUNTAIN RGNL,17/35,34.69880555,-99.33847222,2023-12-27T22:35:00Z,10.0,VFR,KAXS 272235Z AUTO 35010KT 10SM OVC047 08/M00 A3009 RMK AO2
AXV,KAXV,NEIL ARMSTRONG,08/26,40.49354805,-84.29807444,2023-12-27T22:35:00Z,0.0,VFR,KAXV 272235Z AUTO 00000KT 10SM CLR 06/02 A2986 RMK AO2
AXX,KAXX,ANGEL FIRE,17/35,36.42200027,-105.289905,2023-12-27T22:35:00Z,12.0,VFR,KAXX 272235Z AUTO 24012G16KT 10SM OVC080 02/M10 A3011 RMK AO2 T00181100
AYS,KAYS,WAYCROSS-WARE COUNTY,05/23,31.24838888,-82.39538888,2023-12-27T22:35:00Z,5.0,VFR,KAYS 272235Z AUTO 27005KT 10SM CLR 16/08 A2992 RMK AO2 T01600082
AZC,KAZC,COLORADO CITY MUNI,02/20,36.95994444,-113.0138889,,,,
AZE,KAZE,HAZLEHURST,15/33,31.88519,-82.64789111,2023-12-27T22:35:00Z,0.0,VFR,KAZE 272235Z AUTO 00000KT 10SM CLR 16/07 A2989 RMK AO2 T01550070
AZO,KAZO,KALAMAZOO/BATTLE CREEK INTL,05/23,42.23438888,-85.55155555,2023-12-27T21:53:00Z,7.0,IFR,KAZO 272153Z 33007KT 10SM OVC009 05/03 A2991 RMK AO2 SLP137 T00500028
B04,,GARNSEYS,02/20,43.06764305,-73.58384027,,,,
B06,,BASIN HARBOR,02/20,44.19166666,-73.35869444,,,,
B10,,BOWMAN FLD,02/20,44.41,-70.14608333,,,,
B16,,WHITFORDS,10/28,43.08061736,-76.53821105,,,,
B19,,BIDDEFORD MUNI,06/24,43.46411111,-70.47238888,,,,
B21,,SUGARLOAF RGNL,17/35,45.08531972,-70.2163225,,,,
B70,,TIBER DAM,12/30,48.31387083,-111.1091411,,,,
BAC,KBAC,BARNES COUNTY MUNI,13/31,46.94120416,-98.01801361,2023-12-27T22:35:00Z,9.0,VFR,KBAC 272235Z AUTO 34009KT 10SM FEW013 BKN050 M00/M00 A3010 RMK AO2
BAF,KBAF,WESTFIELD-BARNES RGNL,02/20,42.15794444,-72.71586111,2023-12-27T22:00:00Z,6.0,VFR,SBAF 272200Z 20006KT 9999 FEW030 SCT060 25/16 Q1016
BAK,KBAK,COLUMBUS MUNI,05/23,39.261915,-85.89633888,2023-12-27T21:45:00Z,5.0,VFR,KBAK 272145Z 01005KT 10SM BKN100 08/02 A2987
BAM,KBAM,BATTLE MOUNTAIN,H2,40.59905555,-116.8743333,2023-12-27T22:35:00Z,14.0,VFR,KBAM 272235Z AUTO 07014G18KT 10SM CLR 08/01 A3011 RMK AO1
BAX,KBAX,HURON COUNTY MEML,04/22,43.78022777,-82.98541694,2023-12-27T22:00:00Z,4.0,VFR,SBAX 272200Z 23004KT CAVOK 27/19 Q1016
BAZ,KBAZ,NEW BRAUNFELS NTL,13/31,29.70575,-98.04322222,2023-12-27T21:51:00Z,9.0,VFR,KBAZ 272151Z 02009KT 10SM CLR 19/02 A3000 RMK AO2 SLP155 T01940022
BB0,,BLACK BUTTE NORTH,09/27,47.84555555,-109.1869444,,,,
BBB,KBBB,BENSON MUNI,14/32,45.33191666,-95.65058333,2023-12-27T22:30:00Z,10.0,VFR,UBBB 272230Z 21010KT CAVOK 14/05 Q1009 NOSIG
BBD,KBBD,CURTIS FLD,17/35,31.17927777,-99.32391666,2023-12-27T22:35:00Z,12.0,VFR,KBBD 272235Z AUTO 31012KT 10SM CLR 11/M01 A3006 RMK AO2
BBG,KBBG,BRANSON,14/32,36.5320825,-93.20054444,2023-12-27T22:45:00Z,10.0,MVFR,KBBG 272245Z 29010G20KT 10SM OVC021 01/M02 A2993
BBP,KBBP,MARLBORO COUNTY JETPORT - H E AVENT FLD,07/25,34.62170861,-79.73435944,2023-12-27T22:35:00Z,4.0,MVFR,KBBP 272235Z AUTO 27004KT 10SM OVC026 16/15 A2978 RMK AO2
BBW,KBBW,BROKEN BOW MUNI/KEITH GLAZE FLD,14/32,41.43644444,-99.64216666,2023-12-27T21:53:00Z,9.0,IFR,KBBW 272153Z AUTO 36009KT 10SM OVC007 M01/M02 A3006 RMK AO2 SLP206 T10061017
BCB,KBCB,VIRGINIA TECH/MONTGOMERY EXEC,13/31,37.20938666,-80.41209,2023-12-27T22:35:00Z,0.0,VFR,KBCB 272235Z AUTO 00000KT 10SM SCT028 BKN034 OVC044 12/12 A2982 RMK AO2 T01200120
BCE,KBCE,BRYCE CANYON,03/21,37.70644694,-112.1457997,2023-12-27T21:53:00Z,3.0,VFR,KBCE 272153Z AUTO VRB03KT 10SM CLR 05/M06 A3023 RMK AO2 SLP215 T00501061
BCK,KBCK,BLACK RIVER FALLS AREA,08/26,44.25073861,-90.85528027,2023-12-27T22:35:00Z,0.0,VFR,KBCK 272235Z AUTO 00000KT 10SM CLR 00/M03 A3005 RMK AO2 T10031028
BCR,KBCR,TRI-COUNTY,01/19,30.84388555,-85.60174944,2023-12-27T21:58:00Z,0.0,VFR,KBCR 272158Z AUTO 00000KT 10SM CLR 15/07 A2994 RMK AO2 SLP125 T01500072
BCT,KBCT,BOCA RATON,05/23,26.37848555,-80.10769638,2023-12-27T22:00:00Z,8.0,MVFR,SBCT 272200Z 08008KT 060V120 9999 BKN010 18/16 Q1019
BCV,PABV,BIRCHWOOD,02L/20R,61.4160875,-149.5083098,2023-12-27T22:25:00Z,17.0,VFR,EBCV 272225Z AUTO 22017KT 9999 SCT021/// BKN031/// BKN095/// 09/06 Q1010 WHT
BDE,KBDE,BAUDETTE INTL,13W/31W,48.73025,-94.61105555,2023-12-27T22:45:00Z,4.0,MVFR,KBDE 272245Z AUTO 34004KT 10SM FEW005 OVC013 02/M01 A3011 RMK AO2 T00221006
BDG,KBDG,BLANDING MUNI,17/35,37.58333333,-109.4832778,,,,
BDH,KBDH,WILLMAR MUNI/JOHN L RICE FLD,13/31,45.11702777,-95.12933333,2023-12-27T22:35:00Z,5.0,MVFR,KBDH 272235Z AUTO 21005KT 10SM SCT007 BKN010 OVC024 00/00 A3007 RMK AO2
BDJ,KBDJ,BOULDER JUNCTION PAYZER,16/34,46.13686569,-89.64761083,,,,
BDL,KBDL,BRADLEY INTL,06/24,41.93903222,-72.68431583,2023-12-27T22:21:00Z,0.0,LIFR,KBDL 272221Z 00000KT 2SM -RA BR BKN003 OVC110 07/06 A3002 RMK AO2 SFC VIS 2 1/2 VIS 2V3 P0000 T00670061 $
BDN,KBDN,BEND MUNI,16/34,44.09456083,-121.2002211,2023-12-27T22:35:00Z,10.0,VFR,KBDN 272235Z AUTO 16010KT 10SM FEW047 09/01 A2990 RMK AO2
BDQ,KBDQ,MORRILTON MUNI,09/27,35.13623361,-92.71370833,,,,
BDR,KBDR,BRIDGEPORT/SIKORSKY,06/24,41.16348083,-73.12617583,2023-12-27T21:52:00Z,6.0,IFR,KBDR 272152Z 07006KT 6SM -RA BR OVC005 07/07 A3000 RMK AO2 RAB05E16B46 CIG 003V006 SLP159 P0000 T00720072
BDU,KBDU,BOULDER MUNI,08G/26G,40.03936527,-105.2260896,2023-12-27T22:35:00Z,8.0,VFR,KBDU 272235Z AUTO 07008KT 10SM CLR 08/M12 A3013 RMK AO2
BEA,KBEA,BEEVILLE MUNI,18/36,28.36422222,-97.79194444,2023-12-27T22:35:00Z,7.0,VFR,KBEA 272235Z AUTO 35007KT 10SM CLR 21/M04 A2999 RMK AO2 T02121039 PWINO
BEC,KBEC,BEECH FACTORY,01/19,37.69391666,-97.21491666,2023-12-27T22:35:00Z,10.0,MVFR,KBEC 272235Z AUTO 32010G17KT 10SM BKN028 01/M06 A3006 RMK AO2 T00051058 FZRANO
BED,KBED,LAURENCE G HANSCOM FLD,05/23,42.46994444,-71.289,2023-12-27T21:51:00Z,5.0,VFR,KBED 272151Z 04005KT 10SM BKN070 OVC100 09/06 A3002 RMK AO2 SLP179 T00940061
BEH,KBEH,SOUTHWEST MICHIGAN RGNL,14/32,42.12838083,-86.42488111,2023-12-27T21:53:00Z,4.0,VFR,KBEH 272153Z AUTO VRB04KT 10SM CLR 06/02 A2992 RMK AO2 SLP138 T00610022
BET,PABE,BETHEL,01L/19R,60.77855555,-161.8371667,,,,
BFA,KBFA,BOYNE MOUNTAIN,17/35,45.16584152,-84.92411388,2023-12-27T22:35:00Z,3.0,LIFR,KBFA 272235Z AUTO 32003KT 6SM BR OVC004 03/03 A2998 RMK AO2
BFD,KBFD,BRADFORD RGNL,14/32,41.80295433,-78.63996597,2023-12-27T22:32:00Z,6.0,IFR,KBFD 272232Z AUTO 15006KT 10SM BKN005 BKN044 OVC110 09/07 A2980 RMK AO2 RAE28 P0003 T00890072
BFE,KBFE,TERRY COUNTY,13/31,33.17313888,-102.1929167,,,,
BFF,KBFF,WESTERN NEBRASKA RGNL/WILLIAM B HEILIG FLD,12/30,41.87402777,-103.5956389,2023-12-27T21:53:00Z,19.0,VFR,KBFF 272153Z AUTO 34019G26KT 10SM CLR 07/M06 A3014 RMK AO2 PK WND 32030/2106 SLP213 T00671056
BFI,KBFI,BOEING FLD/KING COUNTY INTL,14R/32L,47.52997222,-122.3019444,2023-12-27T21:53:00Z,10.0,VFR,KBFI 272153Z 13010KT 10SM OVC070 12/04 A2977 RMK AO2 SLP080 T01220039
BFK,KBFK,BUFFALO MUNI,17/35,36.86330138,-99.61873055,,,,
BFL,KBFL,MEADOWS FLD,12L/30R,35.43386111,-119.0576667,2023-12-27T22:36:00Z,10.0,MVFR,KBFL 272236Z 31010KT 3SM HZ CLR 18/08 A3008 RMK AO2 SFC VIS 3 T01780083
BFM,KBFM,MOBILE INTL,18/36,30.62678055,-88.06809083,2023-12-27T21:53:00Z,0.0,VFR,KBFM 272153Z 00000KT 10SM BKN041 15/07 A2997 RMK AO2 SLP147 T01500067
BFR,KBFR,VIRGIL I GRISSOM MUNI,13/31,38.84002777,-86.44536111,,,,
BGD,KBGD,HUTCHINSON COUNTY,17/35,35.70088888,-101.3936667,2023-12-27T21:51:00Z,17.0,VFR,KBGD 272151Z AUTO 34017G29KT 10SM BKN044 OVC055 10/M01 A3007 RMK AO2 PK WND 35029/2144 SLP179 T01001006
BGE,KBGE,DECATUR COUNTY INDUSTRIAL AIR PARK,14/32,30.97159808,-84.6369278,2023-12-27T22:35:00Z,4.0,VFR,KBGE 272235Z AUTO 27004KT 10SM CLR 15/07 A2994 RMK AO2 T01470067
BGF,KBGF,WINCHESTER MUNI,18/36,35.17753361,-86.06616638,2023-12-27T22:35:00Z,4.0,VFR,KBGF 272235Z AUTO 25004KT 10SM CLR 11/00 A2985 RMK A01
BGM,KBGM,GREATER BINGHAMTON/EDWIN A LINK FLD,10/28,42.20844444,-75.97961111,2023-12-27T21:53:00Z,8.0,IFR,KBGM 272153Z AUTO 14008KT 3SM OVC005 09/08 A2988 RMK AO2 SFC VIS 10 RAE32 SLP125 P0000 T00890078
BGQ,PAGQ,BIG LAKE,07/25,61.53468305,-149.8125483,,,,
BGR,KBGR,BANGOR INTL,15/33,44.80744444,-68.82813888,2023-12-27T22:00:00Z,7.0,VFR,SBGR 272200Z 13007KT 9999 BKN040 21/14 Q1019
BHB,KBHB,HANCOCK COUNTY/BAR HARBOR,04/22,44.44970527,-68.36148972,2023-12-27T22:25:00Z,0.0,LIFR,KBHB 272225Z AUTO 00000KT 1/2SM -RA FG OVC002 05/05 A3010 RMK AO2 P0001 RVRNO
BHC,KBHC,BAXLEY MUNI,08/26,31.71383333,-82.39377777,2023-12-27T22:35:00Z,3.0,VFR,KBHC 272235Z AUTO 25003KT 10SM CLR 13/07 A2990 RMK AO2
BHK,KBHK,BAKER MUNI,13/31,46.34661111,-104.2581111,2023-12-27T21:51:00Z,8.0,VFR,KBHK 272151Z AUTO 29008KT 10SM CLR 04/M06 A3017 RMK AO2 SLP247 T00441061
BHM,KBHM,BIRMINGHAM-SHUTTLESWORTH INTL,06/24,33.56388888,-86.75230555,2023-12-27T21:53:00Z,8.0,VFR,KBHM 272153Z 21008KT 10SM BKN050 BKN200 13/01 A2990 RMK AO2 SLP124 T01280006
BID,KBID,BLOCK ISLAND STATE,10/28,41.16811111,-71.57783333,2023-12-27T22:43:00Z,6.0,LIFR,KBID 272243Z AUTO 07006KT 3/4SM BR OVC001 08/08 A3002 RMK AO2 RAE25 P0000
BIE,KBIE,BEATRICE MUNI,18/36,40.30127777,-96.75411111,2023-12-27T22:35:00Z,9.0,MVFR,KBIE 272235Z AUTO 35009KT 10SM OVC029 M01/M04 A3005 RMK AO2 T10071036
BIH,KBIH,BISHOP,17/35,37.37311111,-118.3636111,2023-12-27T21:56:00Z,9.0,VFR,KBIH 272156Z AUTO 15009KT 10SM CLR 11/01 A3012 RMK AO2 SLP191 T01110006
BIJ,KBIJ,EARLY COUNTY,05/23,31.39750861,-84.89479777,2023-12-27T22:35:00Z,0.0,VFR,KBIJ 272235Z AUTO 00000KT 10SM CLR 14/06 A2993 RMK AO2 PNO
BIL,KBIL,BILLINGS LOGAN INTL,10L/28R,45.80784913,-108.5435436,2023-12-27T22:00:00Z,5.0,VFR,SBIL 272200Z 07005KT 9999 FEW025 28/25 Q1013
BIS,KBIS,BISMARCK MUNI,03/21,46.77273388,-100.7457375,2023-12-27T21:52:00Z,3.0,VFR,KBIS 272152Z AUTO 26003KT 10SM CLR 03/M01 A3015 RMK AO2 SLP227 T00281006
BIV,KBIV,WEST MICHIGAN RGNL,08/26,42.74277777,-86.10783333,2023-12-27T21:53:00Z,5.0,MVFR,KBIV 272153Z AUTO VRB05KT 10SM OVC022 07/02 A2993 RMK AO2 SLP140 T00670017
BJC,KBJC,ROCKY MOUNTAIN METRO,03/21,39.90880555,-105.1171944,2023-12-27T21:45:00Z,17.0,VFR,KBJC 272145Z 03017G22KT 10SM FEW080 08/M13 A3014
BJI,KBJI,BEMIDJI RGNL,13/31,47.51072222,-94.93472222,2023-12-27T22:35:00Z,5.0,LIFR,KBJI 272235Z AUTO 35005KT 1/2SM FG OVC004 00/00 A3009 RMK AO2 T00000000
BJJ,KBJJ,WAYNE COUNTY,10/28,40.87483333,-81.88825,2023-12-27T21:56:00Z,7.0,LIFR,KBJJ 272156Z AUTO 34007KT 3SM BR OVC002 08/07 A2984 RMK AO2 SLP106 T00830067
BKD,KBKD,STEPHENS COUNTY,13/31,32.71875611,-98.89159638,2023-12-27T22:35:00Z,,VFR,KBKD 272235Z AUTO 10SM OVC042 10/01 A3010 RMK AO2 T01010011
BKE,KBKE,BAKER CITY MUNI,13/31,44.83733333,-117.8091389,2023-12-27T22:43:00Z,13.0,MVFR,KBKE 272243Z AUTO 10013KT 10SM BKN028 BKN120 03/M03 A3015 RMK AO2 T00281028
BKL,KBKL,BURKE LAKEFRONT,06R/24L,41.51786111,-81.68263888,2023-12-27T22:00:00Z,0.0,VFR,WBKL 272200Z 00000KT 9999 FEW014 26/25 Q1012
BKN,KBKN,BLACKWELL-TONKAWA MUNI,17/35,36.74511111,-97.34958333,2023-12-27T22:35:00Z,11.0,VFR,KBKN 272235Z AUTO 31011KT BKN039 02/M04 A3008 RMK AO2
BKS,KBKS,BROOKS COUNTY,14/32,27.20605555,-98.12102777,2023-12-27T22:00:00Z,0.0,MVFR,WBKS 272200Z 00000KT 8000 SCT015 26/25 Q1012
BKT,KBKT,ALLEN C PERKINSON BLACKSTONE AAF,04/22,37.07476733,-77.95659844,2023-12-27T22:35:00Z,0.0,LIFR,KBKT 272235Z AUTO 00000KT 5SM BR OVC003 16/16 A2974 RMK AO1 T01580158
BKV,KBKV,BROOKSVILLE-TAMPA BAY RGNL,03/21,28.47361111,-82.45541666,2023-12-27T21:53:00Z,6.0,VFR,KBKV 272153Z 31006KT 10SM FEW110 16/12 A2997 RMK AO2 SLP146 T01610117
BKW,KBKW,RALEIGH COUNTY MEML,10/28,37.78733333,-81.12416666,2023-12-27T22:00:00Z,0.0,VFR,WBKW 272200Z 00000KT 9999 FEW016 25/24 Q1012
BKX,KBKX,BROOKINGS RGNL,12/30,44.30452777,-96.81891666,2023-12-27T22:13:00Z,5.0,LIFR,KBKX 272213Z AUTO 27005KT 1 1/2SM -SN BR BKN004 BKN010 OVC033 M01/M02 A3006 RMK AO2 CIG 003V007 P0000 FZRANO
BLF,KBLF,MERCER COUNTY,05/23,37.29594836,-81.20751886,2023-12-27T21:52:00Z,6.0,IFR,KBLF 272152Z AUTO 31006KT 10SM BKN007 OVC015 09/08 A2983 RMK AO2 CIG 006V010 SLP090 T00890078
BLH,KBLH,BLYTHE,08/26,33.61916666,-114.7168889,2023-12-27T21:52:00Z,0.0,VFR,KBLH 272152Z AUTO 00000KT 10SM CLR 18/M04 A3014 RMK AO2 SLP205 T01831039
BLI,KBLI,BELLINGHAM INTL,16/34,48.79269444,-122.5375278,2023-12-27T21:53:00Z,7.0,VFR,KBLI 272153Z 18007KT 10SM BKN070 12/04 A2974 RMK AO2 SLP079 T01170044
BLM,KBLM,MONMOUTH EXEC,03/21,40.18677777,-74.12455555,2023-12-27T22:24:00Z,6.0,LIFR,KBLM 272224Z AUTO 05006KT 3SM BR OVC003 09/09 A2996 RMK AO2
BLU,KBLU,BLUE CANYON - NYACK,15/33,39.27497222,-120.70975,2023-12-27T21:52:00Z,13.0,VFR,KBLU 272152Z AUTO 16013G30KT 10SM BKN065 OVC090 08/M06 A3008 RMK AO2 PK WND 17033/2105 SLP155 T00831056
BLV,KBLV,SCOTT AFB/MIDAMERICA ST LOUIS,14R/32L,38.54517305,-89.83518555,2023-12-27T22:31:00Z,5.0,MVFR,KBLV 272231Z 27005KT 7SM -RA BR SCT006 OVC017 02/00 A2985 RMK AO2A RAE03SNB03E12RAB12 CIG 007V017 SLP115 $
BMC,KBMC,BRIGHAM CITY RGNL,17/35,41.55430555,-112.06225,2023-12-27T22:35:00Z,4.0,VFR,KBMC 272235Z AUTO 27004KT 10SM OVC032 05/M05 A3033 RMK AO1 T00541052
BMG,KBMG,MONROE COUNTY,17/35,39.14602083,-86.61668047,2023-12-27T22:00:00Z,4.0,VFR,SBMG 272200Z 19004KT 9999 FEW040 27/21 Q1012
BMI,KBMI,CENTRAL IL RGNL/BLOOMINGTON-NORMAL,02/20,40.47711111,-88.91591666,2023-12-27T21:56:00Z,12.0,VFR,KBMI 272156Z 06012KT 10SM BKN080 BKN100 04/01 A2988 RMK AO2 SLP122 T00390011
BML,KBML,BERLIN RGNL,18/36,44.57536111,-71.17591666,2023-12-27T21:52:00Z,0.0,LIFR,KBML 272152Z AUTO 00000KT 3/4SM -RA BR VV004 03/03 A3003 RMK AO2 RAE01B32 SLP181 P0000 T00330028
BMQ,KBMQ,BURNET MUNI/KATE CRADDOCK FLD,01/19,30.73892722,-98.23861027,2023-12-27T22:00:00Z,2.0,VFR,SBMQ 272200Z 10002KT 9999 SCT017 FEW030TCU SCT100 28/27 Q1009
BMT,KBMT,BEAUMONT MUNI,13/31,30.07020438,-94.21509672,2023-12-27T22:35:00Z,8.0,VFR,KBMT 272235Z AUTO 31008KT 10SM CLR 17/M01 A2999 RMK AO2 T01711006
BNA,KBNA,NASHVILLE INTL,02L/20R,36.124475,-86.67818055,2023-12-27T21:53:00Z,8.0,VFR,KBNA 272153Z 11008KT 10SM SCT080 BKN180 10/03 A2983 RMK AO2 SLP102 T01000028
BNG,KBNG,BANNING MUNI,08/26,33.92255555,-116.8509722,,,,
BNL,KBNL,BARNWELL RGNL,05/23,33.25766775,-81.38821894,2023-12-27T22:35:00Z,0.0,VFR,KBNL 272235Z AUTO 00000KT 10SM CLR 14/13 A2985 RMK AO2
BNO,KBNO,BURNS MUNI,03/21,43.59190555,-118.9554372,2023-12-27T21:53:00Z,12.0,VFR,KBNO 272153Z AUTO 09012KT 10SM BKN080 OVC100 02/M02 A3004 RMK AO2 SLP188 T00171022
BNW,KBNW,BOONE MUNI,02/20,42.04955555,-93.84761111,2023-12-27T22:35:00Z,13.0,MVFR,KBNW 272235Z AUTO 36013G18KT 6SM -SN SCT004 BKN014 00/00 A2998 RMK AO2
BOI,KBOI,BOISE AIR TRML/GOWEN FLD,10L/28R,43.56436111,-116.2228611,2023-12-27T21:53:00Z,14.0,VFR,KBOI 272153Z 15014KT 10SM CLR 05/M01 A3018 RMK AO2 SLP234 T00501011
BOK,KBOK,BROOKINGS,12/30,42.07394444,-124.2897778,2023-12-27T22:47:00Z,8.0,VFR,KBOK 272247Z AUTO 15008KT 10SM BKN033 OVC045 13/11 A2987 RMK AO2 RAE23 P0000
BOS,KBOS,GENERAL EDWARD LAWRENCE LOGAN INTL,09/27,42.36294444,-71.00638888,2023-12-27T22:43:00Z,5.0,LIFR,KBOS 272243Z 10005KT 2SM BR FEW002 OVC004 08/08 A3006 RMK AO2 SFC VIS 5 T00780078 $
BOW,KBOW,BARTOW EXEC,09R/27L,27.94335861,-81.78343722,2023-12-27T22:35:00Z,7.0,VFR,KBOW 272235Z AUTO 32007KT 10SM BKN120 20/08 A2996 RMK AO2 PWINO
BPG,KBPG,BIG SPRING MC MAHON-WRINKLE,06/24,32.21261111,-101.5216389,2023-12-27T22:35:00Z,8.0,VFR,KBPG 272235Z AUTO 34008KT 10SM CLR 12/00 A3009 RMK AO2 T01231002
BPI,KBPI,MILEY MEML FLD,08/26,42.58222222,-110.1088611,2023-12-27T21:53:00Z,3.0,VFR,KBPI 272153Z AUTO 21003KT 10SM CLR M03/M13 A3025 RMK AO2 SLP307 T10331128
BPK,KBPK,BAXTER COUNTY,05/23,36.3689425,-92.47051972,2023-12-27T22:00:00Z,12.0,VFR,SBPK 272200Z 07012KT CAVOK 24/17 Q1014
BPT,KBPT,JACK BROOKS RGNL,16/34,29.95083111,-94.02069888,2023-12-27T22:24:00Z,7.0,VFR,KBPT 272224Z 31007KT 10SM CLR 18/01 A2997 RMK AO2 T01830006 $
BQ1,,GILLIAM - MC CONNELL AIRFIELD,13/31,35.34166666,-79.43694444,,,,
BQK,KBQK,BRUNSWICK GOLDEN ISLES,07/25,31.25903527,-81.46631638,2023-12-27T22:35:00Z,6.0,VFR,KBQK 272235Z AUTO 26006KT 10SM CLR 16/08 A2990 RMK AO2 T01570084
BQN,TJBQ,RAFAEL HERNANDEZ,08/26,18.49486111,-67.12944444,,,,
BQP,KBQP,MOREHOUSE MEML,16/34,32.75608333,-91.88058333,2023-12-27T22:35:00Z,10.0,VFR,KBQP 272235Z AUTO 29010G14KT 10SM CLR 12/00 A2997 RMK AO2 T01160000
BQR,KBQR,BUFFALO-LANCASTER RGNL,09/27,42.92205555,-78.61197222,,,,
BRD,KBRD,BRAINERD LAKES RGNL,16/34,46.40422222,-94.13380555,2023-12-27T22:43:00Z,0.0,MVFR,KBRD 272243Z AUTO 00000KT 10SM FEW006 BKN012 OVC019 03/01 A3006 RMK AO2 T00280011
BRG,KBRG,BELEN RGNL,13/31,34.64586163,-106.8363401,2023-12-27T22:35:00Z,7.0,VFR,KBRG 272235Z AUTO 03007KT 10SM CLR 08/M12 A3016 RMK AO2 T00811124
BRL,KBRL,SOUTHEAST IOWA RGNL,18/36,40.78297222,-91.12558333,2023-12-27T21:53:00Z,11.0,VFR,KBRL 272153Z AUTO 02011KT 8SM -RA BKN043 BKN050 OVC060 03/02 A2988 RMK AO2 RAB46 SLP123 P0000 T00330022
BRO,KBRO,BROWNSVILLE/SOUTH PADRE ISLAND INTL,13/31,25.90613888,-97.426,2023-12-27T21:53:00Z,14.0,VFR,KBRO 272153Z 04014G19KT 10SM SCT028 21/14 A2998 RMK AO2 SLP150 T02060139 $
BRW,PABR,WILEY POST-WILL ROGERS MEML,08/26,71.28486111,-156.7685833,,,,
BRY,KBRY,SAMUELS FLD,03/21,37.81433333,-85.49963888,2023-12-27T22:35:00Z,0.0,VFR,KBRY 272235Z AUTO 00000KT 10SM OVC090 08/04 A2983 RMK AO2 T00840045
BST,KBST,BELFAST MUNI,15/33,44.40938888,-69.01183333,,,,
BTA,KBTA,BLAIR EXEC,13/31,41.41480555,-96.10897222,2023-12-27T22:00:00Z,8.0,VFR,SBTA 272200Z 15008KT 100V190 9999 VCSH BKN040 FEW047TCU 22/13 Q1017
BTF,KBTF,SKYPARK,17/35,40.86814913,-111.9274991,2023-12-27T22:00:00Z,2.0,VFR,SBTF 272200Z 18002KT 9999 -RA FEW009 FEW025TCU BKN080 24/23 Q1008 RETS
BTI,PABA,BARTER ISLAND,07/25,70.11311111,-143.6536111,,,,
BTL,KBTL,BATTLE CREEK EXEC AT KELLOGG FLD,05L/23R,42.3064728,-85.25008894,2023-12-27T21:53:00Z,6.0,IFR,KBTL 272153Z 33006KT 10SM OVC005 05/04 A2990 RMK AO2 SLP131 T00500039
BTM,KBTM,BERT MOONEY,12/30,45.95480555,-112.4974722,2023-12-27T21:53:00Z,0.0,VFR,KBTM 272153Z AUTO 00000KT 10SM CLR M02/M07 A3016 RMK AO2 SLP289 T10221072
BTN,KBTN,BRITTON MUNI,13/31,45.81502777,-97.74280555,2023-12-27T22:35:00Z,10.0,LIFR,KBTN 272235Z AUTO 35010KT 2 1/2SM BR OVC003 00/00 A3007 RMK AO2
BTP,KBTP,PITTSBURGH/BUTLER RGNL,08/26,40.77658333,-79.95108333,2023-12-27T22:03:00Z,3.0,MVFR,KBTP 272203Z AUTO 09003KT 10SM BKN014 10/10 A2981 RMK AO2 TSNO $
BTR,KBTR,"BATON ROUGE METRO, RYAN FLD",04L/22R,30.53291666,-91.14988888,2023-12-27T21:53:00Z,11.0,VFR,KBTR 272153Z 25011KT 10SM CLR 17/06 A2995 RMK AO2 SLP139 T01720061
BTT,PABT,BETTLES,02/20,66.91394444,-151.5290556,2023-12-27T22:00:00Z,3.0,VFR,SBTT 272200Z 22003KT 9999 FEW020 27/24 Q1008
BTV,KBTV,PATRICK LEAHY BURLINGTON INTL,15/33,44.471955,-73.15327611,2023-12-27T22:40:00Z,0.0,LIFR,KBTV 272240Z 00000KT 1/2SM R15/2800V4000FT BR BKN006 OVC011 07/06 A3000 RMK AO2 SFC VIS 1 T00720061
BTY,KBTY,BEATTY,16/34,36.86113888,-116.7863889,,,,
BUB,KBUB,CRAM FLD,15/33,41.77757666,-99.15021166,,,,
BUF,KBUF,BUFFALO NIAGARA INTL,14/32,42.94042722,-78.73056972,2023-12-27T22:40:00Z,3.0,VFR,KBUF 272240Z 07003KT 10SM SCT020 BKN047 OVC075 09/09 A2981 RMK AO2 RAE27 P0003 T00940094
BUM,KBUM,BUTLER MEML,18/36,38.28976722,-94.34012777,,,,
BUR,KBUR,BOB HOPE,15/33,34.20069444,-118.3586667,2023-12-27T21:53:00Z,3.0,VFR,KBUR 272153Z 19003KT 10SM CLR 18/08 A3012 RMK AO2 SLP191 T01830083
BUU,KBUU,BURLINGTON MUNI,01/19,42.69071711,-88.30468252,2023-12-27T22:35:00Z,5.0,VFR,KBUU 272235Z AUTO 01005KT 10SM BKN060 OVC090 03/00 A2999 RMK AO2 T00261004 PWINO
BUY,KBUY,BURLINGTON/ALAMANCE RGNL,06/24,36.04972777,-79.47300805,2023-12-27T22:00:00Z,0.0,VFR,SBUY 272200Z 00000KT 9999 FEW025TCU 27/27 Q1007
BVI,KBVI,BEAVER COUNTY,10/28,40.77247222,-80.39144444,2023-12-27T22:35:00Z,0.0,VFR,KBVI 272235Z AUTO 00000KT 10SM OVC048 11/10 A2981 RMK AO2 T01140095
BVK,PABL,BUCKLAND,11/29,65.98155555,-161.1491389,,,,
BVN,KBVN,ALBION MUNI,15/33,41.72857694,-98.05575972,2023-12-27T22:35:00Z,7.0,VFR,KBVN 272235Z AUTO 34007KT 10SM SCT031 SCT047 OVC060 M02/M06 A3009 RMK AO2 T10171057
BVO,KBVO,BARTLESVILLE MUNI,17/35,36.76336111,-96.01119444,2023-12-27T21:53:00Z,6.0,VFR,KBVO 272153Z AUTO VRB06KT 10SM OVC046 04/M04 A3005 RMK AO2 SLP175 T00441039
BVS,KBVS,SKAGIT RGNL,11/29,48.47052611,-122.4216894,2023-12-27T22:35:00Z,0.0,VFR,KBVS 272235Z AUTO 00000KT 10SM BKN065 OVC075 13/08 A2977 RMK A01
BVU,KBVU,BOULDER CITY MUNI,15/33,35.94730805,-114.8610842,2023-12-27T22:35:00Z,4.0,VFR,KBVU 272235Z AUTO 06004KT 10SM CLR 14/M05 A3018 RMK AO2
BVX,KBVX,BATESVILLE RGNL,18/36,35.72622222,-91.64744444,2023-12-27T21:56:00Z,11.0,VFR,KBVX 272156Z AUTO 29011G18KT 10SM SCT055 05/M06 A2993 RMK AO2 SLP139 T00501056
BVY,KBVY,BEVERLY RGNL,09/27,42.58413888,-70.91613888,2023-12-27T22:21:00Z,4.0,IFR,KBVY 272221Z 07004KT 10SM OVC009 07/06 A3004 RMK AO2 T00720056
BW8,,BULLWHACKER,09/27,47.84777777,-109.0994444,,,,
BWC,KBWC,BRAWLEY MUNI,08/26,32.9929375,-115.5172633,,,,
BWD,KBWD,BROWNWOOD RGNL,13/31,31.79361111,-98.9565,2023-12-27T22:35:00Z,9.0,VFR,KBWD 272235Z AUTO 35009KT 10SM SCT050 12/00 A3008 RMK AO1
BWG,KBWG,BOWLING GREEN-WARREN COUNTY RGNL,12/30,36.96452777,-86.41966666,2023-12-27T21:53:00Z,6.0,VFR,KBWG 272153Z AUTO 10006KT 10SM FEW120 10/04 A2984 RMK AO2 SLP106 T01000039
BWI,KBWI,BALTIMORE/WASHINGTON INTL THURGOOD MARSHALL,15L/33R,39.17572833,-76.66899111,2023-12-27T22:22:00Z,12.0,IFR,KBWI 272222Z 06012KT 1 3/4SM -RA BR BKN006 OVC013 12/11 A2980 RMK AO2 P0008 T01220111
BWP,KBWP,HARRY STERN,15/33,46.24429377,-96.60715594,2023-12-27T22:35:00Z,9.0,LIFR,KBWP 272235Z AUTO 35009KT 1SM BR OVC003 00/00 A3008 RMK AO2
BWW,KBWW,BOWMAN RGNL,13/31,46.1655193,-103.3007428,2023-12-27T22:35:00Z,7.0,VFR,KBWW 272235Z AUTO 32007KT 10SM CLR 04/M12 A3016 RMK AO2
BXA,KBXA,GEORGE R CARR MEML AIR FLD,18/36,30.81368638,-89.86496444,2023-12-27T22:35:00Z,3.0,VFR,KBXA 272235Z AUTO 24003KT 10SM CLR 15/09 A2994 RMK AO2 T01450086
BXG,KBXG,BURKE COUNTY,08/26,33.04083694,-82.00426361,,,,
BXK,KBXK,BUCKEYE MUNI,17/35,33.42253388,-112.6862339,2023-12-27T22:35:00Z,0.0,VFR,KBXK 272235Z AUTO 00000KT 10SM CLR 16/01 A3014 RMK A01
BXM,KBXM,BRUNSWICK EXEC,01R/19L,43.89235511,-69.93882969,,,,
BYA,,BOUNDARY,05/23,64.07830277,-141.113375,,,,
BYG,KBYG,JOHNSON COUNTY,13/31,44.38108333,-106.7218056,2023-12-27T21:53:00Z,3.0,VFR,KBYG 272153Z AUTO 06003KT 10SM CLR 06/M05 A3015 RMK AO2 SLP224 T00611050
BYH,KBYH,ARKANSAS INTL,18/36,35.96433333,-89.94394444,,,,
BYI,KBYI,BURLEY MUNI,06/24,42.54261111,-113.7715278,2023-12-27T21:53:00Z,13.0,VFR,KBYI 272153Z AUTO 06013KT 10SM CLR 01/M02 A3026 RMK AO2 SLP269 T00111022
BYL,KBYL,WILLIAMSBURG-WHITLEY COUNTY,02/20,36.79499916,-84.1995175,2023-12-27T22:35:00Z,0.0,VFR,KBYL 272235Z AUTO 00000KT 10SM CLR 08/05 A2984 RMK AO1
BYY,KBYY,BAY CITY RGNL,13/31,28.97324666,-95.86345194,2023-12-27T22:35:00Z,6.0,VFR,KBYY 272235Z AUTO 36006KT 10SM CLR 17/01 A3001 RMK AO2 T01720004
BZN,KBZN,BOZEMAN YELLOWSTONE INTL,11/29,45.77723577,-111.1502603,2023-12-27T21:56:00Z,0.0,VFR,KBZN 272156Z 00000KT 10SM CLR M03/M08 A3021 RMK AO2 SLP302 T10331083
C00,,MERCER COUNTY,17/35,41.248645,-90.73708361,,,,
C01,,SOUTHERN CROSS,09/27,39.65555555,-75.01444444,,,,
C02,,GRAND GENEVA RESORT,05/23,42.61468305,-88.38998666,,,,
C03,,NAPPANEE MUNI,09/27,41.44615694,-85.93604583,,,,
C04,,OCEANA COUNTY,15/33,43.64163333,-86.32906611,,,,
C05,PFCB,CHENEGA BAY,16/34,60.07856111,-147.9947347,,,,
C08,,SILVER WEST,13/31,38.01327777,-105.3742722,,,,
C09,,MORRIS MUNI - JAMES R WASHBURN FLD,18/36,41.42475,-88.41866666,2023-12-27T22:35:00Z,4.0,VFR,KC09 272235Z AUTO 06004KT 10SM SCT110 04/02 A2992 RMK AO2 T00430017
C11,,AMANA,08/26,41.79358333,-91.86477222,,,,
C15,,PEKIN MUNI,09/27,40.48819444,-89.67588888,,,,
C16,,FRASCA FLD,09/27,40.14639977,-88.19848758,,,,
C17,,MARION,17/35,42.02981086,-91.5317223,,,,
C20,,ANDREWS UNIVERSITY AIRPARK,03/21,41.95105555,-86.36808333,,,,
C23,,PELELIU,04/22,7.0,134.2333333,,,,
C24,,MINERAL COUNTY MEML,07/25,37.82216666,-106.9298889,,,,
C25,,WAVERLY MUNI,11/29,42.74179555,-92.50721333,,,,
C27,,MANCHESTER MUNI,18/36,42.49049583,-91.49787361,,,,
C29,,MIDDLETON MUNI/MOREY FLD,01/19,43.11433,-89.53164888,2023-12-27T22:35:00Z,4.0,VFR,KC29 272235Z AUTO 02004KT 10SM OVC080 03/02 A3001 RMK AO1 T00270015
C30,,MEJIT,07/25,10.28333333,170.8833333,,,,
C35,,REEDSBURG MUNI,18/36,43.52589908,-89.98322166,2023-12-27T22:35:00Z,3.0,VFR,KC35 272235Z AUTO 03003KT 10SM CLR 02/M03 A3003 RMK AO2 T00231026 PWINO
C37,,BRODHEAD,03/21,42.59549958,-89.38129833,,,,
C40,,MILLER,09/27,40.71671333,-85.24997083,,,,
C43,,HIRAM CURE,09/27,42.77003194,-84.9649575,,,,
C44,,TOUTANT,17/35,41.95569444,-72.05436111,,,,
C47,,PORTAGE MUNI,18/36,43.56026222,-89.48291138,,,,
C48,,WILSON BAR USFS,06/24,45.39666666,-115.4833333,,,,
C51,,KILI,04/22,5.65,169.1166667,,,,
C53,,LOWER LOON CREEK,16/34,44.80867119,-114.8086599,,,,
C55,,OGLE COUNTY,09/27,42.03725083,-89.39288527,,,,
C56,,BULT FLD,09/27,41.37741666,-87.67975,,,,
C59,,LAKE LAWN,18/36,42.63412611,-88.60112916,,,,
C62,,KENDALLVILLE MUNI,10/28,41.47271555,-85.2607975,,,,
C64,,CAYUSE CREEK USFS,04/22,46.66658416,-115.0731811,,,,
C65,,PLYMOUTH MUNI,10/28,41.36513055,-86.30025777,2023-12-27T22:35:00Z,7.0,VFR,KC65 272235Z AUTO 31007G12KT 10SM CLR 04/01 A2990 RMK A01
C66,,MONMOUTH MUNI,03/21,40.92970444,-90.63110722,,,,
C71,,CROSBY MUNI,17/35,31.29640138,-91.0525375,,,,
C72,,CROSS WINDS,13R/31L,47.98099444,-117.5288528,,,,
C73,,DIXON MUNI-CHARLES R WALGREEN FLD,08/26,41.83369888,-89.44621333,,,,
C74,,CASSVILLE MUNI,11/29,42.70427083,-90.96610694,,,,
C75,,MARSHALL COUNTY,18/36,41.01883333,-89.38577777,2023-12-27T22:35:00Z,9.0,VFR,KC75 272235Z AUTO 05009G14KT 10SM BKN070 OVC085 05/01 A2990 RMK AO2 T00500007
C77,,POPLAR GROVE,09/27,42.32286111,-88.83630555,,,,
C80,,NEW COALINGA MUNI,H1,36.16211111,-120.2948333,,,,
C81,,CAMPBELL,06/24,42.32461111,-88.07408805,,,,
C82,,BRESSON,18/36,41.76253027,-89.10148111,,,,
C83,,BYRON,12/30,37.82844444,-121.6258333,2023-12-27T22:35:00Z,5.0,VFR,KC83 272235Z AUTO 06005KT 7SM FEW037 FEW047 BKN060 15/11 A3003 RMK AO2
C89,,SYLVANIA,08R/26L,42.70325,-87.95897222,,,,
C91,,DOWAGIAC MUNI,04/22,41.99291666,-86.12827777,,,,
C92,,MENTONE,18/36,41.15004333,-86.06249666,,,,
C97,,LOWELL,18/36,41.23016944,-87.50769444,,,,
C98,,LAKE VILLAGE,18/36,41.15003444,-87.46253277,,,,
CAD,KCAD,WEXFORD COUNTY,18/36,44.27533333,-85.41891666,2023-12-27T22:35:00Z,8.0,IFR,KCAD 272235Z AUTO 34008G14KT 10SM OVC006 02/01 A2993 RMK AO2
CAE,KCAE,COLUMBIA METRO,11/29,33.93883777,-81.11953611,2023-12-27T21:56:00Z,4.0,MVFR,KCAE 272156Z 26004KT 10SM BKN021 15/13 A2981 RMK AO2 SLP094 T01500128
CAG,KCAG,CRAIG-MOFFAT,07/25,40.49522222,-107.5216667,2023-12-27T21:53:00Z,5.0,VFR,KCAG 272153Z AUTO 24005KT 10SM CLR M06/M11 A3029 RMK AO2 SLP355 T10561111
CAJ4,,ANAHIM LAKE,13/31,52.45222222,-125.3044444,,,,
CAK,KCAK,AKRON-CANTON RGNL,01/19,40.91505555,-81.44363888,2023-12-27T22:27:00Z,7.0,LIFR,KCAK 272227Z 32007KT 2 1/2SM BR BKN004 OVC021 07/07 A2983 RMK AO2 SFC VIS 3 T00720072
CAO,KCAO,CLAYTON MUNI AIRPARK,02/20,36.44627777,-103.1499444,2023-12-27T21:55:00Z,18.0,VFR,KCAO 272155Z AUTO 35018G29KT 10SM FEW090 06/M06 A3008 RMK AO2 PK WND 34029/2148 SLP183 T00611061
CAR,KCAR,CARIBOU MUNI,11/29,46.87163888,-68.01819444,2023-12-27T22:00:00Z,9.0,MVFR,SCAR 272200Z 19009KT 9999 OVC028 22/16 Q1013
CAV,KCAV,CLARION MUNI,14/32,42.74047222,-93.75905555,2023-12-27T22:35:00Z,11.0,MVFR,KCAV 272235Z AUTO 02011KT 10SM BKN024 BKN033 OVC075 01/01 A3002 RMK A01
CBE,KCBE,GREATER CUMBERLAND RGNL,05/23,39.61530583,-78.76147833,2023-12-27T22:20:00Z,3.0,MVFR,KCBE 272220Z AUTO 04003KT 10SM OVC011 09/09 A2987 RMK AO2 T00950089
CBF,KCBF,COUNCIL BLUFFS MUNI,14/32,41.26011111,-95.75863888,2023-12-27T22:35:00Z,13.0,VFR,KCBF 272235Z AUTO 35013KT 10SM SCT018 OVC037 00/00 A3001 RMK AO2
CBG,KCBG,CAMBRIDGE MUNI,16/34,45.55749472,-93.26418444,2023-12-27T22:35:00Z,0.0,VFR,KCBG 272235Z AUTO 00000KT 10SM SCT060 00/M02 A3007 RMK AO2
CBK,KCBK,SHALZ FLD,04/22,39.42745861,-101.0466197,2023-12-27T22:35:00Z,12.0,MVFR,KCBK 272235Z AUTO 34012KT 5SM -SN BR BKN010 OVC024 00/M01 A3008 RMK AO2 T00031008
CBQ8,,WOODCOCK,02/20,55.06666666,-128.2333333,,,,
CBS4,,MULE CREEK,16/34,59.78555555,-136.5830556,,,,
CCA,KCCA,CLINTON MUNI,13/31,35.59775,-92.45158333,2023-12-27T22:35:00Z,6.0,VFR,KCCA 272235Z AUTO 29006KT 10SM OVC044 04/M05 A2997 RMK AO2
CCB,KCCB,CABLE,H1,34.11160944,-117.6873883,2023-12-27T22:35:00Z,6.0,VFR,KCCB 272235Z AUTO 26006KT 9SM CLR 18/08 A3012 RMK AO2
CCO,KCCO,NEWNAN COWETA COUNTY,15/33,33.31156555,-84.76975541,,,,
CCR,KCCR,BUCHANAN FLD,14R/32L,37.98965666,-122.0569022,2023-12-27T21:53:00Z,13.0,VFR,KCCR 272153Z 17013G22KT 10SM OVC040 17/10 A3001 RMK AO2 RAE06 SLP149 P0000 T01670100
CCY,KCCY,NORTHEAST IOWA RGNL,04/22,43.07250375,-92.61080919,2023-12-27T22:00:00Z,8.0,VFR,SCCY 272200Z 26008KT 220V290 9999 BKN033 19/08 Q1008
CDA,KCDA,CALEDONIA COUNTY,02/20,44.56911416,-72.01797888,2023-12-27T22:35:00Z,0.0,LIFR,KCDA 272235Z AUTO 00000KT 1/2SM FG OVC004 04/04 A3004 RMK AO2 T00400037
CDB,PACD,COLD BAY,08/26,55.20591666,-162.72625,,,,
CDC,KCDC,CEDAR CITY RGNL,08/26,37.70097,-113.0988508,2023-12-27T21:53:00Z,3.0,VFR,KCDC 272153Z AUTO VRB03KT 10SM CLR 06/M06 A3024 RMK AO2 SLP244 T00561061
CDH,KCDH,HARRELL FLD,01/19,33.62280555,-92.76338888,,,,
CDI,KCDI,CAMBRIDGE MUNI,04/22,39.97502777,-81.57758333,2023-12-27T22:35:00Z,0.0,IFR,KCDI 272235Z AUTO 00000KT 2 1/2SM -DZ OVC005 09/09 A2985 RMK AO2 T00870085
CDK,KCDK,GEORGE T LEWIS,05/23,29.13424722,-83.05058333,,,,
CDN,KCDN,WOODWARD FLD,06/24,34.28358333,-80.56486111,2023-12-27T22:35:00Z,0.0,MVFR,KCDN 272235Z AUTO 00000KT 9SM BKN025 15/13 A2982 RMK AO2
CDR,KCDR,CHADRON MUNI,12/30,42.83755769,-103.0954019,2023-12-27T21:53:00Z,0.0,VFR,KCDR 272153Z AUTO 00000KT 10SM CLR M01/M06 A3016 RMK AO2 SLP248 T10061056
CDS,KCDS,CHILDRESS MUNI,18/36,34.43377777,-100.288,2023-12-27T21:53:00Z,8.0,VFR,KCDS 272153Z AUTO 02008KT 10SM BKN048 10/01 A3007 RMK AO2 SLP184 T01000006
CDV,PACV,MERLE K (MUDHOLE) SMITH,09/27,60.49163972,-145.4775578,,,,
CDW,KCDW,ESSEX COUNTY,04/22,40.87522472,-74.28135027,2023-12-27T21:57:00Z,6.0,IFR,KCDW 272157Z 08006KT 9SM OVC008 09/06 A2997
CEA,KCEA,CESSNA ACFT FLD,17/35,37.64859833,-97.25059944,,,,
CEC,KCEC,JACK MC NAMARA FLD,12/30,41.78016666,-124.2365278,2023-12-27T21:56:00Z,16.0,VFR,KCEC 272156Z AUTO 16016G26KT 7SM -RA FEW034 BKN050 OVC070 14/10 A2985 RMK AO2 PK WND 14032/2108 RAB21 SLP108 P0001 T01390100
CEF,KCEF,WESTOVER ARB/METRO,15/33,42.19401555,-72.53478666,2023-12-27T22:42:00Z,0.0,LIFR,KCEF 272242Z 00000KT 5/8SM R23/3500V4000FT BR VV002 07/06 A2998 RMK AO2A SLP160
CEK,KCEK,CRETE MUNI,17/35,40.61837672,-96.92570869,,,,
CEM,PACE,CENTRAL,08/26,65.57394444,-144.7808889,,,,
CEU,KCEU,OCONEE COUNTY RGNL,07/25,34.67222222,-82.88588888,2023-12-27T21:54:00Z,4.0,VFR,KCEU 272154Z AUTO VRB04KT 10SM CLR 14/11 A2982 RMK AO2 SLP094 T01440106
CEV,KCEV,METTEL FLD,18/36,39.69819444,-85.13113888,,,,
CEW,KCEW,BOB SIKES,17/35,30.77883111,-86.52211277,,,,
CEX4,,CARMACKS,09/27,62.11083333,-136.1783333,,,,
CEY,KCEY,KYLE-OAKLEY FLD,05/23,36.66458111,-88.37277555,2023-12-27T22:35:00Z,8.0,VFR,KCEY 272235Z AUTO 24008KT 10SM SCT050 OVC065 07/03 A2985 RMK A01
CEZ,KCEZ,CORTEZ MUNI,03/21,37.3030025,-108.6280442,2023-12-27T21:53:00Z,9.0,VFR,KCEZ 272153Z AUTO 28009G18KT 10SM CLR 04/M13 A3018 RMK AO2 SLP225 T00391128
CEZ2,,CHAPMAN,15/33,64.9,-138.2666667,,,,
CFD,KCFD,COULTER FLD,15/33,30.71569444,-96.33136111,2023-12-27T22:35:00Z,7.0,VFR,KCFD 272235Z AUTO 33007KT 10SM CLR 14/02 A3006 RMK AO2 T01400019
CFE,KCFE,BUFFALO MUNI,18/36,45.15883333,-93.84330555,2023-12-27T22:35:00Z,5.0,VFR,KCFE 272235Z AUTO 30005KT 10SM FEW021 SCT035 BKN041 01/00 A3008 RMK AO2
CFJ,KCFJ,CRAWFORDSVILLE RGNL,04/22,39.974625,-86.921075,2023-12-27T22:35:00Z,5.0,VFR,KCFJ 272235Z AUTO 24005KT 10SM SCT095 OVC110 04/M01 A2988 RMK AO2 T00361012
CFK,PACK,CHEFORNAK,16/34,60.13680555,-164.2790556,,,,
CFO,KCFO,COLORADO AIR AND SPACE PORT,17/35,39.78419444,-104.5376389,2023-12-27T21:47:00Z,19.0,VFR,KCFO 272147Z 35019G24KT 10SM SKC 07/M13 A3013
CFQ5,,SILVER CITY,18/36,61.02888888,-138.4075,,,,
CFS,KCFS,TUSCOLA AREA,13/31,43.45886083,-83.44544666,2023-12-27T22:35:00Z,5.0,IFR,KCFS 272235Z AUTO 01005KT 10SM -DZ OVC005 06/05 A2988 RMK AO2 T00560050
CFT,KCFT,GREENLEE COUNTY,07/25,32.95703863,-109.2111623,2023-12-27T22:00:00Z,12.0,VFR,SCFT 272200Z AUTO 28012G22KT 240V310 9999 FEW086/// 24/06 Q1009
CFV,KCFV,COFFEYVILLE MUNI,17/35,37.094,-95.572,2023-12-27T22:33:00Z,14.0,VFR,KCFV 272233Z AUTO 31014KT 10SM SCT029 OVC042 03/M03 A3002 RMK AO2 T00331033
CGC,KCGC,CRYSTAL RIVER-CAPT TOM DAVIS FLD,18/36,28.86761111,-82.57411111,2023-12-27T22:35:00Z,0.0,VFR,KCGC 272235Z AUTO 00000KT 10SM SCT070 SCT100 SCT120 15/12 A2996 RMK AO2
CGE,KCGE,CAMBRIDGE-DORCHESTER RGNL,16/34,38.53932138,-76.03039527,2023-12-27T22:25:00Z,9.0,MVFR,KCGE 272225Z AUTO 12009KT 6SM BR OVC012 15/15 A2978 RMK A01
CGF,KCGF,CUYAHOGA COUNTY,06/24,41.56458333,-81.48722222,2023-12-27T22:45:00Z,6.0,LIFR,KCGF 272245Z 28006KT 1/2SM FG OVC002 07/07 A2983
CGI,KCGI,CAPE GIRARDEAU RGNL,02/20,37.22531527,-89.57075944,2023-12-27T22:11:00Z,8.0,VFR,KCGI 272211Z 31008KT 10SM UP SCT030 BKN037 OVC044 03/01 A2987 RMK AO2 RAE11UPB11 P0000 T00280006
CGS,KCGS,COLLEGE PARK,15/33,38.98047777,-76.92216861,2023-12-27T22:30:00Z,3.0,IFR,KCGS 272230Z AUTO 31003KT 2 1/2SM RA BR BKN008 BKN014 OVC029 12/12 A2981 RMK AO2 VIS 1 1/2V4 P0018 T01200117
CGZ,KCGZ,CASA GRANDE MUNI,05/23,32.95489805,-111.76682,2023-12-27T21:56:00Z,3.0,VFR,KCGZ 272156Z AUTO VRB03KT 10SM CLR 14/06 A3015 RMK AO2 SLP211 T01440056 PNO $
CHA,KCHA,LOVELL FLD,15/33,35.03519444,-85.20355555,2023-12-27T21:53:00Z,9.0,VFR,KCHA 272153Z 17009KT 10SM BKN070 BKN250 13/05 A2985 RMK AO2 SLP107 T01330050
CHD,KCHD,CHANDLER MUNI,04L/22R,33.26909611,-111.8111211,2023-12-27T22:47:00Z,4.0,VFR,KCHD 272247Z 21004KT 10SM CLR 17/01 A3013
CHK,KCHK,CHICKASHA MUNI,01/19,35.09714038,-97.96768052,2023-12-27T22:35:00Z,0.0,VFR,KCHK 272235Z AUTO 00000KT 10SM OVC044 05/M03 A3006 RMK AO2 T00551030
CHN,KCHN,WAUCHULA MUNI,18/36,27.51491666,-81.88047222,,,,
CHO,KCHO,CHARLOTTESVILLE-ALBEMARLE,03/21,38.13964277,-78.45234416,2023-12-27T22:30:00Z,0.0,LIFR,KCHO 272230Z 00000KT 2SM BR BKN003 OVC008 12/11 A2977 RMK AO2 T01220106
CHP,,CIRCLE HOT SPRINGS,09/27,65.48590694,-144.6116847,,,,
CHQ,KCHQ,MISSISSIPPI COUNTY,18/36,36.84213722,-89.35965777,,,,
CHS,KCHS,CHARLESTON AFB/INTL,15/33,32.89863888,-80.04052777,2023-12-27T21:56:00Z,8.0,VFR,KCHS 272156Z 26008KT 10SM FEW025 BKN150 BKN250 18/13 A2983 RMK AO2 SLP099 T01830128
CHT,KCHT,CHILLICOTHE MUNI,02/20,39.78201544,-93.49623608,,,,
CHU,KCHU,HOUSTON COUNTY,13/31,43.59635861,-91.50394638,,,,
CIC,KCIC,CHICO RGNL,H1,39.79538888,-121.8584167,2023-12-27T21:47:00Z,10.0,IFR,KCIC 272147Z 11010KT 1SM BR RA BKN023 OVC032 10/09 A3006
CID,KCID,THE EASTERN IOWA,13/31,41.88469444,-91.71080555,2023-12-27T21:52:00Z,9.0,VFR,KCID 272152Z 04009KT 10SM OVC055 03/01 A2994 RMK AO2 SLP147 T00330006
CII,KCII,CHOTEAU,05/23,47.82834777,-112.1683358,2023-12-27T22:40:00Z,,VFR,KCII 272240Z AUTO 10SM 04/M08 A3002 RMK A01 
CIK,PACI,CHALKYITSIK,04/22,66.64502777,-143.7398889,,,,
CIN,KCIN,ARTHUR N NEU,13/31,42.04666666,-94.78869444,2023-12-27T22:30:00Z,1.0,VFR,YCIN 272230Z AUTO 33001KT 9999 // NCD 29/25 Q1011 RF00.0/000.0
CIR,KCIR,CAIRO RGNL,02/20,37.06413888,-89.21952777,2023-12-27T22:35:00Z,15.0,MVFR,KCIR 272235Z AUTO 33015G18KT 10SM OVC026 04/01 A2989 RMK AO2 T00440010
CIU,KCIU,CHIPPEWA COUNTY INTL,16/34,46.25075166,-84.47238416,2023-12-27T21:56:00Z,9.0,LIFR,KCIU 272156Z AUTO 36009KT 10SM -RA OVC002 04/04 A3000 RMK AO2 SLP163 P0000 T00390039 $
CJJ,KCJJ,ELLEN CHURCH FLD,15/33,43.36530138,-92.13308305,,,,
CJR,KCJR,CULPEPER RGNL,04/22,38.52547222,-77.85963888,2023-12-27T22:35:00Z,4.0,IFR,KCJR 272235Z AUTO 32004KT 2 1/2SM -DZ OVC005 12/11 A2980 RMK AO2 P0001 T01180110
CJX,PACJ,CROOKED CREEK,14/32,61.87111805,-158.1379564,,,,
CKB,KCKB,NORTH CENTRAL WEST VIRGINIA,03/21,39.29765472,-80.22753194,2023-12-27T22:14:00Z,0.0,VFR,KCKB 272214Z 00000KT 10SM SCT012 SCT021 OVC031 12/11 A2980 RMK AO2 T01170106 $
CKC,KCKC,GRAND MARAIS/COOK COUNTY,10/28,47.83843166,-90.38457805,2023-12-27T22:35:00Z,0.0,MVFR,KCKC 272235Z AUTO 00000KT 10SM OVC018 M29/ A3005 RMK AO2
CKF,KCKF,CRISP COUNTY-CORDELE,10/28,31.988845,-83.77390472,2023-12-27T22:35:00Z,0.0,VFR,KCKF 272235Z AUTO 00000KT 10SM CLR 16/05 A2991 RMK AO2 T01550054
CKI,KCKI,WILLIAMSBURG RGNL,14/32,33.71722222,-79.85697222,2023-12-27T22:35:00Z,4.0,VFR,KCKI 272235Z AUTO 25004KT 10SM SCT016 SCT023 16/12 A2982 RMK AO2
CKM,KCKM,FLETCHER FLD,18/36,34.29972222,-90.51230555,2023-12-27T22:35:00Z,13.0,VFR,KCKM 272235Z AUTO 28013KT 10SM 09/01 A2995 RMK A01
CKN,KCKN,CROOKSTON MUNI/KIRKWOOD FLD,17/35,47.84165722,-96.62145361,2023-12-27T22:35:00Z,6.0,LIFR,KCKN 272235Z AUTO 35006KT 1/4SM FG OVC002 00/00 A3013 RMK AO2
CKP,KCKP,CHEROKEE COUNTY RGNL,18/36,42.73138888,-95.55605555,2023-12-27T22:35:00Z,6.0,VFR,KCKP 272235Z AUTO 36006KT 10SM SCT120 01/M02 A3005 RMK AO2 T00051022
CKU,,CORDOVA MUNI,06/24,60.54364444,-145.7258542,,,,
CKV,KCKV,OUTLAW FLD,05/23,36.62186111,-87.41494444,2023-12-27T21:52:00Z,4.0,VFR,KCKV 272152Z AUTO 22004KT 10SM OVC060 12/M01 A2981 RMK AO2 SLP095 T01171011
CKX,,CHICKEN,13/31,64.06675138,-141.9513472,,,,
CKZ,KCKZ,PENNRIDGE,08/26,40.38919444,-75.29047222,2023-12-27T22:35:00Z,8.0,LIFR,KCKZ 272235Z AUTO 06008KT 2 1/2SM BR OVC003 08/08 A2992 RMK AO2 PNO
CLE,KCLE,CLEVELAND-HOPKINS INTL,06L/24R,41.40940694,-81.85469111,2023-12-27T21:51:00Z,7.0,LIFR,KCLE 272151Z 25007KT 1SM -DZ BR OVC003 08/07 A2983 RMK AO2 SLP118 P0000 T00780072
CLI,KCLI,CLINTONVILLE MUNI,04/22,44.61316666,-88.73088888,2023-12-27T22:35:00Z,3.0,VFR,KCLI 272235Z AUTO 34003KT 10SM CLR 03/M04 A3005 RMK AO2 T00281037
CLK,KCLK,CLINTON RGNL,13/31,35.53827255,-98.93278855,2023-12-27T22:35:00Z,11.0,VFR,KCLK 272235Z AUTO 35011KT 10SM OVC037 05/M02 A3009 RMK AO2
CLL,KCLL,EASTERWOOD FLD,11/29,30.58804188,-96.36254444,2023-12-27T21:53:00Z,10.0,VFR,KCLL 272153Z 31010G18KT 10SM CLR 14/02 A3002 RMK AO2 SLP165 T01440017
CLM,KCLM,WILLIAM R FAIRCHILD INTL,13/31,48.12019444,-123.4996944,2023-12-27T21:53:00Z,12.0,VFR,KCLM 272153Z AUTO 16012G23KT 10SM FEW037 SCT050 BKN100 14/04 A2970 RMK AO2 RAB2059E08 SLP058 P0000 T01440044
CLP,PFCL,CLARKS POINT,18/36,58.83369444,-158.5293889,2023-12-27T22:30:00Z,6.0,VFR,GCLP 272230Z 30006KT CAVOK 19/02 Q1021 NOSIG
CLR,KCLR,CLIFF HATFIELD MEML,08/26,33.13133333,-115.5213889,,,,
CLS,KCLS,CHEHALIS-CENTRALIA,16/34,46.67702777,-122.98275,2023-12-27T22:35:00Z,4.0,VFR,KCLS 272235Z AUTO 11004KT 10SM BKN055 BKN070 11/08 A2979 RMK AO2
CLT,KCLT,CHARLOTTE/DOUGLAS INTL,18L/36R,35.21375,-80.94905555,2023-12-27T22:27:00Z,5.0,VFR,KCLT 272227Z 22005KT 10SM FEW014 SCT026 BKN230 14/12 A2979 RMK AO2 T01440122
CLW,KCLW,CLEARWATER AIR PARK,16/34,27.97721388,-82.75905694,2023-12-27T22:35:00Z,5.0,VFR,KCLW 272235Z AUTO 34005KT 10SM OVC110 16/13 A2997 RMK AO2
CMA,KCMA,CAMARILLO,08/26,34.21375833,-119.0943542,2023-12-27T21:55:00Z,4.0,VFR,KCMA 272155Z 25004KT 9SM CLR 18/12 A3012 RMK AO2 SLP207 T01780117 $
CMD,KCMD,CULLMAN RGNL/FOLSOM FLD,02/20,34.2687025,-86.85803527,2023-12-27T22:35:00Z,6.0,VFR,KCMD 272235Z AUTO 19006KT 10SM CLR 10/01 A2987 RMK AO2
CMH,KCMH,JOHN GLENN COLUMBUS INTL,10R/28L,39.99694666,-82.89215916,2023-12-27T21:51:00Z,5.0,IFR,KCMH 272151Z 01005KT 8SM OVC009 08/07 A2984 RMK AO2 SLP108 T00780067 $
CMI,KCMI,UNIVERSITY OF ILLINOIS/WILLARD,04/22,40.03856083,-88.27653916,2023-12-27T21:53:00Z,8.0,VFR,KCMI 272153Z 06008KT 10SM BKN075 OVC090 06/01 A2986 RMK AO2 SLP116 T00560011
CMR,KCMR,H A CLARK MEML FLD,18/36,35.30549361,-112.1943478,2023-12-27T22:00:00Z,9.0,VFR,NCMR 272200Z AUTO 07009KT //// ////// 28/19 Q1015
CMX,KCMX,HOUGHTON COUNTY MEML,13/31,47.16841638,-88.48906861,2023-12-27T21:53:00Z,8.0,MVFR,KCMX 272153Z AUTO 32008KT 10SM OVC012 03/00 A3006 RMK AO2 SLP190 T00330000
CMY,KCMY,SPARTA/FORT MC COY,01/19,43.95871611,-90.73784138,2023-12-27T21:55:00Z,0.0,VFR,KCMY 272155Z AUTO 00000KT 10SM CLR 04/M03 A3002 RMK AO2 SLP179 T00381028 $
CNB,KCNB,MYERS FLD,12/30,44.7295,-96.26602777,2023-12-27T22:35:00Z,0.0,IFR,KCNB 272235Z AUTO 00000KT 2SM -SN OVC015 01/00 A3007 RMK AO2 T00060002
CNC,KCNC,CHARITON MUNI,10/28,41.01961111,-93.35966666,2023-12-27T22:35:00Z,8.0,LIFR,KCNC 272235Z AUTO 36008KT 8SM OVC004 01/01 A2992 RMK AO2
CNH,KCNH,CLAREMONT MUNI,11/29,43.37050444,-72.36820694,,,,
CNI,KCNI,CHEROKEE COUNTY RGNL,05/23,34.31221916,-84.42215277,2023-12-27T22:35:00Z,0.0,VFR,KCNI 272235Z AUTO 00000KT 10SM CLR 09/05 A2988 RMK AO2 T00950051
CNK,KCNK,BLOSSER MUNI,12/30,39.54986777,-97.65204055,2023-12-27T21:55:00Z,12.0,VFR,KCNK 272155Z AUTO 35012KT 10SM OVC038 00/M06 A3007 RMK AO2 SLP195 T00001056
CNM,KCNM,CAVERN CITY AIR TRML,14L/32R,32.33744444,-104.2633611,2023-12-27T21:53:00Z,9.0,VFR,KCNM 272153Z AUTO 20009KT 10SM CLR 13/M04 A3010 RMK AO2 SLP181 T01281044
CNO,KCNO,CHINO,03/21,33.9747793,-117.6364828,2023-12-27T21:53:00Z,0.0,VFR,KCNO 272153Z 00000KT 10SM BKN230 BKN260 20/09 A3011 RMK AO2 SLP195 T02000089
CNP,KCNP,BILLY G RAY FLD,12/30,41.07747222,-102.4640556,,,,
CNU,KCNU,CHANUTE MARTIN JOHNSON,18/36,37.66788888,-95.48672222,2023-12-27T21:52:00Z,15.0,MVFR,KCNU 272152Z AUTO 32015G23KT 10SM OVC018 02/M03 A3001 RMK AO2 SLP167 T00171028
CNW,KCNW,TSTC WACO,17R/35L,31.63780555,-97.07413888,,,,
CNY,KCNY,CANYONLANDS RGNL,03/21,38.75763083,-109.7534625,2023-12-27T21:53:00Z,0.0,VFR,KCNY 272153Z AUTO 00000KT 10SM CLR 02/M08 A3027 RMK AO2 SLP286 T00171083
CO4,,COLORADO SPRINGS EAST,17R/35L,38.87425,-104.4098438,,,,
COD,KCOD,YELLOWSTONE RGNL,04/22,44.52019444,-109.0238056,2023-12-27T21:56:00Z,5.0,VFR,KCOD 272156Z AUTO 05005KT 10SM CLR M01/M06 A3018 RMK AO2 SLP263 T10111061 FZRANO
COE,KCOE,COEUR D'ALENE/PAPPY BOYINGTON FLD,02/20,47.77430555,-116.8195833,2023-12-27T21:56:00Z,12.0,VFR,KCOE 272156Z AUTO 03012KT 10SM CLR 02/M01 A3004 RMK AO2 SLP211 T00171006 FZRANO PNO $
COI,KCOI,MERRITT ISLAND,11/29,28.34161111,-80.68547222,,,,
COM,KCOM,COLEMAN MUNI,15/33,31.84113888,-99.40361111,2023-12-27T22:35:00Z,7.0,VFR,KCOM 272235Z AUTO 34007KT 10SM CLR 12/00 A3008 RMK AO2 T01171002
CON,KCON,CONCORD MUNI,17/35,43.20272222,-71.50227777,2023-12-27T22:33:00Z,0.0,LIFR,KCON 272233Z AUTO 00000KT 1/2SM FG VV003 07/07 A3004 RMK AO2 T00670067
COQ,KCOQ,CLOQUET/CARLTON COUNTY,18/36,46.70111111,-92.50355555,2023-12-27T22:35:00Z,0.0,IFR,KCOQ 272235Z AUTO 00000KT 7SM BKN005 OVC010 M01/M01 A3006 RMK AO2 TSNO
COS,KCOS,CITY OF COLORADO SPRINGS MUNI,17L/35R,38.80581666,-104.7007764,2023-12-27T21:54:00Z,15.0,VFR,KCOS 272154Z 01015KT 10SM FEW080 FEW110 SCT200 05/M10 A3011 RMK AO2 PK WND 35029/2103 SLP201 CCSL SW-W T00501100
COT,KCOT,COTULLA-LA SALLE COUNTY,13/31,28.45572222,-99.21722222,2023-12-27T21:53:00Z,3.0,VFR,KCOT 272153Z AUTO VRB03KT 10SM CLR 22/01 A3001 RMK AO2 SLP158 T02170006
COU,KCOU,COLUMBIA RGNL,13/31,38.81773527,-92.21779194,2023-12-27T21:54:00Z,5.0,IFR,KCOU 272154Z 28005KT 2SM -SN BR BKN012 OVC023 01/M01 A2985 RMK AO2 SLP113 P0001 T00061006
CPC,KCPC,COLUMBUS COUNTY MUNI,06/24,34.27287055,-78.71498722,2023-12-27T22:30:00Z,3.0,MVFR,KCPC 272230Z AUTO 27003KT 10SM BKN012 OVC020 18/16 A2977 RMK AO2 T01840157
CPF,KCPF,WENDELL H FORD,06/24,37.38736111,-83.26161111,2023-12-27T22:35:00Z,0.0,IFR,KCPF 272235Z AUTO 00000KT 10SM OVC006 07/07 A2986 RMK AO2
CPF2,,BAR RIVER,11/29,46.42027777,-84.09222222,,,,
CPK,KCPK,CHESAPEAKE RGNL,05/23,36.6656175,-76.32065583,2023-12-27T22:00:00Z,,VFR,NCPK 272200Z AUTO NIL
CPM,KCPM,COMPTON/WOODLEY,07L/25R,33.88991666,-118.2438056,,,,
CPP,KCPP,GREENE COUNTY RGNL,07/25,33.59797,-83.13826027,2023-12-27T22:35:00Z,3.0,VFR,KCPP 272235Z AUTO 21003KT 10SM CLR 14/08 A2984 RMK AO2
CPR,KCPR,CASPER/NATRONA COUNTY INTL,03/21,42.90586111,-106.4636389,2023-12-27T21:53:00Z,16.0,VFR,KCPR 272153Z 21016KT 10SM CLR 01/M10 A3020 RMK AO2 SLP257 T00061100
CPS,KCPS,ST LOUIS DOWNTOWN,05/23,38.57036111,-90.15508333,2023-12-27T22:38:00Z,0.0,IFR,KCPS 272238Z AUTO 00000KT 2SM -RA BR BKN007 OVC015 01/01 A2987 RMK AO2 P0001 T00110006
CPT,KCPT,CLEBURNE RGNL,15/33,32.35375,-97.43375,2023-12-27T22:35:00Z,13.0,VFR,KCPT 272235Z AUTO 32013KT 10SM CLR 10/M01 A3008 RMK A01
CPU,KCPU,CALAVERAS COUNTY-MAURY RASMUSSEN FLD,13/31,38.14611111,-120.6481667,2023-12-27T22:35:00Z,7.0,VFR,KCPU 272235Z AUTO 16007KT 10SM CLR 16/05 A3006 RMK AO2 T01600046
CPX,TJCP,BENJAMIN RIVERA NORIEGA,13/31,18.31294888,-65.30388027,,,,
CPZ3,,MOUNTAIN VIEW,06/24,44.06944444,-77.33805555,,,,
CQA,KCQA,LAKEFIELD,08/26,40.48427777,-84.55819444,,,,
CQB,KCQB,CHANDLER RGNL,17/35,35.72408333,-96.82027777,2023-12-27T22:35:00Z,12.0,VFR,KCQB 272235Z AUTO 31012G15KT 10SM CLR 04/M05 A3008 RMK AO2 T00361054
CQF,KCQF,H L SONNY CALLAHAN,01/19,30.4605,-87.87702777,2023-12-27T22:35:00Z,0.0,VFR,KCQF 272235Z AUTO 00000KT 10SM OVC047 12/08 A2996 RMK AO2
CQM,KCQM,COOK MUNI,13/31,47.82228169,-92.689525,2023-12-27T22:35:00Z,0.0,IFR,KCQM 272235Z AUTO 00000KT 10SM OVC009 01/00 A3009 RMK AO2
CQW,KCQW,CHERAW MUNI/LYNCH BELLINGER FLD,08/26,34.71286111,-79.957,2023-12-27T22:35:00Z,5.0,MVFR,KCQW 272235Z AUTO 30005KT 10SM OVC024 17/14 A2979 RMK AO2
CQX,KCQX,CHATHAM MUNI,06/24,41.68830416,-69.98965194,2023-12-27T22:41:00Z,3.0,LIFR,KCQX 272241Z AUTO 34003KT 1 3/4SM BR OVC002 09/08 A3005 RMK AO2 T00890083
CRC,PACR,CIRCLE CITY,15/33,65.82791666,-144.0761972,,,,
CRE,KCRE,GRAND STRAND,05/23,33.81175,-78.72394444,2023-12-27T22:37:00Z,7.0,VFR,KCRE 272237Z 27007KT 10SM SCT023 SCT027 18/15 A2977 RMK AO1 T01780150
CRG,KCRG,JACKSONVILLE EXEC AT CRAIG,05/23,30.33633333,-81.51444444,2023-12-27T21:53:00Z,5.0,VFR,KCRG 272153Z 26005KT 10SM CLR 17/08 A2992 RMK AO2 SLP131 T01720083
CRP,KCRP,CORPUS CHRISTI INTL,18/36,27.77219444,-97.50241666,2023-12-27T21:51:00Z,4.0,VFR,KCRP 272151Z 36004KT 10SM FEW030 FEW140 FEW250 23/04 A2998 RMK AO2 SLP153 T02330039
CRQ,KCRQ,MC CLELLAN-PALOMAR,H1,33.12825,-117.2800833,2023-12-27T21:53:00Z,6.0,VFR,KCRQ 272153Z 28006KT 10SM CLR A3011 RMK AO2 SLPNO $
CRS,KCRS,C DAVID CAMPBELL FLD-CORSICANA MUNI,02/20,32.02805555,-96.40058333,2023-12-27T21:53:00Z,15.0,VFR,KCRS 272153Z AUTO 29015G20KT 10SM CLR 12/M01 A3006 RMK AO2 SLP181 T01221006
CRT,KCRT,Z M JACK STELL FLD,05/23,33.17833333,-91.88019444,,,,
CRW,KCRW,WEST VIRGINIA INTL YEAGER,05/23,38.37601305,-81.59289361,2023-12-27T21:54:00Z,5.0,IFR,KCRW 272154Z VRB05KT 1SM -DZ BR BKN009 OVC018 09/09 A2984 RMK AO2 SLP105 P0000 T00890089
CRX,KCRX,ROSCOE TURNER,18/36,34.91496722,-88.60348444,2023-12-27T22:35:00Z,11.0,VFR,KCRX 272235Z AUTO 26011G17KT 230V300 10SM OVC060 11/01 A2987 RMK AO2
CRZ,KCRZ,CORNING MUNI,18/36,40.994125,-94.75502972,,,,
CSB,KCSB,CAMBRIDGE MUNI,15/33,40.30658194,-100.1620722,2023-12-27T22:35:00Z,11.0,MVFR,KCSB 272235Z AUTO 34011KT 7SM UP BKN022 BKN029 OVC036 01/M00 A3006 RMK AO2
CSG,KCSG,COLUMBUS,06/24,32.51633333,-84.93886111,2023-12-27T21:51:00Z,7.0,VFR,KCSG 272151Z 29007KT 10SM CLR 15/01 A2990 RMK AO2 SLP123 T01500006
CSM,KCSM,CLINTON/SHERMAN,17R/35L,35.33983916,-99.20049944,2023-12-27T21:53:00Z,10.0,VFR,KCSM 272153Z 33010KT 10SM OVC035 06/M01 A3007 RMK AO2 SLP190 T00561011
CSQ,KCSQ,CRESTON MUNI,04/22,41.02144444,-94.36330555,2023-12-27T22:35:00Z,11.0,MVFR,KCSQ 272235Z AUTO 35011KT 6SM -UP OVC010 01/00 A2996 RMK AO2
CSV,KCSV,CROSSVILLE MEML-WHITSON FLD,08/26,35.95129138,-85.08497722,2023-12-27T21:53:00Z,7.0,VFR,KCSV 272153Z AUTO 19007KT 10SM BKN065 11/M01 A2983 RMK AO2 SLP098 T01061006
CTB,KCTB,CUT BANK INTL,05/23,48.60835475,-112.3761508,2023-12-27T21:56:00Z,11.0,VFR,KCTB 272156Z AUTO 13011KT 10SM CLR 06/M07 A3001 RMK AO2 SLP187 T00561067
CTJ,KCTJ,WEST GEORGIA RGNL - O V GRAY FLD,17/35,33.63169644,-85.15226413,2023-12-27T22:35:00Z,0.0,VFR,KCTJ 272235Z AUTO 00000KT 10SM CLR 09/04 A2992 RMK AO2 T00890044
CTK,KCTK,INGERSOLL,09/27,40.56908333,-90.07483333,,,,
CTY,KCTY,CROSS CITY,13/31,29.63552777,-83.10475,2023-12-27T22:35:00Z,4.0,VFR,KCTY 272235Z AUTO 27004KT 10SM CLR 14/12 A2995 RMK AO2
CTZ,KCTZ,CLINTON-SAMPSON COUNTY,06/24,34.97493527,-78.36563,2023-12-27T22:25:00Z,5.0,MVFR,KCTZ 272225Z AUTO 25005KT 10SM BKN013 BKN026 OVC046 19/19 A2976 RMK AO2 T01850185
CUB,KCUB,JIM HAMILTON L B OWENS,13/31,33.97047222,-80.99525,2023-12-27T21:53:00Z,3.0,VFR,KCUB 272153Z AUTO 29003KT 10SM CLR 16/12 A2982 RMK AO2 SLP097 T01560122
CUH,KCUH,CUSHING MUNI,11/29,35.95002777,-96.77341666,2023-12-27T22:35:00Z,7.0,VFR,KCUH 272235Z AUTO 33007KT 10SM CLR 03/M06 A3006 RMK AO2 T00331057
CUL,KCUL,CARMI MUNI,18/36,38.08947916,-88.12306111,2023-12-27T22:35:00Z,6.0,VFR,KCUL 272235Z AUTO 12006KT 10SM SCT047 OVC065 09/03 A2982 RMK AO2 T00870025
CUT,KCUT,CUSTER COUNTY,08/26,43.73366055,-103.6194983,2023-12-27T21:53:00Z,8.0,VFR,KCUT 272153Z AUTO 34008KT 10SM CLR 03/M11 A3011 RMK AO2 SLP208 T00331111
CVB,KCVB,CASTROVILLE MUNI,16/34,29.34238888,-98.85122222,2023-12-27T22:35:00Z,7.0,VFR,KCVB 272235Z AUTO 29007KT 7SM CLR 22/M06 A3002 RMK AO2 T02161062
CVC,KCVC,COVINGTON MUNI,10/28,33.6322475,-83.84661888,2023-12-27T22:35:00Z,3.0,VFR,KCVC 272235Z AUTO 29003KT 10SM CLR 12/06 A2987 RMK AO2
CVG,KCVG,CINCINNATI/NORTHERN KENTUCKY INTL,18L/36R,39.0488375,-84.66782083,2023-12-27T21:52:00Z,3.0,VFR,KCVG 272152Z 04003KT 10SM BKN190 09/01 A2985 RMK AO2 SLP108 T00940006 $
CVH,KCVH,HOLLISTER MUNI,13/31,36.8933475,-121.4102736,2023-12-27T22:35:00Z,8.0,VFR,KCVH 272235Z AUTO 16008KT 10SM FEW075 FEW100 19/09 A3006 RMK A01
CVK,KCVK,SHARP COUNTY RGNL,04/22,36.26488888,-91.56266666,,,,
CVN,KCVN,CLOVIS RGNL,08/26,34.42659025,-103.07758,2023-12-27T21:56:00Z,17.0,VFR,KCVN 272156Z AUTO 34017G21KT 10SM CLR 11/M04 A3010 RMK AO2 SLP201 T01061039
CVO,KCVO,CORVALLIS MUNI,10/28,44.49687583,-123.2894572,2023-12-27T21:56:00Z,4.0,VFR,KCVO 272156Z AUTO 14004KT 10SM BKN055 OVC075 10/09 A2982 RMK AO2 RAE51 SLP099 P0000 T01000089
CVX,KCVX,CHARLEVOIX MUNI,09/27,45.30486111,-85.27530555,2023-12-27T22:35:00Z,7.0,MVFR,KCVX 272235Z AUTO 01007KT 10SM OVC011 04/03 A3000 RMK AO2 T00400025
CW0,,COW CREEK,09/27,47.9475,-109.0080556,,,,
CWA,KCWA,CENTRAL WISCONSIN,17/35,44.77778305,-89.66591111,2023-12-27T21:47:00Z,6.0,VFR,KCWA 272147Z 02006KT 10SM BKN160 03/M06 A3002
CWC,KCWC,KICKAPOO DOWNTOWN,17/35,33.86061666,-98.49039861,2023-12-27T22:35:00Z,13.0,VFR,KCWC 272235Z AUTO 33013G16KT 10SM BKN044 BKN050 09/M01 A3010 RMK AO2 T00881014
CWF,KCWF,CHENNAULT INTL,15/33,30.21058694,-93.14318916,2023-12-27T21:50:00Z,9.0,VFR,KCWF 272150Z 29009KT 10SM CLR 19/01 A2997
CWI,KCWI,CLINTON MUNI,03/21,41.83075,-90.32897222,2023-12-27T21:56:00Z,10.0,VFR,KCWI 272156Z AUTO 04010KT 10SM CLR 04/01 A2995 RMK AO2 SLP149 T00390011
CWV,KCWV,CLAXTON-EVANS COUNTY,10/28,32.19505638,-81.8693175,2023-12-27T22:35:00Z,0.0,VFR,KCWV 272235Z AUTO 00000KT 7SM CLR 15/11 A2988 RMK AO2 T01540113
CXC,,CHITINA,13/31,61.58320277,-144.4298028,,,,
CXE,KCXE,CHASE CITY MUNI,18/36,36.78833555,-78.50155361,2023-12-27T22:35:00Z,0.0,MVFR,KCXE 272235Z AUTO 00000KT 5SM SCT003 BKN030 OVC037 15/15 A2975 RMK AO1 P0001 T01470147
CXF,PACX,COLDFOOT,02/20,67.25217083,-150.2039081,,,,
CXL,KCXL,CALEXICO INTL,08/26,32.66744444,-115.5175833,,,,
CXO,KCXO,CONROE/NORTH HOUSTON RGNL,14/32,30.35339552,-95.41508194,2023-12-27T21:53:00Z,9.0,VFR,KCXO 272153Z 30009KT 10SM CLR 17/00 A3000 RMK AO2 SLP158 T01670000
CXP,KCXP,CARSON CITY,09/27,39.19230416,-119.7325706,2023-12-27T22:35:00Z,17.0,VFR,KCXP 272235Z AUTO 07017G23KT 10SM CLR 13/M01 A3003 RMK AO2
CXU,KCXU,CAMILLA-MITCHELL COUNTY,08/26,31.21316666,-84.23522222,2023-12-27T22:35:00Z,0.0,VFR,KCXU 272235Z AUTO 00000KT 10SM CLR 16/08 A2993 RMK AO1 T01600077
CXW,KCXW,CONWAY RGNL,04/22,35.01988888,-92.55511111,2023-12-27T22:35:00Z,13.0,VFR,KCXW 272235Z AUTO 29013G23KT 10SM OVC049 06/M03 A2998 RMK A01
CXY,KCXY,CAPITAL CITY,12/30,40.21713888,-76.85136111,2023-12-27T21:56:00Z,0.0,IFR,KCXY 272156Z 00000KT 1 1/2SM -RA BR OVC006 11/09 A2988 RMK AO2 SLP119 P0005 T01060089
CYAM,CYAM,SAULT STE MARIE,04/22,46.485,-84.50944444,,,,
CYAZ,CYAZ,TOFINO/LONG BEACH,11/29,49.08222222,-125.7725,,,,
CYBD,CYBD,BELLA COOLA,05/23,52.3875,-126.5958333,,,,
CYCD,CYCD,NANAIMO,16/34,49.05444444,-123.87,,,,
CYDA,CYDA,DAWSON CITY,02/20,64.04222222,-139.1302778,,,,
CYDB,CYDB,BURWASH,10/28,61.37055555,-139.04,,,,
CYDL,CYDL,DEASE LAKE,02/20,58.42222222,-130.0313889,,,,
CYDM,CYDM,ROSS RIVER,08/26,61.97055555,-132.4222222,,,,
CYEY,CYEY,AMOS/MAGNY,14/32,48.56388888,-78.24972222,,,,
CYHT,CYHT,HAINES JUNCTION,04/22,60.78916666,-137.5455556,,,,
CYIB,CYIB,ATIKOKAN MUNI,04/22,48.77388888,-91.63861111,,,,
CYJN,CYJN,ST JEAN,06/24,45.29444444,-73.28111111,,,,
CYKD,CYKD,AKLAVIK,13/31,68.22333333,-135.0055556,,,,
CYLS,,LAKE SIMCOE RGNL,10W/28W,44.48527777,-79.55555555,,,,
CYMA,,MAYO,07/25,63.61638888,-135.8683333,,,,
CYND,CYND,OTTAWA/GATINEAU,09/27,45.52138888,-75.56416666,,,,
CYO,KCYO,PICKAWAY COUNTY MEML,01/19,39.516,-82.98213888,,,,
CYOC,CYOC,OLD CROW,03/21,67.57,-139.84,,,,
CYOO,CYOO,OSHAWA,12/30,43.92277777,-78.895,,,,
CYOS,CYOS,OWEN SOUND BILLY BISHOP RGNL,18/36,44.59027777,-80.8375,,,,
CYOW,CYOW,OTTAWA/MACDONALD-CARTIER INTL,07/25,45.3225,-75.66916666,,,,
CYPG,CYPG,PORTAGE LA PRAIRIE,13R/31L,49.90277777,-98.27472222,,,,
CYPK,CYPK,PITT MEADOWS,18/36,49.21611111,-122.7127778,,,,
CYPQ,CYPQ,PETERBOROUGH,09/27,44.23,-78.36333333,,,,
CYPR,CYPR,PRINCE RUPERT,13/31,54.28583333,-130.4447222,,,,
CYPT,CYPT,PELEE ISLAND,09/27,41.77833333,-82.67805555,,,,
CYPU,,PUNTZI MOUNTAIN,05/23,52.11277777,-124.1447222,,,,
CYPW,CYPW,POWELL RIVER,09/27,49.83416666,-124.5002778,,,,
CYPZ,CYPZ,BURNS LAKE,11/29,54.37638888,-125.9513889,,,,
CYQA,CYQA,MUSKOKA,18/36,44.97472222,-79.30333333,,,,
CYQB,CYQB,QUEBEC/JEAN LESAGE INTL,06/24,46.79111111,-71.39333333,,,,
CYQG,CYQG,WINDSOR,12/30,42.27586419,-82.95764852,,,,
CYQH,CYQH,WATSON LAKE,08/26,60.11638888,-128.8225,,,,
CYQS,CYQS,ST THOMAS MUNI,03/21,42.77,-81.11083333,,,,
CYQT,CYQT,THUNDER BAY,07/25,48.37194444,-89.32388888,,,,
CYRI,CYRI,RIVIERE-DU-LOUP,05/23,47.76444444,-69.58472222,,,,
CYRO,CYRO,ROCKCLIFFE,09/27,45.46027777,-75.64611111,,,,
CYRP,CYRP,CARP,10/28,45.31916666,-76.02222222,,,,
CYRQ,CYRQ,TROIS-RIVIERES,05/23,46.35277777,-72.67944444,,,,
CYS,KCYS,CHEYENNE RGNL/JERRY OLSON FLD,09/27,41.15563888,-104.8104722,2023-12-27T21:53:00Z,21.0,VFR,KCYS 272153Z 33021G31KT 10SM CLR 02/M09 A3013 RMK AO2 PK WND 32032/2139 SLP211 T00221089
CYSB,CYSB,SUDBURY,04/22,46.625,-80.79888888,,,,
CYSC,CYSC,SHERBROOKE,14/32,45.43805555,-71.69055555,,,,
CYSG,CYSG,ST GEORGES,06/24,46.09638888,-70.71472222,,,,
CYSH,CYSH,MONTAGUE/RUSS BEACH,06/24,44.94583333,-75.94055555,,,,
CYSJ,CYSJ,ST JOHN,05/23,45.31611111,-65.89027777,,,,
CYSL,CYSL,ST LEONARD,18/36,47.1575,-67.83472222,,,,
CYSN,CYSN,ST CATHARINES/NIAGARA DISTRICT,11/29,43.19166666,-79.17166666,,,,
CYSQ,CYSQ,ATLIN,18/36,59.57638888,-133.6713889,,,,
CYSU,CYSU,SUMMERSIDE,06/24,46.44055555,-63.83361111,,,,
CYTA,CYTA,PEMBROKE,17/35,45.86444444,-77.25166666,,,,
CYTS,CYTS,TIMMINS,03/21,48.56972222,-81.37666666,,,,
CYTZ,CYTZ,TORONTO/CITY CENTRE,06/24,43.6275,-79.39611111,,,,
CYUY,CYUY,ROUYN-NORANDA,08/26,48.20611111,-78.83555555,,,,
CYVO,CYVO,VAL-D'OR,18/36,48.05333333,-77.78277777,,,,
CYVR,CYVR,VANCOUVER INTL,08R/26L,49.19472222,-123.1838889,,,,
CYVV,CYVV,WIARTON,05/23,44.74583333,-81.10722222,,,,
CYW,KCYW,CLAY CENTER MUNI,17/35,39.38713888,-97.15722222,,,,
CYXQ,CYXQ,BEAVER CREEK,14/32,62.41027777,-140.8688889,,,,
CYXT,CYXT,TERRACE,15/33,54.46861111,-128.5783333,,,,
CYXX,,ABBOTSFORD,01/19,49.02527777,-122.36,,,,
CYXY,CYXY,WHITEHORSE/ERIK NIELSEN INTL,13R/31L,60.70944444,-135.0672222,,,,
CYYB,CYYB,NORTH BAY,18/36,46.36361111,-79.42277777,,,,
CYYD,CYYD,SMITHERS,15/33,54.82527777,-127.1827778,,,,
CYYF,CYYF,PENTICTON,16/34,49.46305555,-119.6022222,,,,
CYYJ,CYYJ,VICTORIA INTL,09/27,48.6480578,-123.4274429,,,,
CYYZ,CYYZ,LESTER B PEARSON INTL,05/23,43.67722222,-79.63055555,,,,
CYZP,CYZP,SANDSPIT,12/30,53.25416666,-131.8138889,,,,
CYZR,CYZR,SARNIA CHRIS HADFIELD,14/32,42.99944444,-82.30888888,,,,
CYZT,CYZT,PORT HARDY,07/25,50.68055555,-127.3666667,,,,
CYZW,CYZW,TESLIN,08/26,60.17305555,-132.7416667,,,,
CZBB,CZBB,VANCOUVER/BOUNDARY BAY,12/30,49.07416666,-123.0075,,,,
CZD,KCZD,COZAD MUNI,18/36,40.8695925,-100.0042514,,,,
CZG,KCZG,TRI-CITIES,03/21,42.07853416,-76.09633055,,,,
CZK,KCZK,CASCADE LOCKS STATE,06/24,45.67694444,-121.8788889,,,,
CZL,KCZL,TOM B DAVID FLD,17/35,34.4554025,-84.93915527,,,,
CZMT,,MASSET,13/31,54.02722222,-132.125,,,,
CZN,,CHISANA,12/30,62.07175,-142.04935,,,,
CZO,,CHISTOCHINA,02/20,62.56233333,-144.6724444,,,,
CZPC,CZPC,PINCHER CREEK,07/25,49.52027777,-113.9972222,,,,
CZST,CZST,STEWART,18/36,55.93333333,-129.9833333,,,,
CZT,KCZT,DIMMIT COUNTY,13/31,28.52225,-99.82363888,2023-12-27T22:30:00Z,9.0,VFR,KCZT 272230Z AUTO 33009KT 10SM CLR 21/M05 A3002 RMK AO2
D00,,NORMAN COUNTY ADA/TWIN VALLEY,15/33,47.2604675,-96.40026388,,,,
D02,,OSAGE MUNI,17/35,43.29233333,-92.79561111,,,,
D03,,KULM MUNI,12/30,46.30676388,-98.93883333,,,,
D05,,GARRISON MUNI,13/31,47.65604358,-101.4368016,,,,
D06,,MINTO MUNI,17/35,48.29260277,-97.39402222,,,,
D07,,FAITH MUNI,13/31,45.03516666,-102.0206667,2023-12-27T21:56:00Z,7.0,VFR,KD07 272156Z AUTO 32007KT 01/M03 A3013 RMK AO1 SLP235 T00061028
D09,,BOTTINEAU MUNI,03/21,48.83047222,-100.4173056,2023-12-27T22:35:00Z,9.0,VFR,KD09 272235Z AUTO 30009KT 10SM CLR M02/M07 A3014 RMK AO2
D11,,OJIBWA AIRPARK,05/23,43.72064861,-85.00224305,,,,
D14,,FERTILE MUNI,14/32,47.55185777,-96.29215527,,,,
D15,,LAKE ISABELLA - CAL BREWER MEML,11/29,43.64447277,-84.98196833,,,,
D17,,WESTWINDS,04/22,38.75847222,-108.1484722,,,,
D20,,YALE,09/27,43.11105138,-82.78671805,,,,
D23,,ARCADE TRI-COUNTY,09/27,42.56672861,-78.42612944,,,,
D24,,FESSENDEN-STREIBEL MUNI,08/26,47.65972388,-99.66095555,,,,
D25,,MANITOWISH WATERS,14/32,46.12022705,-89.88219997,2023-12-27T22:35:00Z,0.0,VFR,KD25 272235Z AUTO 00000KT 10SM CLR M02/M05 A3005 RMK AO2 T10201046
D29,,DRAYTON MUNI,17/35,48.61851388,-97.17589722,,,,
D31,,LEEDS MUNI,09/27,48.28500694,-99.40219722,,,,
D32,,STARBUCK MUNI,15/33,45.5991625,-95.53615416,,,,
D37,,WARREN MUNI,12/30,48.19116666,-96.71130555,,,,
D39,,SAUK CENTRE MUNI,14/32,45.70660266,-94.93324647,2023-12-27T22:35:00Z,0.0,LIFR,KD39 272235Z AUTO 00000KT 4SM BR OVC004 00/00 A3006 RMK AO2 T00000000
D41,,STEPHEN MUNI,17/35,48.45831222,-96.86283888,,,,
D42,,SPRINGFIELD MUNI,13/31,44.23105555,-94.99891666,,,,
D47,,COUGAR RANCH,02/20,44.74115277,-114.9186083,,,,
D49,,COLUMBUS MUNI,07/25,48.8994125,-102.7922903,,,,
D50,,CROSBY MUNI,12/30,48.92829927,-103.2975809,,,,
D51,,CLARENCE AERODROME,10/28,43.06894722,-78.69182083,,,,
D52,,GENESEO,05/23,42.79867361,-77.84250333,,,,
D54,,WEST FARGO MUNI,18/36,46.90038055,-96.91852222,,,,
D55,,ROBERTSON FLD,14/32,48.75313063,-98.39376916,2023-12-27T22:35:00Z,0.0,VFR,KD55 272235Z AUTO 00000KT 10SM CLR M02/M02 A3013 RMK AO2
D56,,MAYVILLE MUNI,18/36,47.47684166,-97.32808194,,,,
D57,,GLEN ULLIN RGNL,11/29,46.81430555,-101.8651944,2023-12-27T22:35:00Z,5.0,VFR,KD57 272235Z AUTO 29005KT 10SM CLR 03/M07 A3015 RMK AO2
D58,,TIMBER LAKE MUNI,12/30,45.4149875,-101.0832014,,,,
D59,,GOWANDA,09/27,42.50394972,-78.95059,,,,
D60,,TIOGA MUNI,12/30,48.38027777,-102.8973611,2023-12-27T22:35:00Z,5.0,VFR,KD60 272235Z AUTO 24005KT 10SM CLR M01/M06 A3017 RMK AO2
D61,,TOWNER MUNI,16/34,48.35919469,-100.3956123,,,,
D63,,DINSMORE,09/27,40.49204888,-123.5982214,,,,
D64,,WESTHOPE MUNI,14/32,48.91307638,-101.0337222,,,,
D65,,CORSICA MUNI,17/35,43.43346388,-98.39877083,,,,
D66,,DELTA JUNCTION,07/25,64.05011666,-145.7224653,,,,
D73,,CY NUNNALLY MEML,03/21,33.78252777,-83.69280555,2023-12-27T22:35:00Z,4.0,VFR,KD73 272235Z AUTO 28004KT 10SM CLR 13/05 A2987 RMK AO2 T01270054
D74,,CHORMAN,16/34,38.84954861,-75.61278055,,,,
D76,PFNO,ROBERT/BOB/CURTIS MEML,06/24,66.81752777,-161.02225,,,,
D79,,DART,06/24,42.26811333,-79.48171333,,,,
D81,,RED LAKE FALLS MUNI,15/33,47.82651527,-96.25977916,,,,
D82,,OVID,01R/19L,42.65479277,-76.79634277,,,,
D83,,BOONVILLE,13/31,39.0139528,-123.3815533,,,,
D86,,SEQUOIA FLD,13/31,36.44791666,-119.3187222,,,,
D88,,PRATT'S EASTERN DIVIDE,08/26,42.15005638,-79.68588111,,,,
D90,,MANCELONA MUNI,10/28,44.92366063,-85.06764847,,,,
D91,,SPENCERPORT AIRPARK,E/W,43.16950555,-77.81834166,,,,
D95,,DUPONT/LAPEER,18/36,43.06647222,-83.27155555,2023-12-27T22:35:00Z,5.0,IFR,KD95 272235Z AUTO 34005KT 10SM OVC005 07/07 A2986 RMK AO2 T00720072
D98,,ROMEO STATE,18/36,42.79633055,-82.97424861,,,,
DAB,KDAB,DAYTONA BEACH INTL,07L/25R,29.17990888,-81.05804222,2023-12-27T21:53:00Z,6.0,VFR,KDAB 272153Z 28006KT 10SM BKN150 18/11 A2992 RMK AO2 SLP132 T01830106
DAF,KDAF,NECEDAH,18/36,44.03344444,-90.08511111,,,,
DAG,KDAG,BARSTOW-DAGGETT,04/22,34.85372222,-116.7866944,2023-12-27T21:50:00Z,4.0,VFR,KDAG 272150Z AUTO 08004KT 10SM CLR 16/03 A3014 RMK AO2 SLP200 T01560033
DAL,KDAL,DALLAS LOVE FLD,13L/31R,32.84594472,-96.85087666,2023-12-27T21:53:00Z,14.0,VFR,KDAL 272153Z 33014G20KT 10SM FEW050 10/M02 A3006 RMK AO2 SLP178 T01001017
DAN,KDAN,DANVILLE RGNL,13/31,36.57247222,-79.33625,2023-12-27T22:00:00Z,3.0,IFR,KDAN 272200Z AUTO 30003KT 10SM BKN007 OVC011 14/13 A2978 RMK AO2 T01390133
DAW,KDAW,SKYHAVEN,15/33,43.28423483,-70.9295495,2023-12-27T21:51:00Z,3.0,LIFR,KDAW 272151Z AUTO 09003KT 3/4SM BR VV002 08/07 A3005 RMK AO2 SLP176 T00830067
DAY,KDAY,JAMES M COX DAYTON INTL,18/36,39.90225222,-84.21941222,2023-12-27T21:56:00Z,4.0,VFR,KDAY 272156Z 01004KT 10SM FEW012 FEW100 SCT240 07/02 A2986 RMK AO2 SLP116 T00720022
DBN,KDBN,W H 'BUD' BARRON,02/20,32.56472222,-82.98497222,2023-12-27T22:35:00Z,0.0,VFR,KDBN 272235Z AUTO 00000KT 10SM CLR 17/03 A2991 RMK AO2
DBQ,KDBQ,DUBUQUE RGNL,13/31,42.402,-90.70947222,2023-12-27T21:53:00Z,8.0,VFR,KDBQ 272153Z 04008KT 10SM OVC060 04/M01 A2996 RMK AO2 SLP155 T00391011
DCA,KDCA,RONALD REAGAN WASHINGTON NTL,15/33,38.85144027,-77.03772138,2023-12-27T22:33:00Z,8.0,LIFR,KDCA 272233Z 05008KT 3/4SM R01/3000VP6000FT RA BR SCT005 SCT022 OVC028 12/12 A2979 RMK AO2 P0026 T01220117 $
DCK,PODC,DAHL CREEK,08/26,66.94256141,-156.8913686,,,,
DCM,KDCM,CHESTER CATAWBA RGNL,17/35,34.78933333,-81.19577777,2023-12-27T22:15:00Z,0.0,VFR,KDCM 272215Z AUTO 00000KT 10SM CLR 13/13 A2981 RMK AO2
DCU,KDCU,PRYOR FLD RGNL,18/36,34.65405555,-86.94536111,2023-12-27T21:53:00Z,9.0,VFR,KDCU 272153Z AUTO 19009KT 10SM FEW070 13/00 A2985 RMK AO2 SLP108 T01330000 $
DCY,KDCY,DAVIESS COUNTY,09/27,38.70076611,-87.13129027,2023-12-27T22:00:00Z,0.0,VFR,MDCY 272200Z 00000KT 9999 FEW020 27/24 Q1013
DDC,KDDC,DODGE CITY RGNL,02/20,37.76311111,-99.96541666,2023-12-27T22:20:00Z,6.0,VFR,EDDC 272220Z AUTO 16006KT CAVOK 06/01 Q1015
DDH,KDDH,WILLIAM H MORSE STATE,13/31,42.89133027,-73.24640416,2023-12-27T22:20:00Z,12.0,VFR,EDDH 272220Z AUTO 17012KT 9999 FEW010 06/05 Q1006 TEMPO 18015G25KT 4000 RA BKN012
DEC,KDEC,DECATUR,12/30,39.8345625,-88.86568916,2023-12-27T21:54:00Z,7.0,VFR,KDEC 272154Z 09007KT 10SM OVC070 05/01 A2986 RMK AO2 SLP116 T00500011
DED,KDED,DELAND MUNI-SIDNEY H TAYLOR FLD,12/30,29.06702777,-81.28375,2023-12-27T22:15:00Z,3.0,VFR,KDED 272215Z AUTO 26003KT 10SM CLR 18/10 A2995 RMK AO2 T01790097
DEE,PADE,DEERING,03/21,66.06911111,-162.7670556,,,,
DEH,KDEH,DECORAH MUNI,11/29,43.2755,-91.73938888,2023-12-27T22:35:00Z,6.0,VFR,KDEH 272235Z AUTO 02006KT 10SM SCT039 OVC060 02/01 A3001 RMK AO2
DEN,KDEN,DENVER INTL,17L/35R,39.86166666,-104.6731667,2023-12-27T21:53:00Z,19.0,VFR,KDEN 272153Z 36019G27KT 10SM FEW090 FEW140 FEW200 07/M11 A3012 RMK AO2 PK WND 01034/2110 SLP187 T00721111
DEQ,KDEQ,J LYNN HELMS SEVIER COUNTY,08/26,34.047,-94.39936111,2023-12-27T21:53:00Z,8.0,VFR,KDEQ 272153Z AUTO 32008G18KT 10SM CLR 07/M04 A3000 RMK AO2 SLP160 T00721039
DET,KDET,COLEMAN A YOUNG MUNI,15/33,42.4093275,-83.01017388,2023-12-27T22:35:00Z,4.0,IFR,KDET 272235Z 32004KT 4SM -RA BR OVC005 09/08 A2984 RMK AO2 P0004 T00940078
DEW,KDEW,DEER PARK,05/23,47.96705472,-117.4285867,2023-12-27T21:53:00Z,,VFR,KDEW 272153Z AUTO 10SM FEW100 03/M02 A3002 RMK AO2 SLP182 T00331017
DFI,KDFI,DEFIANCE MEML,12/30,41.3375,-84.42880555,2023-12-27T21:53:00Z,6.0,MVFR,KDFI 272153Z AUTO 33006KT 10SM OVC021 07/04 A2987 RMK AO2 SLP120 T00720039
DFW,KDFW,DALLAS-FORT WORTH INTL,18L/36R,32.89723305,-97.03769472,2023-12-27T21:53:00Z,14.0,VFR,KDFW 272153Z 32014G19KT 10SM FEW045 10/M02 A3005 RMK AO2 PK WND 32026/2103 SLP174 T01001022
DGL,KDGL,DOUGLAS MUNI,03/21,31.34260277,-109.5064544,,,,
DGW,KDGW,CONVERSE COUNTY,05/23,42.79719444,-105.3858333,2023-12-27T21:53:00Z,12.0,VFR,KDGW 272153Z AUTO 30012KT 10SM CLR 03/M07 A3016 RMK AO2 SLP232 T00331067
DHN,KDHN,DOTHAN RGNL,14/32,31.32102777,-85.44947222,2023-12-27T21:53:00Z,6.0,VFR,KDHN 272153Z 22006KT 10SM FEW100 16/04 A2995 RMK AO2 SLP140 T01560044
DHT,KDHT,DALHART MUNI,03/21,36.02247222,-102.5473889,2023-12-27T21:53:00Z,20.0,VFR,KDHT 272153Z AUTO 35020G32KT 10SM CLR 08/M04 A3010 RMK AO2 PK WND 36038/2131 SLP184 T00831039
DIJ,KDIJ,DRIGGS/REED MEML,04/22,43.74269444,-111.0967778,2023-12-27T21:56:00Z,3.0,VFR,KDIJ 272156Z AUTO 33003KT 10SM CLR 01/M09 A3029 RMK AO2 SLP319 T00061094
DIK,KDIK,DICKINSON/THEODORE ROOSEVELT RGNL,14/32,46.80047361,-102.8044353,2023-12-27T21:56:00Z,10.0,VFR,KDIK 272156Z AUTO 31010KT 10SM CLR 05/M11 A3013 RMK AO2 SLP233 T00501111
DKB,KDKB,DE KALB TAYLOR MUNI,09/27,41.93383425,-88.70568638,2023-12-27T22:35:00Z,10.0,VFR,KDKB 272235Z AUTO 04010KT 10SM BKN085 OVC110 03/M01 A2995 RMK AO2 T00271011
DKK,KDKK,CHAUTAUQUA COUNTY/DUNKIRK,15/33,42.49394444,-79.27111111,2023-12-27T21:53:00Z,4.0,VFR,KDKK 272153Z AUTO 05004KT 10SM OVC070 12/09 A2980 RMK AO2 RAE38 SLP092 P0001 T01170089
DKR,KDKR,HOUSTON COUNTY,02/20,31.30697222,-95.40383333,2023-12-27T22:35:00Z,7.0,VFR,KDKR 272235Z AUTO 32007KT 10SM CLR 13/00 A3001 RMK AO2
DKX,KDKX,KNOXVILLE DOWNTOWN ISLAND,08/26,35.96383333,-83.87366666,2023-12-27T22:35:00Z,0.0,VFR,KDKX 272235Z AUTO 00000KT 10SM CLR 09/08 A2984 RMK A01
DLC,KDLC,DILLON COUNTY,07/25,34.44905555,-79.36858333,,,,
DLG,PADL,DILLINGHAM,01/19,59.04466666,-158.5055,,,,
DLH,KDLH,DULUTH INTL,09/27,46.84206975,-92.19323722,2023-12-27T21:55:00Z,6.0,IFR,KDLH 272155Z 15006KT 10SM OVC007 01/M01 A3005 RMK AO2 CIG 003V009 SLP194 T00061011
DLL,KDLL,BARABOO/WISCONSIN DELLS RGNL,01/19,43.52202777,-89.77125,2023-12-27T22:35:00Z,3.0,VFR,KDLL 272235Z AUTO 02003KT 10SM CLR 03/M01 A3002 RMK AO2 T00301011
DLN,KDLN,DILLON,17/35,45.25536111,-112.5525,2023-12-27T22:20:00Z,10.0,VFR,EDLN 272220Z AUTO 20010KT 9999 // BKN033/// OVC045/// 10/04 Q1010
DLO,KDLO,DELANO MUNI,14/32,35.74555555,-119.2365,,,,
DLS,KDLS,COLUMBIA GORGE RGNL/THE DALLES MUNI,07/25,45.61935516,-121.1682757,2023-12-27T21:53:00Z,5.0,VFR,KDLS 272153Z AUTO 09005KT 10SM FEW029 SCT060 OVC085 06/02 A3002 RMK AO2 RAB20E48 SLP168 P0001 T00560022
DLZ,KDLZ,DELAWARE MUNI/JIM MOORE FLD,10/28,40.27954213,-83.11338361,2023-12-27T22:35:00Z,3.0,IFR,KDLZ 272235Z AUTO 35003KT 7SM OVC006 06/05 A2985 RMK AO2
DMN,KDMN,DEMING MUNI,04/22,32.26238888,-107.719,2023-12-27T21:53:00Z,9.0,VFR,KDMN 272153Z AUTO 23009KT 10SM CLR 12/M13 A3016 RMK AO2 SLP200 T01171133
DMO,KDMO,SEDALIA RGNL,05/23,38.70741666,-93.17591666,2023-12-27T22:20:00Z,4.0,VFR,EDMO 272220Z AUTO 14004KT 100V170 9999 // NCD 01/M03 Q1019
DMW,KDMW,CARROLL COUNTY RGNL/JACK B POAGE FLD,16/34,39.60827777,-77.00766666,2023-12-27T22:05:00Z,0.0,MVFR,KDMW 272205Z AUTO 00000KT 5SM +RA SCT007 SCT024 BKN034 12/11 A2982 RMK AO2 P0002
DNA,KDNA,DONA ANA COUNTY INTL JETPORT,10/28,31.88044444,-106.70325,2023-12-27T22:35:00Z,0.0,VFR,KDNA 272235Z AUTO 00000KT 10SM CLR A3016 RMK AO2
DNL,KDNL,DANIEL FLD,05/23,33.46658333,-82.03938888,2023-12-27T21:53:00Z,0.0,VFR,KDNL 272153Z AUTO 00000KT 10SM CLR 16/10 A2985 RMK AO2 SLP104 T01610100
DNN,KDNN,DALTON MUNI,14/32,34.72293888,-84.87024138,2023-12-27T22:35:00Z,0.0,VFR,KDNN 272235Z AUTO 00000KT 10SM CLR 10/07 A2986 RMK AO2 T00970070
DNS,KDNS,DENISON MUNI,12/30,41.98619905,-95.37990752,2023-12-27T22:35:00Z,9.0,VFR,KDNS 272235Z AUTO 01009KT 10SM OVC039 00/M01 A3005 RMK AO2
DNV,KDNV,VERMILION RGNL,16/34,40.19982722,-87.59516638,2023-12-27T22:35:00Z,8.0,VFR,KDNV 272235Z AUTO 05008KT 10SM OVC100 05/02 A2988 RMK AO2 T00500020
DOV,KDOV,DOVER AFB,14/32,39.12953888,-75.46596111,2023-12-27T21:55:00Z,13.0,LIFR,KDOV 272155Z AUTO 07013KT 10SM BKN004 OVC031 11/10 A2983 RMK AO2 CIG 003 RWY14 CIG 003 RWY19 SLP105 T01100102
DPA,KDPA,DUPAGE,10/28,41.90705305,-88.247995,2023-12-27T21:52:00Z,14.0,VFR,KDPA 272152Z 04014G22KT 10SM OVC095 04/00 A2993 RMK AO2 SLP143 T00440000
DPL,KDPL,DUPLIN COUNTY,05/23,35.00003638,-77.98165833,2023-12-27T22:25:00Z,4.0,MVFR,KDPL 272225Z AUTO 30004KT 10SM BKN028 BKN040 BKN047 18/18 A2974 RMK AO2
DQH,KDQH,DOUGLAS MUNI,04/22,31.47673861,-82.86056694,2023-12-27T22:35:00Z,0.0,VFR,KDQH 272235Z AUTO 00000KT 10SM CLR 15/07 A2993 RMK AO2 T01530067
DRI,KDRI,BEAUREGARD RGNL,14/32,30.83172277,-93.33991555,2023-12-27T22:30:00Z,3.0,VFR,LDRI 272230Z VRB03KT 9999 BKN040 10/07 Q1027
DRM,KDRM,DRUMMOND ISLAND,01/19,46.00931138,-83.74393416,2023-12-27T22:35:00Z,3.0,LIFR,KDRM 272235Z AUTO 34003KT 10SM BKN003 OVC006 05/05 A2996 RMK AO2 T00480048
DRO,KDRO,DURANGO-LA PLATA COUNTY,03/21,37.15152777,-107.7537778,2023-12-27T21:53:00Z,9.0,VFR,KDRO 272153Z AUTO 21009KT 10SM CLR 04/M08 A3014 RMK AO2 SLP238 T00391083
DRP,KDRP,DELTA RGNL,18/36,35.12005222,-90.82650138,,,,
DRT,KDRT,DEL RIO INTL,H1,29.37420694,-100.9271569,2023-12-27T21:53:00Z,9.0,VFR,KDRT 272153Z AUTO 33009G20KT 10SM CLR 20/M08 A3005 RMK AO2 SLP174 T02001083
DSM,KDSM,DES MOINES INTL,05/23,41.53304333,-93.665575,2023-12-27T22:20:00Z,8.0,IFR,KDSM 272220Z 02008KT 7SM -RA OVC007 02/01 A2997 RMK AO2 SNE19 CIG 006V010 P0000 T00220006
DSV,KDSV,DANSVILLE MUNI,14/32,42.57053138,-77.71327277,2023-12-27T21:54:00Z,3.0,VFR,KDSV 272154Z AUTO 14003KT 10SM -RA FEW048 BKN055 OVC070 11/09 A2985 RMK AO2 SLP117 P0005 T01060094
DTA,KDTA,DELTA MUNI,17/35,39.38283,-112.5022117,2023-12-27T22:41:00Z,6.0,VFR,KDTA 272241Z AUTO 15006KT 10SM CLR 04/M08 A3028 RMK AO1
DTG,KDTG,DWIGHT,18/36,41.1326218,-88.43864527,,,,
DTL,KDTL,DETROIT LAKES/WETHING FLD,18/36,46.82304611,-95.88278583,2023-12-27T22:20:00Z,8.0,VFR,EDTL 272220Z AUTO 22008KT 180V240 9999 // NCD 10/M02 Q1018
DTN,KDTN,SHREVEPORT DOWNTOWN,05/23,32.54082166,-93.74383527,2023-12-27T21:53:00Z,11.0,VFR,KDTN 272153Z 31011G21KT 10SM CLR 12/M02 A3001 RMK AO2 SLP160 T01171017
DTO,KDTO,DENTON ENTERPRISE,18L/36R,33.20196055,-97.1990975,2023-12-27T21:53:00Z,13.0,VFR,KDTO 272153Z 33013KT 10SM CLR 09/M01 A3006 RMK AO2 SLP179 T00941011
DTS,KDTS,DESTIN EXEC,14/32,30.40005472,-86.47147222,2023-12-27T21:53:00Z,3.0,VFR,KDTS 272153Z VRB03KT 10SM CLR 15/06 A2996 RMK AO2 SLP143 T01500056
DTW,KDTW,DETROIT METRO WAYNE COUNTY,03L/21R,42.21243111,-83.35339333,2023-12-27T21:53:00Z,6.0,IFR,KDTW 272153Z 32006KT 2 1/2SM -DZ BR OVC006 07/07 A2985 RMK AO2 SFC VIS 3 SLP112 P0001 T00720067
DUA,KDUA,DURANT RGNL/EAKER FLD,17/35,33.9396975,-96.3950575,2023-12-27T22:35:00Z,10.0,VFR,KDUA 272235Z AUTO 33010G17KT 10SM CLR 08/M05 A3007 RMK AO2
DUB,KDUB,DUBOIS MUNI,11/29,43.54865138,-109.6908278,2023-12-27T22:40:00Z,3.0,VFR,KDUB 272240Z AUTO 20003KT 10SM CLR 01/M12 A3018 RMK AO2
DUC,KDUC,HALLIBURTON FLD,17/35,34.47087333,-97.95986027,2023-12-27T22:35:00Z,14.0,VFR,KDUC 272235Z AUTO 30014G21KT 10SM BKN043 BKN050 07/M02 A3009 RMK AO2 T00711023
DUG,KDUG,BISBEE DOUGLAS INTL,17/35,31.46894444,-109.60375,2023-12-27T21:56:00Z,3.0,VFR,KDUG 272156Z AUTO 25003KT 10SM CLR 12/M15 A3015 RMK AO2 SLP197 T01221150
DUH,KDUH,TOLEDO SUBURBAN,09/27,41.735875,-83.65576388,2023-12-27T22:35:00Z,4.0,IFR,KDUH 272235Z AUTO 32004KT 5SM BR OVC008 07/06 A2986 RMK AO2 T00670055
DUJ,KDUJ,DUBOIS RGNL,07/25,41.17827777,-78.89869444,2023-12-27T22:26:00Z,7.0,IFR,KDUJ 272226Z AUTO 12007KT 10SM OVC005 09/07 A2980 RMK AO2 T00890072
DUT,PADU,UNALASKA,13/31,53.89894444,-166.5450278,,,,
DUX,KDUX,MOORE COUNTY,14/32,35.85743066,-102.0133093,2023-12-27T22:35:00Z,17.0,VFR,KDUX 272235Z AUTO 32017G22KT 10SM CLR 06/M05 A3009 RMK AO2 T00611048
DUY,PADY,KONGIGANAK,01/19,59.96163083,-162.8805939,,,,
DVK,KDVK,STUART POWELL FLD,13/31,37.57757513,-84.76949783,2023-12-27T22:35:00Z,0.0,VFR,KDVK 272235Z AUTO 00000KT 10SM SCT080 07/03 A2987 RMK AO2
DVL,KDVL,DEVILS LAKE RGNL,13/31,48.11659083,-98.90998805,2023-12-27T21:56:00Z,6.0,VFR,KDVL 272156Z AUTO 34006KT 10SM CLR 01/M03 A3013 RMK AO2 SLP237 T00111033 FZRANO
DVN,KDVN,DAVENPORT MUNI,15/33,41.61027777,-90.58836111,2023-12-27T21:52:00Z,11.0,VFR,KDVN 272152Z AUTO 06011KT 10SM OVC070 06/00 A2994 RMK AO2 SLP142 T00560000
DVO,KDVO,GNOSS FLD,13/31,38.14357583,-122.5570914,2023-12-27T22:35:00Z,5.0,IFR,KDVO 272235Z AUTO 13005KT 2SM -DZ FEW005 SCT008 BKN015 14/14 A3002 RMK AO2
DVP,KDVP,SLAYTON MUNI,17/35,43.98680027,-95.78261027,2023-12-27T22:33:00Z,0.0,VFR,KDVP 272233Z AUTO 00000KT 10SM SCT022 BKN041 OVC070 M01/M04 A3006 RMK AO2 T10071038
DVT,KDVT,PHOENIX DEER VALLEY,07L/25R,33.68830555,-112.0825556,2023-12-27T21:53:00Z,3.0,VFR,KDVT 272153Z 21003KT 10SM CLR 16/M01 A3013 RMK AO2 SLP197 T01611006
DWA,KDWA,YOLO COUNTY,16/34,38.57938888,-121.8569444,2023-12-27T22:35:00Z,0.0,LIFR,KDWA 272235Z AUTO 00000KT 3/4SM -RA BR BKN007 BKN023 BKN040 12/12 A3005 RMK AO2
DWH,KDWH,DAVID WAYNE HOOKS MEML,17R/35L,30.06177911,-95.55278841,2023-12-27T21:53:00Z,10.0,VFR,KDWH 272153Z 32010KT 10SM CLR 18/M01 A3000 RMK AO2 SLP157 T01781006
DWU,KDWU,ASHLAND RGNL,10/28,38.55446083,-82.73766194,2023-12-27T21:56:00Z,3.0,MVFR,KDWU 272156Z AUTO 14003KT 10SM OVC028 09/08 A2985 RMK AO2 SLP111 T00940083
DWX,KDWX,DIXON,06/24,41.03744138,-107.4925281,2023-12-27T22:35:00Z,3.0,VFR,KDWX 272235Z AUTO 22003KT 10SM CLR M04/M10 A3032 RMK AO2 T10371104
DXE,KDXE,DEXTER MUNI,18/36,36.77541666,-89.94125,,,,
DXR,KDXR,DANBURY MUNI,08/26,41.37153444,-73.48218944,2023-12-27T22:29:00Z,4.0,VFR,KDXR 272229Z 06004KT 7SM FEW007 BKN120 09/07 A2999 RMK AO2 T00890072
DXX,KDXX,LAC QUI PARLE COUNTY,09/27,44.98643527,-96.1778595,2023-12-27T22:35:00Z,0.0,MVFR,KDXX 272235Z AUTO 00000KT 3SM -SN SCT006 OVC011 02/02 A3008 RMK AO2
DYA,KDYA,DEMOPOLIS RGNL,04/22,32.46383333,-87.95405555,,,,
DYB,KDYB,SUMMERVILLE,06/24,33.06227777,-80.28091666,2023-12-27T22:35:00Z,5.0,VFR,KDYB 272235Z AUTO 25005KT 8SM CLR 16/14 A2982 RMK AO2
DYL,KDYL,DOYLESTOWN,05/23,40.33305027,-75.12233833,2023-12-27T21:54:00Z,4.0,LIFR,KDYL 272154Z AUTO VRB04KT 5SM -RA BR OVC002 09/07 A2992 RMK AO2 RAB2058E13B52 SLP136 P0000 T00890072
DYR,KDYR,DYERSBURG RGNL,16/34,35.99797222,-89.40658333,2023-12-27T21:56:00Z,11.0,VFR,KDYR 272156Z AUTO 29011KT 10SM SCT033 SCT041 OVC060 06/02 A2989 RMK AO2 SLP129 T00610017
DYT,KDYT,SKY HARBOR,09W/27W,46.7221225,-92.04438583,2023-12-27T22:35:00Z,0.0,MVFR,KDYT 272235Z AUTO 00000KT 10SM BKN023 OVC043 01/01 A3010 RMK AO2
DZB,KDZB,HORSESHOE BAY RESORT,17/35,30.52705138,-98.35875694,2023-12-27T22:35:00Z,10.0,VFR,KDZB 272235Z AUTO 34010KT 10SM CLR 15/00 A3005 RMK AO2 T01470001
DZJ,KDZJ,BLAIRSVILLE,08/26,34.85443138,-83.99732,2023-12-27T22:35:00Z,0.0,VFR,KDZJ 272235Z AUTO 00000KT 10SM CLR 10/05 A2986 RMK AO2 T01030051
E01,,ROY HURD MEML,12/30,31.58247222,-102.9090278,,,,
E02,,TIMBERON,13/31,32.63406944,-105.68745,,,,
E05,,HATCH MUNI,11/29,32.660292,-107.1954089,,,,
E06,,LEA COUNTY/ZIP FRANKLIN MEML,03/21,32.95394444,-103.4087778,,,,
E11,,ANDREWS COUNTY,02/20,32.33075297,-102.5296873,2023-12-27T22:35:00Z,7.0,VFR,KE11 272235Z AUTO 01007KT 10SM CLR 13/M03 A3010 RMK AO2 T01301033
E13,,CRANE COUNTY,12/30,31.41157361,-102.3604736,,,,
E14,,OHKAY OWINGEH,16/34,36.02611902,-106.0454146,,,,
E16,,SAN MARTIN,14/32,37.08158333,-121.5968056,,,,
E19,,GRUVER MUNI,02/20,36.23372611,-101.4321894,,,,
E24,,WHITERIVER,01/19,33.81060833,-109.9857436,,,,
E25,,WICKENBURG MUNI,05/23,33.97062933,-112.7950898,,,,
E26,,LEA COUNTY/JAL,09/27,32.13107833,-103.1548506,,,,
E30,,BRUCE FLD,17/35,31.67447222,-99.977,,,,
E32,,LINDRITH AIRPARK,07/25,36.29140638,-107.0561544,,,,
E34,,SMILEY JOHNSON MUNI/BASS FLD,01/19,34.9115,-100.8693611,,,,
E35,,FABENS,08/26,31.51719722,-106.1470611,,,,
E36,,GEORGETOWN,16/34,38.92111111,-120.8648056,,,,
E37,,FLYING J RANCH,07/25,32.84784333,-109.8817481,,,,
E38,,ALPINE-CASPARIS MUNI,01/19,30.38422222,-103.6835833,2023-12-27T22:35:00Z,6.0,VFR,KE38 272235Z AUTO 06006KT 10SM CLR 11/M13 A3018 RMK AO2 T01121127
E40,,WILSON'S,17/35,35.65207666,-81.35786388,,,,
E41,,REAGAN COUNTY,16/34,31.19862472,-101.475245,2023-12-27T22:35:00Z,9.0,VFR,KE41 272235Z AUTO 33009KT 10SM CLR 11/M01 A3011 RMK AO2 T01131007
E42,,MAJOR SAMUEL B CORNELIUS FLD,02/20,36.221,-101.1945,2023-12-27T22:35:00Z,18.0,VFR,KE42 272235Z AUTO 35018KT 10SM SCT032 OVC041 06/00 A3008 RMK AO2 T00611004
E45,,PINE MOUNTAIN LAKE,09/27,37.86166666,-120.1785556,,,,
E48,,UPTON COUNTY,10/28,31.12514833,-102.225415,,,,
E51,,BAGDAD,05/23,34.59289444,-113.1719486,,,,
E52,,OLDHAM COUNTY,17/35,35.23071388,-102.3987681,,,,
E53,,ENGLER FLD,08/26,43.84623333,-83.04679166,,,,
E55,,OCEAN RIDGE,13/31,38.8017075,-123.5305522,,,,
E57,,DENVER CITY,04/22,32.9746595,-102.8450962,2023-12-27T22:35:00Z,13.0,VFR,KE57 272235Z AUTO 35013KT 10SM CLR 14/M04 A3009 RMK AO2
E58,,BIRD DOG AIRFIELD,18/36,33.30645555,-97.34712777,,,,
E60,,ELOY MUNI,02/20,32.8067218,-111.5866263,,,,
E63,,GILA BEND MUNI,04/22,32.96016944,-112.6736375,,,,
E67,,KEARNY,08/26,33.04719444,-110.9090556,,,,
E70,,HUBER AIRPARK CIVIC CLUB LLC,18/36,29.60240625,-97.99056305,,,,
E77,,SAN MANUEL,11/29,32.63644027,-110.6472877,2023-12-27T22:35:00Z,7.0,VFR,KE77 272235Z AUTO 32007KT 10SM CLR 15/M14 A3020 RMK AO2
E78,,SELLS,04/22,31.93258333,-111.89425,,,,
E79,,SIERRA SKY PARK,12/30,36.84016666,-119.8693889,,,,
E81,,SUPERIOR MUNI,04/22,33.27783388,-111.127065,,,,
E85,,DENIO JUNCTION,13/31,41.9540625,-118.6310064,,,,
E89,,CONCHAS LAKE,09/27,35.36783888,-104.1805083,,,,
E91,,CHINLE MUNI,18/36,36.10930555,-109.5754722,,,,
E92,,ESTANCIA MUNI,08/26,34.76339333,-106.0414056,,,,
E94,,GLENWOOD,01/19,33.35331944,-108.8671444,,,,
E95,,BENSON MUNI/PAUL KERCHUM FLD,10/28,31.99944444,-110.3579722,,,,
E98,,MID VALLEY AIRPARK,18/36,34.76100833,-106.7449444,,,,
EAA,PAEG,EAGLE,07/25,64.77808333,-141.1496111,,,,
EAG,KEAG,EAGLE GROVE MUNI,01/19,42.70991666,-93.91611111,2023-12-27T22:30:00Z,4.0,VFR,LEAG 272230Z AUTO 33004KT 290V360 CAVOK 12/09 Q1026
EAN,KEAN,PHIFER AIRFIELD,08/26,42.05551972,-104.9282831,2023-12-27T22:35:00Z,8.0,VFR,KEAN 272235Z AUTO 35008KT 10SM CLR 06/M08 A3016 RMK AO2 T00631084
EAR,KEAR,KEARNEY RGNL,18/36,40.72704055,-99.00677,2023-12-27T22:21:00Z,9.0,MVFR,KEAR 272221Z AUTO 36009KT 10SM SCT007 OVC023 M02/M04 A3009 RMK AO2 FZRANO
EAT,KEAT,PANGBORN MEML,12/30,47.39880555,-120.2068333,2023-12-27T22:00:00Z,2.0,VFR,HEAT 272200Z 32002KT CAVOK 13/09 Q1022 NOSIG
EAU,KEAU,CHIPPEWA VALLEY RGNL,04/22,44.86580555,-91.48425,2023-12-27T21:56:00Z,4.0,VFR,KEAU 272156Z 02004KT 10SM CLR 03/M03 A3005 RMK AO2 SLP187 T00331033
EBA,KEBA,ELBERT COUNTY-PATZ FLD,11/29,34.0954025,-82.8174925,2023-12-27T22:35:00Z,3.0,VFR,KEBA 272235Z AUTO 23003KT 10SM CLR 12/09 A2984 RMK AO2 T01240094
EBD,KEBD,SOUTHERN WEST VIRGINIA RGNL,08/26,37.68176397,-82.12206655,,,,
EBG,KEBG,SOUTH TEXAS INTL AT EDINBURG,14/32,26.44166666,-98.12222222,2023-12-27T22:30:00Z,7.0,LIFR,LEBG 272230Z AUTO 23007KT 0300 R22/0800N R04/0300N FZFG VV002 M01/M01 Q1025
EBS,KEBS,WEBSTER CITY MUNI,14/32,42.43641352,-93.86896702,2023-12-27T22:30:00Z,0.0,LIFR,VEBS 272230Z 00000KT 1500 BR NSC 17/16 Q1017 NOSIG
ECG,KECG,ELIZABETH CITY CG AIR STATION/RGNL,10/28,36.26057555,-76.17456722,2023-12-27T22:39:00Z,8.0,IFR,KECG 272239Z 15008G19KT 10SM BKN006 16/16 A2974 RMK AO2 PK WND 13030/2202 CIG 005V010 T01610156
ECP,KECP,NORTHWEST FLORIDA BEACHES INTL,16/34,30.35824083,-85.79560222,2023-12-27T21:53:00Z,6.0,VFR,KECP 272153Z 20006KT 10SM FEW085 15/08 A2994 RMK AO1 SLP151 T01500083
ECS,KECS,MONDELL FLD,14/32,43.88425,-104.3145,2023-12-27T22:35:00Z,8.0,VFR,KECS 272235Z AUTO 33008KT 10SM CLR 03/M10 A3016 RMK AO2
ECU,KECU,EDWARDS COUNTY,14/32,29.94691958,-100.1738547,2023-12-27T22:35:00Z,12.0,VFR,KECU 272235Z AUTO 33012KT 10SM CLR 14/M04 A3009 RMK AO2
EDC,KEDC,AUSTIN EXEC,16/34,30.39749313,-97.5663935,2023-12-27T22:35:00Z,8.0,VFR,KEDC 272235Z AUTO 36008KT 10SM CLR 16/M00 A3001 RMK AO2
EDE,KEDE,NORTHEASTERN RGNL,01/19,36.02859,-76.5697675,2023-12-27T22:30:00Z,0.0,IFR,KEDE 272230Z AUTO 00000KT 10SM OVC007 17/17 A2974 RMK AO2 T01680168
EDJ,KEDJ,BELLEFONTAINE RGNL,07/25,40.37227777,-83.81925,2023-12-27T22:35:00Z,0.0,MVFR,KEDJ 272235Z AUTO 00000KT 10SM OVC020 07/06 A2985 RMK A01
EDN,KEDN,ENTERPRISE MUNI,05/23,31.29972222,-85.89983333,2023-12-27T22:35:00Z,0.0,VFR,KEDN 272235Z AUTO 00000KT 10SM SCT095 13/05 A2993 RMK AO1 T01330054
EDU,KEDU,UNIVERSITY,17/35,38.53146222,-121.7864639,2023-12-27T22:35:00Z,6.0,IFR,KEDU 272235Z AUTO 17006KT 2SM SCT022 BKN031 OVC044 12/12 A3005 RMK AO1 P0002
EED,KEED,NEEDLES,02/20,34.76634683,-114.6232799,2023-12-27T21:56:00Z,11.0,VFR,KEED 272156Z AUTO 35011G16KT 10SM CLR 18/M03 A3015 RMK AO2 SLP198 T01831033
EEK,PAEE,EEK,18/36,60.21369444,-162.0438889,,,,
EEN,KEEN,DILLANT/HOPKINS,14/32,42.89838888,-72.27077777,2023-12-27T22:46:00Z,0.0,IFR,KEEN 272246Z AUTO 00000KT 1 1/4SM BR SCT003 OVC060 06/06 A3003 RMK AO2 $
EEO,KEEO,MEEKER COULTER FLD,03/21,40.04880555,-107.8859167,2023-12-27T21:53:00Z,0.0,VFR,KEEO 272153Z AUTO 00000KT 10SM CLR M05/M11 A3027 RMK AO2 SLP335 T10501111
EET,KEET,SHELBY COUNTY,16/34,33.17777777,-86.78322222,2023-12-27T21:53:00Z,3.0,VFR,KEET 272153Z AUTO VRB03KT 10SM CLR 13/01 A2989 RMK AO2 SLP122 T01280011
EFC,KEFC,BELLE FOURCHE MUNI,14/32,44.73457166,-103.8618092,,,,
EFD,KEFD,ELLINGTON,17R/35L,29.60733333,-95.15875,2023-12-27T21:54:00Z,8.0,VFR,KEFD 272154Z 31008KT 10SM CLR 18/M01 A2999
EFK,KEFK,NORTHEAST KINGDOM INTL,05/23,44.88817555,-72.22863527,2023-12-27T22:35:00Z,3.0,LIFR,KEFK 272235Z AUTO 21003KT 1/2SM FG OVC012 05/05 A3003 RMK AO2 T00470046
EFT,KEFT,MONROE MUNI,12/30,42.61490069,-89.59040338,2023-12-27T22:35:00Z,10.0,VFR,KEFT 272235Z AUTO 04010KT 10SM SCT095 03/00 A2997 RMK AO2 T00250000
EFW,KEFW,JEFFERSON MUNI,14/32,42.00983333,-94.34180555,,,,
EGE,KEGE,EAGLE COUNTY RGNL,07/25,39.64275,-106.9159444,2023-12-27T21:56:00Z,0.0,VFR,KEGE 272156Z 00000KT 10SM CLR M02/M09 A3029 RMK AO2 SLP158 T10221094
EGQ,KEGQ,EMMETSBURG MUNI,04/22,43.10205555,-94.70452777,,,,
EGT,KEGT,WELLINGTON MUNI,18/36,37.32499572,-97.38835597,2023-12-27T22:35:00Z,13.0,VFR,KEGT 272235Z AUTO 32013KT 10SM BKN033 01/M05 A3008 RMK AO2 T00101048
EGV,KEGV,EAGLE RIVER UNION,13/31,45.93233333,-89.26827777,2023-12-27T22:35:00Z,3.0,VFR,KEGV 272235Z AUTO 01003KT 10SM SCT029 00/M05 A3004 RMK AO2 T10021046
EHA,KEHA,ELKHART-MORTON COUNTY,17/35,37.00078222,-101.8800278,2023-12-27T22:35:00Z,19.0,VFR,KEHA 272235Z AUTO 35019G26KT 10SM OVC042 05/M03 A3012 RMK AO2 T00551028
EHO,KEHO,SHELBY-CLEVELAND COUNTY RGNL,05/23,35.25574916,-81.60076444,2023-12-27T22:45:00Z,0.0,VFR,KEHO 272245Z AUTO 00000KT 10SM CLR 14/13 A2980 RMK AO2 T01380129
EHR,KEHR,HENDERSON CITY-COUNTY,09/27,37.80783333,-87.68569444,2023-12-27T21:56:00Z,3.0,VFR,KEHR 272156Z AUTO 09003KT 10SM OVC065 08/02 A2983 RMK AO2 SLP105 T00830017
EII,PAII,EGEGIK,12/30,58.18549027,-157.3754278,,,,
EIK,KEIK,ERIE MUNI,16/34,40.01025,-105.0480833,2023-12-27T22:35:00Z,11.0,VFR,KEIK 272235Z AUTO 05011G15KT 10SM CLR 08/M14 A3013 RMK AO2 T00821140
EIW,KEIW,COUNTY MEML,18/36,36.53530555,-89.59972222,,,,
EKA,KEKA,MURRAY FLD,12/30,40.80339805,-124.1127903,,,,
EKM,KEKM,ELKHART MUNI,18/36,41.71940616,-86.00321897,2023-12-27T22:35:00Z,4.0,VFR,KEKM 272235Z AUTO 32004KT 10SM BKN170 06/01 A2991 RMK AO2 T00600011 $
EKN,KEKN,ELKINS/RANDOLPH COUNTY (JENNINGS RANDOLPH FLD),00X,38.88944444,-79.85713888,2023-12-27T22:09:00Z,0.0,MVFR,KEKN 272209Z AUTO 00000KT 6SM -RA BR SCT021 OVC028 11/11 A2980 RMK AO2 P0000 T01110111
EKO,KEKO,ELKO RGNL,06/24,40.82499861,-115.7913375,2023-12-27T21:56:00Z,8.0,VFR,KEKO 272156Z AUTO 06008KT 10SM CLR 03/M02 A3019 RMK AO2 SLP234 T00331017 PWINO $
EKQ,KEKQ,WAYNE COUNTY,03/21,36.85527777,-84.85613888,2023-12-27T21:56:00Z,3.0,VFR,KEKQ 272156Z AUTO 33003KT 10SM CLR 08/04 A2987 RMK AO2 SLP116 T00780044
EKS,KEKS,ENNIS BIG SKY,16/34,45.27572472,-111.6489156,2023-12-27T22:35:00Z,9.0,VFR,KEKS 272235Z AUTO 19009KT 10SM CLR 00/M07 A3021 RMK AO2
EKX,KEKX,ADDINGTON FLD,05/23,37.686,-85.92502777,2023-12-27T22:35:00Z,0.0,VFR,KEKX 272235Z AUTO 00000KT 10SM OVC080 08/01 A2984 RMK AO2 T00770011
EKY,KEKY,BESSEMER,05/23,33.31261111,-86.92630555,2023-12-27T21:56:00Z,3.0,VFR,KEKY 272156Z AUTO 19003KT 10SM CLR 12/02 A2990 RMK AO2 SLP974 T01170017
ELA,KELA,EAGLE LAKE,17/35,29.60002777,-96.32194444,2023-12-27T22:35:00Z,,VFR,KELA 272235Z AUTO 10SM CLR 17/01 A3002 RMK AO2 T01740012
ELD,KELD,SOUTH ARKANSAS RGNL AT GOODWIN FLD,04/22,33.2212378,-92.81174888,2023-12-27T21:53:00Z,9.0,VFR,KELD 272153Z AUTO 27009G19KT 10SM FEW050 10/M01 A2998 RMK AO2 SLP151 T01001011
ELI,PFEL,ELIM,01/19,64.61497222,-162.2705278,,,,
ELK,KELK,ELK CITY RGNL BUSINESS,17/35,35.43077777,-99.39427777,2023-12-27T22:35:00Z,11.0,VFR,KELK 272235Z AUTO 34011KT 10SM OVC035 06/M01 A3006 RMK AO2 T00581011 $
ELM,KELM,ELMIRA/CORNING RGNL,10/28,42.15985613,-76.89174566,2023-12-27T21:53:00Z,3.0,MVFR,KELM 272153Z 07003KT 9SM -RA BKN011 BKN018 OVC023 11/10 A2987 RMK AO2 RAB18 SLP117 P0002 T01110100
ELN,KELN,BOWERS FLD,11/29,47.0348455,-120.5288591,2023-12-27T21:53:00Z,3.0,VFR,KELN 272153Z AUTO 12003KT 10SM OVC037 03/01 A2998 RMK AO2 RAE19 SLP166 P0000 T00330011
ELO,KELO,ELY MUNI,12/30,47.82401308,-91.82932058,2023-12-27T22:35:00Z,0.0,MVFR,KELO 272235Z AUTO 00000KT 10SM OVC019 02/02 A3008 RMK AO2
ELP,KELP,EL PASO INTL,08L/26R,31.80733333,-106.3763611,2023-12-27T21:51:00Z,0.0,VFR,KELP 272151Z 00000KT 10SM FEW250 12/M13 A3014 RMK AO2 SLP187 T01221133
ELY,KELY,ELY/YELLAND FLD,18/36,39.29968833,-114.8418781,2023-12-27T21:53:00Z,,VFR,KELY 272153Z AUTO 10SM OVC100 06/M04 A3020 RMK AO2 SLP244 T00561044 $
ELZ,KELZ,WELLSVILLE MUNI/TARANTINE FLD,10/28,42.10952388,-77.98997861,2023-12-27T21:56:00Z,8.0,MVFR,KELZ 272156Z AUTO 15008KT 5SM RA BR SCT038 OVC048 09/07 A2986 RMK AO2 SLP116 P0013 T00890072
EMM,KEMM,KEMMERER MUNI,16/34,41.82408333,-110.5569444,2023-12-27T22:00:00Z,6.0,VFR,HEMM 272200Z 31006KT CAVOK 17/13 Q1023 NOSIG
EMP,KEMP,EMPORIA MUNI,01/19,38.33056333,-96.18993194,2023-12-27T21:53:00Z,14.0,VFR,KEMP 272153Z AUTO 30014G21KT 10SM FEW019 OVC037 01/M02 A3000 RMK AO2 SLP172 T00111022
EMT,KEMT,SAN GABRIEL VALLEY,01/19,34.08600888,-118.0348453,2023-12-27T22:00:00Z,10.0,MVFR,SEMT 272200Z 26010KT 9999 OVC020 26/22 Q1009 RMK A2982
EMV,KEMV,EMPORIA-GREENSVILLE RGNL,16/34,36.68685805,-77.48274888,,,,
ENA,PAEN,KENAI MUNI,02W/20W,60.57327777,-151.2448333,,,,
ENL,KENL,CENTRALIA MUNI,09/27,38.51508333,-89.09113888,2023-12-27T22:00:00Z,4.0,VFR,SENL 272200Z 18004KT 9999 -RA SCT020 OVC100 24/23 Q1010 RMK A2093
ENM,PAEM,EMMONAK,16/34,62.78613888,-164.49075,,,,
ENN,PANN,NENANA MUNI,04L/22R,64.5473,-149.073925,,,,
ENV,KENV,WENDOVER,08/26,40.71872527,-114.0286736,2023-12-27T21:56:00Z,5.0,MVFR,KENV 272156Z AUTO 13005KT 10SM OVC027 00/M04 A3033 RMK AO2 SLP304 T00001044 FZRANO
ENW,KENW,KENOSHA RGNL,07L/25R,42.59606333,-87.92732361,2023-12-27T21:53:00Z,7.0,VFR,KENW 272153Z 01007KT 10SM BKN100 04/M01 A2998 RMK AO2 SLP160 T00441006
EOE,KEOE,NEWBERRY COUNTY,04/22,34.30933333,-81.64066666,2023-12-27T21:55:00Z,7.0,VFR,KEOE 272155Z AUTO 24007KT 10SM CLR 15/13 A2986 RMK AO2
EOK,KEOK,KEOKUK MUNI,14/32,40.45990777,-91.42850111,2023-12-27T22:35:00Z,8.0,MVFR,KEOK 272235Z AUTO 04008KT 8SM BKN013 BKN022 BKN027 03/03 A2987 RMK A01
EOP,KEOP,PIKE COUNTY,07/25,39.16697222,-82.92833333,,,,
EOS,KEOS,NEOSHO HUGH ROBINSON,01/19,36.81080555,-94.39169444,,,,
EPH,KEPH,EPHRATA MUNI,11/29,47.30807166,-119.5169136,2023-12-27T21:53:00Z,5.0,VFR,KEPH 272153Z AUTO 04005KT 10SM FEW120 06/01 A3001 RMK AO2 SLP171 T00610006
EPM,KEPM,EASTPORT MUNI,15/33,44.91011111,-67.01269444,,,,
EQA,KEQA,EL DORADO/CAPT JACK THOMAS MEML,04/22,37.77411111,-96.81772222,2023-12-27T22:35:00Z,10.0,VFR,KEQA 272235Z AUTO 33010KT 10SM SCT021 01/M03 A3004 RMK AO2
EQY,KEQY,CHARLOTTE/MONROE EXEC,05/23,35.01741611,-80.62205583,2023-12-27T22:36:00Z,5.0,VFR,KEQY 272236Z AUTO 25005KT 10SM SCT023 14/12 A2979 RMK AO2 T01390122
ERI,KERI,ERIE INTL/TOM RIDGE FLD,02/20,42.08308333,-80.17394444,2023-12-27T22:38:00Z,8.0,LIFR,KERI 272238Z 27008KT 1/2SM R06/3000VP6000FT FG BKN002 OVC019 08/07 A2982 RMK AO2 T00780072
ERR,KERR,ERROL,H1,44.79216666,-71.16452525,2023-12-27T22:30:00Z,0.0,VFR,UERR 272230Z 00000MPS 9999 -SN NSC M37/M41 Q1020 R25/390137 NOSIG RMK QFE734/0978
ERV,KERV,KERRVILLE MUNI/LOUIS SCHREINER FLD,12/30,29.97666666,-99.08547222,2023-12-27T22:35:00Z,7.0,VFR,KERV 272235Z AUTO 31007KT 10SM CLR 16/M03 A3003 RMK AO2 T01611031
ERY,KERY,LUCE COUNTY,11/29,46.311,-85.45716666,2023-12-27T22:35:00Z,6.0,IFR,KERY 272235Z AUTO 33006KT 10SM OVC008 03/02 A3001 RMK AO2 T00340017
ESC,KESC,DELTA COUNTY,01/19,45.72267416,-87.09371583,2023-12-27T22:13:00Z,4.0,MVFR,KESC 272213Z AUTO 32004KT 10SM BKN029 OVC035 03/00 A3004 RMK AO2
ESF,KESF,ESLER RGNL,14/32,31.39490416,-92.29577305,2023-12-27T21:53:00Z,10.0,VFR,KESF 272153Z AUTO 29010G24KT 10SM CLR 17/M02 A2993 RMK AO2 SLP133 T01671017
ESN,KESN,EASTON/NEWNAM FLD,15/33,38.80416,-76.06899027,2023-12-27T22:00:00Z,7.0,VFR,HESN 272200Z 33007KT CAVOK 16/08 Q1018 NOSIG
EST,KEST,ESTHERVILLE MUNI,16/34,43.40747222,-94.74638888,2023-12-27T21:52:00Z,9.0,VFR,KEST 272152Z AUTO 01009KT 10SM FEW020 01/M03 A3004 RMK AO2 SLP188 T00111028
ESW,KESW,EASTON STATE,09/27,47.25418388,-121.1855317,2023-12-27T22:00:00Z,5.0,VFR,HESW 272200Z 34005KT CAVOK 12/05 Q1024
ETB,KETB,WEST BEND MUNI,13/31,43.42216666,-88.12791666,2023-12-27T22:35:00Z,5.0,VFR,KETB 272235Z AUTO 02005KT 10SM CLR 02/M02 A3000 RMK AO2
ETC,KETC,TARBORO-EDGECOMBE,09/27,35.93726305,-77.54648027,2023-12-27T22:25:00Z,0.0,LIFR,KETC 272225Z AUTO 00000KT 1 3/4SM BR OVC003 17/17 A2974 RMK AO2 T01700167
ETH,KETH,WHEATON MUNI,06/24,45.78050608,-96.54379797,2023-12-27T22:33:00Z,6.0,LIFR,KETH 272233Z AUTO 34006KT 2SM BR OVC003 00/00 A3009 RMK AO2
ETN,KETN,EASTLAND MUNI,17/35,32.41488888,-98.80969444,2023-12-27T22:20:00Z,9.0,MVFR,EETN 272220Z 31009KT 9999 OVC023 00/M04 Q1009
EUF,KEUF,WEEDON FLD,18/36,31.95130555,-85.12891666,2023-12-27T21:58:00Z,3.0,VFR,KEUF 272158Z AUTO 23003KT 10SM CLR 15/03 A2991 RMK AO2 SLP128 I1000 T01500033 $
EUG,KEUG,MAHLON SWEET FLD,16R/34L,44.12458333,-123.2119722,2023-12-27T21:54:00Z,8.0,VFR,KEUG 272154Z 12008KT 9SM -RA BKN060 OVC075 13/09 A2982 RMK AO2 RAE2058B47 SLP097 P0000 T01330089
EUL,KEUL,CALDWELL EXEC,12/30,43.64184888,-116.6357642,2023-12-27T21:56:00Z,16.0,VFR,KEUL 272156Z AUTO 11016G22KT 10SM 03/M02 A3019 RMK AO2 SLP240 T00281022
EVB,KEVB,NEW SMYRNA BEACH MUNI,02/20,29.05569444,-80.94891666,,,,
EVM,KEVM,EVELETH/VIRGINIA MUNI,14/32,47.42416666,-92.49655555,2023-12-27T22:42:00Z,0.0,MVFR,KEVM 272242Z AUTO 00000KT 10SM OVC022 01/00 A3009 RMK AO2
EVU,KEVU,NORTHWEST MISSOURI RGNL,14/32,40.35329122,-94.91663541,2023-12-27T22:35:00Z,11.0,MVFR,KEVU 272235Z AUTO 34011G15KT 7SM BKN016 OVC022 02/01 A2996 RMK AO2 T00230008
EVV,KEVV,EVANSVILLE RGNL,18/36,38.04080555,-87.5285,2023-12-27T21:54:00Z,4.0,VFR,KEVV 272154Z 11004KT 10SM SCT065 BKN085 09/00 A2983 RMK AO2 SLP105 T00940000
EVW,KEVW,EVANSTON-UINTA COUNTY BURNS FLD,05/23,41.27477777,-111.0346389,2023-12-27T21:53:00Z,4.0,VFR,KEVW 272153Z AUTO 23004KT 10SM CLR 01/M06 A3025 RMK AO2 SLP259 T00111056
EVY,KEVY,SUMMIT,11/29,39.52102777,-75.72366666,,,,
EWB,KEWB,NEW BEDFORD RGNL,14/32,41.67656611,-70.95783611,2023-12-27T22:07:00Z,0.0,LIFR,KEWB 272207Z 00000KT 3SM -RA BR OVC002 10/10 A3004 RMK AO2 RAB2154 P0000 T01000100
EWK,KEWK,NEWTON-CITY-COUNTY,17/35,38.05710138,-97.27522833,2023-12-27T22:33:00Z,15.0,MVFR,KEWK 272233Z AUTO 33015KT 10SM BKN023 00/M03 A3006 RMK AO2 FZRANO
EWN,KEWN,COASTAL CAROLINA RGNL,04/22,35.07285444,-77.04301972,2023-12-27T22:43:00Z,4.0,IFR,KEWN 272243Z 01004KT 2SM BR OVC005 17/17 A2971 RMK AO2 RAE40 P0001 T01720167
EWR,KEWR,NEWARK LIBERTY INTL,04L/22R,40.69247983,-74.16868677,2023-12-27T21:51:00Z,4.0,IFR,KEWR 272151Z 02004KT 10SM -RA BKN008 OVC060 09/07 A2997 RMK AO2 RAE13B29 SLP149 P0000 T00940072
EWU,PAEW,MERTARVIK,12/30,60.81039333,-164.4994717,,,,
EXX,KEXX,DAVIDSON COUNTY EXEC,06/24,35.78114138,-80.30377333,2023-12-27T22:25:00Z,0.0,MVFR,KEXX 272225Z AUTO 00000KT 10SM OVC010 14/14 A2980 RMK AO2 P0001 T01360136
EYE,KEYE,EAGLE CREEK AIRPARK,03/21,39.83071741,-86.29438575,2023-12-27T21:53:00Z,3.0,VFR,KEYE 272153Z AUTO 01003KT 10SM OVC100 08/M01 A2987 RMK AO2 SLP119 T00831006
EYF,KEYF,CURTIS L BROWN JR FLD,15/33,34.60181555,-78.57927638,2023-12-27T22:30:00Z,8.0,VFR,KEYF 272230Z AUTO 27008KT 10SM SCT011 SCT020 OVC041 18/17 A2977 RMK AO2 T01850167
EYW,KEYW,KEY WEST INTL,09/27,24.55611972,-81.75995583,2023-12-27T21:53:00Z,6.0,VFR,KEYW 272153Z 01006KT 10SM CLR 22/18 A2995 RMK AO2 SLP146 T02220183
EZF,KEZF,SHANNON,H1,38.26622222,-77.44938888,2023-12-27T22:35:00Z,0.0,MVFR,KEZF 272235Z AUTO 00000KT 7SM +RA SCT024 BKN029 OVC038 13/13 A2977 RMK AO2 P0014 T01330133
EZI,KEZI,KEWANEE MUNI,01/19,41.20519444,-89.96386111,,,,
EZM,KEZM,HEART OF GEORGIA RGNL,02/20,32.21638888,-83.12866666,2023-12-27T22:35:00Z,0.0,VFR,KEZM 272235Z AUTO 00000KT 10SM CLR 14/05 A2992 RMK AO2
EZS,KEZS,SHAWANO MUNI,12/30,44.78730583,-88.5600125,2023-12-27T22:35:00Z,4.0,VFR,KEZS 272235Z AUTO 01004KT 10SM CLR 02/M03 A3005 RMK AO2 T00241030
EZZ,KEZZ,CAMERON MEML,17/35,39.72755555,-94.27638888,2023-12-27T22:35:00Z,11.0,IFR,KEZZ 272235Z AUTO 34011KT 10SM OVC009 01/01 A2994 RMK AO2 T00100006
F00,,JONES FLD,17/35,33.61309166,-96.179325,2023-12-27T22:35:00Z,10.0,VFR,KF00 272235Z AUTO 32010G16KT 10SM CLR 08/M03 A3005 RMK AO2 T00791033
F01,,QUANAH MUNI,18/36,34.27711083,-99.75968166,,,,
F05,,WILBARGER COUNTY,16/34,34.22566666,-99.28375,2023-12-27T22:35:00Z,11.0,VFR,KF05 272235Z AUTO 02011KT 10SM SCT046 09/01 A3010 RMK AO2 T00930006
F06,,MARIAN AIRPARK,17/35,34.84486563,-100.195191,,,,
F08,,EUFAULA MUNI,17/35,35.29830416,-95.62737083,,,,
F09,,OLUSTEE MUNI,17/35,34.51257416,-99.42953333,,,,
F10,,HENRYETTA MUNI,18/36,35.40687972,-96.01583277,,,,
F13,,SHELL CREEK AIRPARK,18/36,26.96861111,-81.91630555,,,,
F14,,WICHITA VALLEY,04/22,33.94761047,-98.61614766,,,,
F17,,CENTER MUNI,17/35,31.83158333,-94.15641666,2023-12-27T22:35:00Z,7.0,VFR,KF17 272235Z AUTO 27007KT 10SM CLR 12/00 A3002 RMK AO2
F21,,MEMPHIS MUNI,08/26,34.73958944,-100.5297008,,,,
F22,,PERRY MUNI,17/35,36.38561111,-97.27722222,,,,
F23,,RANGER MUNI,18/36,32.451475,-98.6815125,,,,
F30,,SULPHUR MUNI,17/35,34.52704444,-96.9901875,,,,
F31,,LAKE TEXOMA STATE PARK,18/36,33.99105555,-96.64272222,,,,
F32,,HEALDTON MUNI,17/35,34.25489444,-97.47292777,,,,
F34,,FIREBAUGH,12/30,36.85998861,-120.4644675,,,,
F35,,POSSUM KINGDOM,02/20,32.92332458,-98.43687277,,,,
F36,,CORDELL MUNI,17/35,35.29629925,-98.96771563,,,,
F37,,CARRIZOZO MUNI,15/33,33.64890277,-105.89622,,,,
F41,,ENNIS MUNI,16/34,32.32969444,-96.66388888,,,,
F43,,EL DORADO DOWNTOWN-STEVENS FLD,18/36,33.19125,-92.66322222,,,,
F44,,ATHENS MUNI,18/36,32.16384777,-95.82835305,2023-12-27T22:35:00Z,5.0,VFR,KF44 272235Z AUTO 33005KT 10SM CLR 10/M01 A3004 RMK AO2
F45,,NORTH PALM BEACH COUNTY GENERAL AVIATION,09L/27R,26.84591666,-80.22233333,2023-12-27T22:35:00Z,5.0,VFR,KF45 272235Z AUTO 24005KT 10SM OVC120 20/17 A2992 RMK AO2 TSNO
F46,,RALPH M HALL/ROCKWALL MUNI,17/35,32.93059444,-96.43548555,2023-12-27T22:35:00Z,12.0,VFR,KF46 272235Z AUTO 30012KT 10SM CLR 09/M02 A3006 RMK AO2 T00871020
F47,,ST GEORGE ISLAND,14/32,29.64458402,-84.91559894,,,,
F49,,CITY OF SLATON/LARRY T NEAL MEML,08/26,33.48523272,-101.6616778,,,,
F51,,WINNSBORO MUNI,01/19,32.93882611,-95.2788675,,,,
F53,,FRANKLIN COUNTY,13/31,33.21533333,-95.23722222,,,,
F56,,ARLEDGE FLD,08/26,32.91047222,-99.73416666,,,,
F62,,HAYFORK,07/25,40.547,-123.1796389,,,,
F68,,ANADARKO MUNI,17/35,35.05219444,-98.26405555,,,,
F69,,AIR PARK-DALLAS,16/34,33.02345472,-96.83694611,,,,
F70,,FRENCH VALLEY,18/36,33.57417908,-117.1284732,2023-12-27T22:35:00Z,4.0,VFR,KF70 272235Z AUTO 21004KT 10SM CLR 19/06 A3012 RMK AO2
F72,,FRANKLIN FLD,09/27,38.304,-121.4293056,,,,
F75,,HARRISON FLD OF KNOX CITY,01/19,33.43815055,-99.81286888,,,,
F78,,HORSESHOE BEND,17/35,32.57291222,-97.87253388,,,,
F81,,OKEMAH MUNI,18/36,35.40526944,-96.30553888,,,,
F82,,LUBBOCK EXEC AIRPARK,07/25,33.4856425,-101.8126633,,,,
F85,,COCHRAN COUNTY,17/35,33.73133355,-102.7350813,,,,
F86,,CALDWELL PARISH,01/19,32.12216666,-92.0545,,,,
F87,,UNION PARISH,16/34,32.72495583,-92.33716583,,,,
F88,,JONESBORO,18/36,32.202,-92.73294444,,,,
F89,,WINNSBORO MUNI,18/36,32.15302777,-91.69858333,,,,
F92,,KINGFISHER,18/36,35.87667222,-97.9529375,,,,
F95,,CALHOUN COUNTY,18/36,30.48703166,-85.11378583,,,,
F98,,YOAKUM COUNTY,17/35,33.21719444,-102.8300833,,,,
F99,,HOLDENVILLE MUNI,17/35,35.08586111,-96.41666666,,,,
FAI,PAFA,FAIRBANKS INTL,02R/20L,64.81535555,-147.8566667,,,,
FAM,KFAM,FARMINGTON RGNL,02/20,37.76101777,-90.42859805,,,,
FAQ,NSFQ,FITIUTA,12/30,-14.21611222,-169.4235494,2023-12-27T22:30:00Z,15.0,MVFR,LFAQ 272230Z AUTO 22015KT 9999 OVC017 10/07 Q1012
FAR,KFAR,HECTOR INTL,09/27,46.92063888,-96.81575,2023-12-27T21:53:00Z,11.0,LIFR,KFAR 272153Z 35011KT 10SM OVC004 01/M01 A3009 RMK AO2 SLP201 T00111006
FAT,KFAT,FRESNO YOSEMITE INTL,11R/29L,36.77655555,-119.7188333,2023-12-27T22:30:00Z,13.0,VFR,LFAT 272230Z AUTO 22013KT 200V260 9999 FEW016 SCT045 OVC230 12/09 Q1009
FAY,KFAY,FAYETTEVILLE RGNL/GRANNIS FLD,10/28,34.99121111,-78.88027416,2023-12-27T22:37:00Z,8.0,VFR,KFAY 272237Z 29008KT 10SM FEW018 FEW024 18/17 A2976 RMK AO2 T01780167
FBL,KFBL,FARIBAULT MUNI-LIZ WALL STROHFUS FLD,01/19,44.32896938,-93.31307363,2023-12-27T22:30:00Z,7.0,VFR,LFBL 272230Z AUTO 18007KT 140V210 9999 BKN041 BKN050 OVC060 08/02 Q1021 NOSIG
FBR,KFBR,FORT BRIDGER,07/25,41.39333333,-110.4059722,2023-12-27T22:35:00Z,5.0,VFR,KFBR 272235Z AUTO 29005KT 10SM CLR 03/M05 A3028 RMK AO2 T00321055
FBY,KFBY,FAIRBURY MUNI,17/35,40.18197222,-97.16788888,2023-12-27T22:30:00Z,2.0,VFR,LFBY 272230Z AUTO VRB02KT 9999 // ////// 06/05 Q1021
FCH,KFCH,FRESNO CHANDLER EXEC,12/30,36.73212416,-119.8203325,2023-12-27T22:35:00Z,5.0,VFR,KFCH 272235Z AUTO 16005KT 10SM CLR 18/08 A3011 RMK A01
FCI,KFCI,RICHMOND EXEC/CHESTERFIELD COUNTY,15/33,37.40644444,-77.52483333,2023-12-27T22:47:00Z,5.0,MVFR,KFCI 272247Z AUTO 12005KT SCT002 OVC015 14/ RMK AO2 PWINO $
FCM,KFCM,FLYING CLOUD,10L/28R,44.82750722,-93.45857166,2023-12-27T21:53:00Z,0.0,VFR,KFCM 272153Z 00000KT 10SM FEW031 02/M04 A3005 RMK AO2 SLP187 T00221039
FCY,KFCY,HUTFLY,18/36,34.94199805,-90.77496611,,,,
FDK,KFDK,FREDERICK MUNI,12/30,39.41702111,-77.37473222,2023-12-27T21:47:00Z,5.0,IFR,KFDK 272147Z 03005KT 3SM BR BKN006 OVC100 11/11 A2983
FDR,KFDR,FREDERICK RGNL,03/21,34.3520958,-98.98390908,2023-12-27T21:53:00Z,11.0,VFR,KFDR 272153Z AUTO 35011KT 10SM BKN045 08/00 A3006 RMK AO2 SLP181 T00830000
FDW,KFDW,FAIRFIELD COUNTY,04/22,34.31572222,-81.10855555,2023-12-27T22:35:00Z,0.0,VFR,KFDW 272235Z AUTO 00000KT 10SM CLR 13/12 A2981 RMK AO1
FDY,KFDY,FINDLAY,18/36,41.01202777,-83.66861111,2023-12-27T22:42:00Z,5.0,MVFR,KFDY 272242Z AUTO 34005KT 9SM OVC014 10/07 A2984 RMK AO2 T01000067
FEP,KFEP,ALBERTUS,06/24,42.24611472,-89.58197666,2023-12-27T22:35:00Z,8.0,VFR,KFEP 272235Z AUTO 04008KT CLR 03/00 A2998 RMK AO2 T00251004
FET,KFET,FREMONT MUNI,14/32,41.44994444,-96.52119444,2023-12-27T22:35:00Z,7.0,VFR,KFET 272235Z AUTO 33007KT 10SM CLR A3007 RMK AO2
FFA,KFFA,FIRST FLIGHT,03/21,36.01758333,-75.67158333,2023-12-27T22:35:00Z,,LIFR,KFFA 272235Z AUTO 3/4SM -RA OVC003 14/14 A2973 RMK AO2 T01400140
FFC,KFFC,ATLANTA RGNL FALCON FLD,13/31,33.35772222,-84.57252777,2023-12-27T21:53:00Z,0.0,VFR,KFFC 272153Z AUTO 00000KT 10SM CLR 12/05 A2989 RMK AO2 SLP124 T01220050
FFL,KFFL,FAIRFIELD MUNI,18/36,41.05571983,-91.9808218,2023-12-27T22:35:00Z,11.0,VFR,KFFL 272235Z AUTO 01011KT 6SM BR FEW006 SCT020 01/01 A2992 RMK A01
FFM,KFFM,FERGUS FALLS MUNI/EINAR MICKELSON FLD,13/31,46.28438888,-96.15669444,2023-12-27T22:35:00Z,5.0,IFR,KFFM 272235Z AUTO 01005KT 10SM OVC008 02/02 A3008 RMK AO2
FFT,KFFT,CAPITAL CITY,07/25,38.18173169,-84.90674977,2023-12-27T21:53:00Z,3.0,VFR,KFFT 272153Z AUTO 14003KT 10SM CLR 09/03 A2984 RMK AO2 SLP108 T00890028
FFX,KFFX,FREMONT MUNI,10/28,43.43930555,-85.99488888,2023-12-27T22:35:00Z,7.0,MVFR,KFFX 272235Z AUTO 02007KT 10SM OVC018 05/01 A2994 RMK AO2 T00480005
FFZ,KFFZ,FALCON FLD,04L/22R,33.46084055,-111.7283253,2023-12-27T21:54:00Z,0.0,VFR,KFFZ 272154Z 00000KT 10SM CLR 18/M03 A3012 RMK AO2 SLP189 T01781033
FGU,KFGU,COLLEGEDALE MUNI,03/21,35.04442083,-85.02006666,,,,
FGX,KFGX,FLEMING-MASON,07/25,38.54181722,-83.74337666,2023-12-27T22:35:00Z,4.0,VFR,KFGX 272235Z AUTO 25004KT 10SM CLR 06/04 A2987 RMK AO2 T00620035
FHB,KFHB,FERNANDINA BEACH MUNI,04/22,30.61183333,-81.46119444,2023-12-27T22:35:00Z,7.0,VFR,KFHB 272235Z AUTO 24007KT 10SM CLR 15/10 A2992 RMK AO2
FHR,KFHR,FRIDAY HARBOR,16/34,48.52197222,-123.0243611,2023-12-27T21:53:00Z,16.0,VFR,KFHR 272153Z AUTO 13016G24KT 10SM BKN085 13/03 A2973 RMK AO2 PK WND 13031/2124 SLP067 T01330033
FHU,KFHU,SIERRA VISTA MUNI-LIBBY AAF,H1,31.58847222,-110.3443889,2023-12-27T21:55:00Z,0.0,VFR,KFHU 272155Z AUTO 00000KT 10SM CLR 14/M13 A3016 RMK AO2 SLP201 T01391132
FIG,KFIG,CLEARFIELD-LAWRENCE,12/30,41.04913361,-78.41515791,2023-12-27T22:43:00Z,3.0,MVFR,KFIG 272243Z AUTO 04003KT 10SM FEW002 BKN028 OVC100 09/07 A2984 RMK AO2 RAB2156E18 P0000 T00940072
FIN,KFIN,FLAGLER EXEC,H1,29.46515111,-81.20764833,2023-12-27T21:50:00Z,0.0,VFR,KFIN 272150Z 00000KT 10SM CLR 17/11 A2992
FIT,KFIT,FITCHBURG MUNI,14/32,42.55384722,-71.75917388,2023-12-27T21:52:00Z,0.0,VFR,KFIT 272152Z AUTO 00000KT 10SM OVC070 09/06 A3004 RMK AO2 SLP176 T00890061
FKA,KFKA,FILLMORE COUNTY,11/29,43.67675,-92.17975,2023-12-27T22:35:00Z,4.0,VFR,KFKA 272235Z AUTO 04004KT 10SM FEW050 OVC060 01/01 A3003 RMK AO2
FKL,KFKL,VENANGO RGNL,03/21,41.37741666,-79.86063888,2023-12-27T21:56:00Z,4.0,IFR,KFKL 272156Z AUTO 14004KT 10SM OVC007 A2981 RMK AO2 SLPNO FZRANO $
FKN,KFKN,FRANKLIN RGNL,09/27,36.70029638,-76.90213555,2023-12-27T22:35:00Z,0.0,IFR,KFKN 272235Z AUTO 00000KT 2 1/2SM BR BKN007 OVC010 16/16 A2976 RMK AO2 T01620160
FKR,KFKR,FRANKFORT CLINTON COUNTY RGNL,04/22,40.27343083,-86.56217027,2023-12-27T22:35:00Z,11.0,VFR,KFKR 272235Z AUTO 03011KT 10SM FEW065 BKN075 OVC090 05/03 A2987 RMK AO2
FKS,KFKS,FRANKFORT DOW MEML FLD,15/33,44.62520166,-86.20085527,2023-12-27T22:30:00Z,5.0,VFR,LFKS 272230Z AUTO 28005KT 250V310 CAVOK 09/06 Q1028
FLD,KFLD,FOND DU LAC COUNTY,18/36,43.77116666,-88.48841666,2023-12-27T21:53:00Z,7.0,VFR,KFLD 272153Z AUTO 36007KT 10SM CLR 03/M03 A3002 RMK AO2 SLP174 T00331028
FLG,KFLG,FLAGSTAFF PULLIAM,03/21,35.14031583,-111.6692414,2023-12-27T21:57:00Z,8.0,VFR,KFLG 272157Z 08008KT 10SM CLR 09/M12 A3020 RMK AO2 SLP214 T00941122
FLL,KFLL,FORT LAUDERDALE/HOLLYWOOD INTL,10R/28L,26.07166666,-80.14969444,2023-12-27T21:53:00Z,4.0,VFR,KFLL 272153Z 31004KT 10SM BKN250 23/11 A2991 RMK AO2 SLP129 T02330106 $
FLO,KFLO,FLORENCE RGNL,01/19,34.18536333,-79.72388305,2023-12-27T22:40:00Z,7.0,MVFR,KFLO 272240Z 28007KT 10SM BKN028 17/14 A2980 RMK AO2 T01670139
FLP,KFLP,MARION COUNTY RGNL,04/22,36.29088888,-92.59025,2023-12-27T21:56:00Z,10.0,VFR,KFLP 272156Z AUTO 28010KT 10SM SCT037 OVC048 04/M03 A2993 RMK AO2 SLP140 T00391028
FLT,,FLAT,08/26,62.45264888,-157.98907,,,,
FLV,KFLV,SHERMAN AAF,16/34,39.36757555,-94.91433972,,,,
FLX,KFLX,FALLON MUNI,03/21,39.49916944,-118.7487922,2023-12-27T22:30:00Z,12.0,VFR,LFLX 272230Z AUTO 21012KT 9999 -RA BKN039 BKN045 OVC058 11/03 Q1019 TEMPO 4500 -RA
FLY,KFLY,MEADOW LAKE,16/34,38.94276972,-104.5699047,2023-12-27T22:30:00Z,21.0,VFR,LFLY 272230Z AUTO 18021KT 150V210 CAVOK 11/04 Q1023 BECMG 18015G25KT
FME,KFME,TIPTON,10/28,39.08538666,-76.75941444,2023-12-27T22:29:00Z,5.0,IFR,KFME 272229Z AUTO 09005KT 2SM OVC006 11/11 A2982 RMK AO1
FMM,KFMM,FORT MORGAN MUNI,08/26,40.33544444,-103.8041667,2023-12-27T22:35:00Z,16.0,VFR,KFMM 272235Z AUTO 34016G24KT 10SM 05/M07 A3014 RMK AO2
FMN,KFMN,FOUR CORNERS RGNL,05/23,36.74125111,-108.2299417,2023-12-27T22:30:00Z,10.0,VFR,LFMN 272230Z 33010KT 9999 FEW024 SCT030 09/05 Q1027 NOSIG
FMY,KFMY,PAGE FLD,05/23,26.586615,-81.86324694,2023-12-27T21:53:00Z,9.0,VFR,KFMY 272153Z AUTO 29009KT 10SM BKN100 BKN110 21/13 A2992 RMK AO2 SLP133 T02110128
FMZ,KFMZ,FAIRMONT STATE,12/30,40.58609758,-97.57313655,,,,
FNB,KFNB,BRENNER FLD,15/33,40.07877777,-95.592,2023-12-27T21:53:00Z,11.0,MVFR,KFNB 272153Z AUTO 33011G21KT 10SM OVC021 02/M02 A3000 RMK AO2 SLP166 T00171017
FNL,KFNL,NORTHERN COLORADO RGNL,15/33,40.45181583,-105.0113256,2023-12-27T22:00:00Z,12.0,VFR,NFNL 272200Z 09012KT 9999 SCT026 SCT048 30/24 Q1013
FNT,KFNT,BISHOP INTL,18/36,42.96546388,-83.74473805,2023-12-27T21:53:00Z,7.0,LIFR,KFNT 272153Z AUTO 35007KT 10SM OVC003 07/06 A2989 RMK AO2 SLP125 T00670056
FOA,KFOA,FLORA MUNI,03/21,38.66499022,-88.45311202,2023-12-27T22:35:00Z,8.0,VFR,KFOA 272235Z AUTO 09008KT 10SM SCT049 OVC070 07/02 A2983 RMK AO2
FOD,KFOD,FORT DODGE RGNL,12/30,42.55119444,-94.19183333,2023-12-27T22:47:00Z,9.0,MVFR,KFOD 272247Z AUTO 02009KT 10SM -RA BKN014 OVC034 02/M01 A3003 RMK AO2 RAB20 P0000 FZRANO
FOE,KFOE,TOPEKA RGNL,13/31,38.95094916,-95.66361361,2023-12-27T21:53:00Z,14.0,MVFR,KFOE 272153Z 31014G22KT 10SM OVC017 01/M01 A2998 RMK AO2 SLP160 T00111011
FOK,KFOK,FRANCIS S GABRESKI,01/19,40.84361861,-72.63181194,2023-12-27T22:30:00Z,13.0,MVFR,LFOK 272230Z AUTO 20013KT 9999 -RA BKN026 OVC033 09/03 Q1016 TEMPO 4000 RA BKN012 OVC018
FOM,KFOM,FILLMORE MUNI,04/22,38.95813888,-112.3631389,2023-12-27T22:35:00Z,,VFR,KFOM 272235Z AUTO 10SM CLR 05/M07 A3031 RMK AO1
FOT,KFOT,ROHNERVILLE,11/29,40.55394138,-124.1326556,2023-12-27T22:30:00Z,13.0,MVFR,LFOT 272230Z AUTO 21013KT 9999 BKN020 BKN026 OVC035 10/07 Q1017 TEMPO 4500 -RA BECMG BKN012
FOZ,KFOZ,BIGFORK MUNI,15/33,47.78393402,-93.65099369,2023-12-27T22:33:00Z,3.0,LIFR,KFOZ 272233Z AUTO 01003KT 3/4SM OVC003 03/02 A3013 RMK AO2
FPK,KFPK,FITCH H BEACH,03/21,42.57408888,-84.81209722,2023-12-27T22:35:00Z,6.0,IFR,KFPK 272235Z AUTO 35006KT 10SM OVC007 05/04 A2989 RMK AO2
FPR,KFPR,TREASURE COAST INTL,10R/28L,27.49747222,-80.37263888,2023-12-27T21:53:00Z,0.0,VFR,KFPR 272153Z 00000KT 10SM CLR 22/15 A2991 RMK AO2 SLP127 T02220150
FPY,KFPY,PERRY-FOLEY,18/36,30.0708125,-83.58154388,2023-12-27T22:35:00Z,3.0,VFR,KFPY 272235Z AUTO 23003KT 10SM CLR 15/10 A2995 RMK AO2 T01460098
FQD,KFQD,RUTHERFORD COUNTY/MARCHMAN FLD,01/19,35.42822222,-81.93507777,2023-12-27T22:25:00Z,3.0,VFR,KFQD 272225Z AUTO 15003KT 10SM CLR 13/12 A2980 RMK AO2
FRG,KFRG,REPUBLIC,H2,40.72927444,-73.41342055,2023-12-27T22:30:00Z,10.0,MVFR,LFRG 272230Z AUTO 21010KT 9999 FEW013 BKN024 BKN042 10/09 Q1012
FRH,KFRH,FRENCH LICK MUNI,08/26,38.50622222,-86.63694444,2023-12-27T22:35:00Z,6.0,VFR,KFRH 272235Z AUTO 05006KT 10SM OVC120 07/00 A2983 RMK AO1
FRM,KFRM,FAIRMONT MUNI,13/31,43.64394444,-94.41561111,2023-12-27T22:10:00Z,4.0,MVFR,KFRM 272210Z AUTO 03004KT 10SM BKN019 01/M02 A3006 RMK AO2 FZRANO
FRR,KFRR,FRONT ROYAL-WARREN COUNTY,10/28,38.91751222,-78.25337333,,,,
FSD,KFSD,JOE FOSS FLD,09/27,43.58201805,-96.74192527,2023-12-27T22:30:00Z,8.0,VFR,LFSD 272230Z AUTO 19008KT CAVOK 06/01 Q1020
FSE,KFSE,FOSSTON MUNI/ANDERSON FLD,16/34,47.59282972,-95.77348666,,,,
FSK,KFSK,FORT SCOTT MUNI,18/36,37.79836111,-94.76936111,2023-12-27T22:35:00Z,12.0,MVFR,KFSK 272235Z AUTO 30012G18KT 10SM OVC014 01/M01 A2998 RMK AO2 T00131011
FSM,KFSM,FORT SMITH RGNL,02/20,35.33664638,-94.36610916,2023-12-27T21:53:00Z,9.0,VFR,KFSM 272153Z 28009KT 10SM BKN043 OVC050 05/M03 A3001 RMK AO2 SLP165 T00501033
FSO,KFSO,FRANKLIN COUNTY STATE,01/19,44.94027777,-73.09747222,2023-12-27T22:35:00Z,0.0,LIFR,KFSO 272235Z AUTO 00000KT 1/2SM FG BKN001 OVC012 05/04 A3000 RMK AO2 T00480042
FSP,PAFS,NIKOLAI,05/23,63.01855888,-154.3584381,,,,
FST,KFST,FORT STOCKTON-PECOS COUNTY,11/29,30.91525,-102.9127778,2023-12-27T22:30:00Z,4.0,VFR,LFST 272230Z AUTO 18004KT 140V210 CAVOK 04/M00 Q1018 NOSIG
FSU,KFSU,FORT SUMNER MUNI,08/26,34.4887513,-104.2164184,,,,
FSW,KFSW,FORT MADISON MUNI,17/35,40.65911111,-91.32775,2023-12-27T22:35:00Z,7.0,VFR,KFSW 272235Z AUTO 04007KT 10SM -RA 03/03 A2988 RMK AO2 P0002
FTT,KFTT,ELTON HENSLEY MEML,12/30,38.83811111,-92.00258333,,,,
FTW,KFTW,FORT WORTH MEACHAM INTL,17/35,32.81977027,-97.36245,2023-12-27T21:53:00Z,10.0,VFR,KFTW 272153Z 33010KT 10SM CLR 09/M01 A3006 RMK AO2 SLP181 T00891011
FTY,KFTY,FULTON COUNTY EXEC/CHARLIE BROWN FLD,08/26,33.77912638,-84.521366,2023-12-27T21:53:00Z,6.0,VFR,KFTY 272153Z 23006KT 10SM CLR 13/04 A2988 RMK AO2 SLP115 T01280039
FUL,KFUL,FULLERTON MUNI,06/24,33.87201416,-117.9797842,2023-12-27T21:53:00Z,3.0,MVFR,KFUL 272153Z VRB03KT 3SM HZ CLR 19/11 A3011 RMK AO2 SLP194 T01890111 $
FVE,KFVE,NORTHERN AROOSTOOK RGNL,14/32,47.2855,-68.31272222,2023-12-27T21:53:00Z,3.0,VFR,KFVE 272153Z AUTO 30003KT 10SM OVC100 00/M12 A3009 RMK AO2 SLP200 T00001117
FVX,KFVX,FARMVILLE RGNL,03/21,37.35752777,-78.43780555,2023-12-27T22:35:00Z,3.0,IFR,KFVX 272235Z AUTO 34003KT 10SM OVC005 12/11 A2976 RMK AO2 T01150113
FWA,KFWA,FORT WAYNE INTL,05/23,40.97847222,-85.19516666,2023-12-27T21:54:00Z,7.0,VFR,KFWA 272154Z 34007KT 10SM FEW023 BKN160 BKN240 08/02 A2987 RMK AO2 SLP119 T00780022
FWB,KFWB,BRANSON WEST MUNI - EMERSON FLD,03/21,36.6985,-93.40225,2023-12-27T22:35:00Z,13.0,MVFR,KFWB 272235Z AUTO 27013G20KT 230V290 10SM OVC016 01/M02 A2992 RMK AO2
FWC,KFWC,FAIRFIELD MUNI,09/27,38.37863305,-88.41265222,2023-12-27T22:35:00Z,6.0,VFR,KFWC 272235Z AUTO 09006KT OVC046 08/02 A2982 RMK AO1 T00760017 PWINO
FWN,KFWN,SUSSEX,03/21,41.20021388,-74.62303527,2023-12-27T22:19:00Z,5.0,MVFR,KFWN 272219Z AUTO 03005KT 7SM FEW011 BKN026 OVC031 08/07 A2996 RMK AO2 T00830067
FWQ,KFWQ,ROSTRAVER,08/26,40.20972222,-79.83144444,,,,
FWS,KFWS,FORT WORTH SPINKS,18R/36L,32.56513361,-97.30843944,2023-12-27T22:16:00Z,10.0,VFR,PFWS 272216Z AUTO 15010KT 10SM SCT025 OVC043 M04/M06 A2974 RMK AO2 FZRANO
FXE,KFXE,FORT LAUDERDALE EXEC,13/31,26.19727936,-80.17070627,2023-12-27T21:53:00Z,4.0,VFR,KFXE 272153Z VRB04KT 10SM CLR 23/12 A2992 RMK AO2 SLP133 T02330122
FXY,KFXY,FOREST CITY MUNI,15/33,43.23475691,-93.62410394,2023-12-27T22:35:00Z,7.0,VFR,KFXY 272235Z AUTO 35007KT 10SM OVC035 01/00 A3004 RMK AO2
FYE,KFYE,FAYETTE COUNTY,01/19,35.20769444,-89.39444444,2023-12-27T22:35:00Z,7.0,VFR,KFYE 272235Z AUTO 27007G13KT 10SM BKN045 OVC050 09/01 A2988 RMK A01
FYG,KFYG,WASHINGTON RGNL,15/33,38.58758333,-90.99380555,2023-12-27T22:35:00Z,0.0,VFR,KFYG 272235Z AUTO 00000KT 8SM -SN CLR 01/01 A2986 RMK AO2
FYJ,KFYJ,MIDDLE PENINSULA RGNL,10/28,37.52136111,-76.76275,2023-12-27T22:35:00Z,0.0,LIFR,KFYJ 272235Z AUTO 00000KT 4SM OVC004 15/15 A2978 RMK AO1 T01450145
FYM,KFYM,FAYETTEVILLE MUNI,02/20,35.05969444,-86.564,2023-12-27T22:35:00Z,4.0,VFR,KFYM 272235Z AUTO 18004KT 10SM FEW065 11/M00 A2985 RMK A01
FYU,PFYU,FORT YUKON,04/22,66.57241666,-145.2463333,2023-12-27T21:56:00Z,0.0,VFR,PFYU 272156Z 00000KT 10SM FEW002 M33/M36 A2996 RMK AO2 SLP171 T13331361
FYV,KFYV,DRAKE FLD,16/34,36.00508333,-94.17005555,2023-12-27T21:53:00Z,6.0,VFR,KFYV 272153Z 29006G15KT 10SM FEW034 OVC050 03/M03 A2996 RMK AO2 SLP150 T00331033
FZG,KFZG,FITZGERALD MUNI,02/20,31.68390461,-83.27090363,2023-12-27T22:35:00Z,3.0,VFR,KFZG 272235Z AUTO 24003KT 10SM CLR 15/07 A2992 RMK AO2 T01520067
FZI,KFZI,FOSTORIA METRO,09/27,41.19083333,-83.39308333,,,,
FZY,KFZY,OSWEGO COUNTY,15/33,43.35077361,-76.38805555,2023-12-27T21:54:00Z,4.0,VFR,KFZY 272154Z AUTO 13004KT 6SM -RA BR OVC060 10/09 A2989 RMK AO2 SLP122 P0008 T01000089
G05,,FINLEYVILLE AIRPARK,14/32,40.24545,-80.00981388,,,,
GA2,,PEACH STATE AERODROME,13/31,33.18345305,-84.37159027,,,,
GAB,KGAB,GABBS,09/27,38.92226388,-117.9585611,,,,
GAD,KGAD,NORTHEAST ALABAMA RGNL,06/24,33.97264886,-86.08908344,2023-12-27T22:20:00Z,0.0,VFR,LGAD 272220Z 00000KT 9999 FEW025 09/07 Q1026
GAF,KGAF,HUTSON FLD,08/26,48.40471555,-97.37095666,2023-12-27T22:35:00Z,3.0,LIFR,KGAF 272235Z AUTO 01003KT M1/4SM FZFG OVC001 M01/M01 A3017 RMK AO2
GAG,KGAG,GAGE,17/35,36.29576527,-99.77649583,2023-12-27T21:53:00Z,10.0,VFR,KGAG 272153Z AUTO 34010KT 10SM OVC034 06/M02 A3007 RMK AO2 SLP190 T00561017
GAI,KGAI,MONTGOMERY COUNTY AIRPARK,14/32,39.16833333,-77.166,2023-12-27T22:35:00Z,4.0,MVFR,KGAI 272235Z AUTO 09004KT 3SM +RA BR SCT005 BKN010 OVC019 11/11 A2981 RMK AO2 CIG 008V013 P0019
GAL,PAGA,EDWARD G PITKA SR,08/26,64.73618972,-156.9345547,2023-12-27T22:20:00Z,0.0,VFR,LGAL 272220Z 00000KT 9999 FEW020 07/05 Q1026
GAM,PAGM,GAMBELL,16/34,63.76661638,-171.7327839,2023-12-27T22:30:00Z,,VFR,UGAM 272230Z AUTO /////KT //// ////// 02/01 Q1019
GAO,KGAO,SOUTH LAFOURCHE LEONARD MILLER JR,H1,29.44111111,-90.26111111,2023-12-27T22:35:00Z,0.0,VFR,KGAO 272235Z AUTO 00000KT 10SM CLR 16/10 A2998 RMK AO2 T01610095
GAS,KGAS,GALLIA-MEIGS RGNL,05/23,38.83411152,-82.16342983,2023-12-27T22:00:00Z,5.0,VFR,SGAS 272200Z 05005KT CAVOK 30/16 Q1010
GBD,KGBD,GREAT BEND MUNI,11/29,38.34425138,-98.85919694,2023-12-27T21:56:00Z,13.0,MVFR,KGBD 272156Z AUTO 34013KT 10SM OVC025 01/M04 A3008 RMK AO2 SLP203 T00061039 FZRANO
GBG,KGBG,GALESBURG MUNI,03/21,40.93800052,-90.43112358,2023-12-27T22:35:00Z,9.0,VFR,KGBG 272235Z AUTO 05009KT 10SM BKN041 OVC046 04/04 A2992 RMK AO2 T00430043 TSNO
GBH,PAGB,GALBRAITH LAKE,14/32,68.47966666,-149.4899167,,,,
GBR,KGBR,WALTER J KOLADZA,11/29,42.18421416,-73.40324055,,,,
GCC,KGCC,NORTHEAST WYOMING RGNL,16/34,44.34890805,-105.5393675,2023-12-27T22:20:00Z,8.0,VFR,EGCC 272220Z AUTO 18008KT 150V220 9999 -RA SCT043 08/05 Q0991 TEMPO 3000 +TSRA BKN012 BKN025CB
GCD,KGCD,GRANT COUNTY RGNL/OGILVIE FLD,17/35,44.402982,-118.9677195,2023-12-27T22:35:00Z,7.0,VFR,KGCD 272235Z AUTO 05007KT 10SM SCT060 OVC080 05/M02 A3001 RMK AO2 T00481020
GCK,KGCK,GARDEN CITY RGNL,17/35,37.92752777,-100.7244167,2023-12-27T21:54:00Z,13.0,MVFR,KGCK 272154Z 36013KT 10SM BKN020 OVC025 02/M01 A3006 RMK AO2 SLP195 T00221006
GCM,KGCM,CLAREMORE RGNL,18/36,36.29272222,-95.47961111,2023-12-27T22:35:00Z,12.0,VFR,KGCM 272235Z AUTO 31012KT 10SM SCT044 SCT050 04/M04 A3002 RMK AO2
GCN,KGCN,GRAND CANYON NTL PARK,03/21,35.95236111,-112.1469722,2023-12-27T21:54:00Z,6.0,VFR,KGCN 272154Z 33006KT 10SM CLR 09/M08 A3022 RMK AO2 SLP229 T00891078
GCT,KGCT,GUTHRIE COUNTY RGNL,18/36,41.68697222,-94.43505555,,,,
GCY,KGCY,GREENEVILLE MUNI,05/23,36.19572222,-82.81136111,2023-12-27T22:35:00Z,0.0,VFR,KGCY 272235Z AUTO 00000KT 10SM CLR 09/07 A2983 RMK A01
GDA,KGDA,MARION-CRITTENDEN COUNTY JAMES C JOHNSON RGNL,07/25,37.33593944,-88.11067083,2023-12-27T22:35:00Z,0.0,VFR,KGDA 272235Z AUTO 00000KT 10SM BKN040 OVC046 07/02 A2983 RMK AO2 T00740015 PWINO
GDB,KGDB,GRANITE FALLS MUNI/LENZEN-ROE-FAGEN MEML FLD,15/33,44.75245922,-95.55553008,2023-12-27T22:35:00Z,5.0,VFR,KGDB 272235Z AUTO 22005KT 10SM SCT012 OVC032 01/M01 A3009 RMK AO2 T00111009
GDJ,KGDJ,GRANBURY RGNL,01/19,32.44307222,-97.82137277,2023-12-27T22:35:00Z,10.0,VFR,KGDJ 272235Z AUTO 31010KT 10SM CLR 10/M01 A3010 RMK AO2 T01001007
GDM,KGDM,GARDNER MUNI,18/36,42.54988888,-72.01602777,2023-12-27T22:20:00Z,26.0,MVFR,EGDM 272220Z AUTO 23026G39KT 9999 OVC026/// 11/07 Q1002
GDV,KGDV,DAWSON COMMUNITY,12/30,47.13872222,-104.8072222,2023-12-27T21:56:00Z,8.0,VFR,KGDV 272156Z AUTO 17008KT 10SM CLR 04/M06 A3018 RMK AO2 SLP253 T00391056 TSNO
GDW,KGDW,GLADWIN ZETTEL MEML,09/27,43.97058944,-84.47501972,,,,
GED,KGED,DELAWARE COASTAL,10/28,38.68763277,-75.35930444,,,,
GEG,KGEG,SPOKANE INTL,03/21,47.61902777,-117.5352222,2023-12-27T21:53:00Z,8.0,VFR,KGEG 272153Z 05008KT 10SM FEW080 BKN110 OVC160 03/M01 A3002 RMK AO2 SLP181 VIRGA T00281011
GEO,KGEO,BROWN COUNTY,18/36,38.88194558,-83.88273666,,,,
GEU,KGEU,GLENDALE MUNI,01/19,33.52691666,-112.2951389,2023-12-27T21:50:00Z,0.0,VFR,KGEU 272150Z 00000KT 10SM SCT180 BKN220 11/M03 A3011
GEV,KGEV,ASHE COUNTY,10/28,36.43247222,-81.4185,2023-12-27T22:25:00Z,9.0,VFR,KGEV 272225Z AUTO 28009G14KT 10SM SCT023 10/06 A2981 RMK AO2 T00970056
GEY,KGEY,SOUTH BIG HORN COUNTY,08/26,44.51794444,-108.083,2023-12-27T21:53:00Z,3.0,VFR,KGEY 272153Z AUTO 17003KT 10SM CLR 01/M11 A3022 RMK AO2 SLP285 T00111106
GEZ,KGEZ,SHELBYVILLE MUNI,01/19,39.58313888,-85.80480555,2023-12-27T21:53:00Z,4.0,VFR,KGEZ 272153Z AUTO 33004KT 10SM FEW100 09/02 A2986 RMK AO2 SLP114 T00890017
GFD,KGFD,POPE FLD,18/36,39.79032083,-85.73608861,,,,
GFK,KGFK,GRAND FORKS INTL,H2,47.94727777,-97.17377777,2023-12-27T21:53:00Z,12.0,LIFR,KGFK 272153Z 35012KT 1/2SM R35L/5000VP6000FT BR OVC002 M01/M02 A3013 RMK AO2 SFC VIS 1 1/4 SLP215 I1001 T10061017
GFL,KGFL,FLOYD BENNETT MEML,01/19,43.34122222,-73.61030555,2023-12-27T22:20:00Z,0.0,LIFR,KGFL 272220Z AUTO 00000KT 1/2SM FG OVC045 07/07 A3000 RMK AO2 T00670067
GFZ,KGFZ,GREENFIELD MUNI,14/32,41.32722222,-94.44516666,,,,
GGE,KGGE,GEORGETOWN COUNTY,11/29,33.31141666,-79.32030555,2023-12-27T22:35:00Z,5.0,VFR,KGGE 272235Z AUTO 27005KT 10SM SCT024 16/13 A2982 RMK AO2
GGF,KGGF,GRANT MUNI,15/33,40.87066336,-101.7338794,2023-12-27T22:35:00Z,16.0,MVFR,KGGF 272235Z AUTO 34016G22KT 10SM OVC018 01/M02 A3009 RMK AO2
GGG,KGGG,EAST TEXAS RGNL,18/36,32.384,-94.7115,2023-12-27T21:53:00Z,11.0,VFR,KGGG 272153Z 30011KT 10SM CLR 12/M01 A3001 RMK AO2 SLP163 T01171011
GGI,KGGI,GRINNELL RGNL,13/31,41.70988888,-92.73597222,2023-12-27T22:35:00Z,8.0,IFR,KGGI 272235Z AUTO 05008KT 10SM DZ BKN008 BKN017 OVC046 03/02 A2997 RMK AO2 T00300023
GGP,KGGP,LOGANSPORT/CASS COUNTY,09/27,40.71126444,-86.37270472,2023-12-27T22:20:00Z,18.0,MVFR,EGGP 272220Z 19018KT 6000 TSRA SCT023 BKN033 08/06 Q0991 RETSRA RETS
GGV,PAGG,KWIGILLINGOK,15/33,59.87568888,-163.1680875,,,,
GGW,KGGW,WOKAL FLD/GLASGOW-VALLEY COUNTY,08/26,48.21244444,-106.6148056,2023-12-27T22:20:00Z,14.0,VFR,EGGW 272220Z AUTO 21014KT 9999 FEW024 09/06 Q1001
GHG,KGHG,MARSHFIELD MUNI - GEORGE HARLOW FLD,06/24,42.09749883,-70.67301986,2023-12-27T22:35:00Z,0.0,LIFR,KGHG 272235Z AUTO 00000KT 1/2SM FG OVC003 08/08 A3005 RMK AO2
GHM,KGHM,CENTERVILLE MUNI,02/20,35.83741583,-87.44537694,,,,
GHW,KGHW,GLENWOOD MUNI,05/23,45.64383013,-95.32044891,2023-12-27T22:35:00Z,0.0,LIFR,KGHW 272235Z AUTO 00000KT 1 1/4SM BR OVC003 00/M01 A3005 RMK AO2
GIC,KGIC,IDAHO COUNTY,08/26,45.94266666,-116.1230278,2023-12-27T22:35:00Z,4.0,VFR,KGIC 272235Z AUTO 36004KT 10SM SCT110 00/00 A3005 RMK AO1
GIF,KGIF,WINTER HAVEN RGNL,11/29,28.06292027,-81.75331444,2023-12-27T21:53:00Z,6.0,VFR,KGIF 272153Z AUTO 31006KT 10SM SCT120 21/08 A2995 RMK AO2 SLP138 T02060083
GJT,KGJT,GRAND JUNCTION RGNL,11/29,39.12241666,-108.52675,2023-12-27T21:53:00Z,0.0,VFR,KGJT 272153Z 00000KT 10SM CLR 03/M11 A3027 RMK AO2 SLP274 T00331111
GKJ,KGKJ,PORT MEADVILLE,07/25,41.62652777,-80.21472222,2023-12-27T22:42:00Z,0.0,IFR,KGKJ 272242Z AUTO 00000KT 2 1/2SM BR SCT039 BKN060 09/08 A2981 RMK AO2 VIS 1V5 T00890078
GKN,PAGK,GULKANA,15R/33L,62.15433472,-145.4552917,,,,
GKT,KGKT,GATLINBURG-PIGEON FORGE,10/28,35.85775861,-83.52870305,2023-12-27T22:35:00Z,0.0,VFR,KGKT 272235Z AUTO 00000KT 10SM CLR 11/08 A2984 RMK A01
GKY,KGKY,ARLINGTON MUNI,16/34,32.66386111,-97.09427777,2023-12-27T21:53:00Z,14.0,VFR,KGKY 272153Z 31014KT 10SM CLR 11/M02 A3006 RMK AO2 SLP178 T01061017
GLD,KGLD,RENNER FLD/GOODLAND MUNI,17/35,39.37074083,-101.6987339,2023-12-27T21:53:00Z,14.0,MVFR,KGLD 272153Z AUTO 34014G22KT 10SM OVC025 02/M03 A3006 RMK AO2 PK WND 36027/2058 SLP194 T00171033
GLE,KGLE,GAINESVILLE MUNI,18/36,33.65219444,-97.19727777,2023-12-27T22:35:00Z,11.0,VFR,KGLE 272235Z AUTO 31011G17KT 10SM CLR 09/M03 A3008 RMK AO2 T00861028 PWINO
GLH,KGLH,GREENVILLE MID-DELTA,18R/36L,33.48288111,-90.98561388,2023-12-27T21:53:00Z,11.0,VFR,KGLH 272153Z 27011KT 10SM OVC060 13/01 A2991 RMK AO2 SLP138 T01280011
GLR,KGLR,GAYLORD RGNL,09/27,45.01302777,-84.70344444,2023-12-27T22:11:00Z,4.0,LIFR,KGLR 272211Z AUTO VRB04KT 1/4SM FG VV002 04/02 A2995 RMK AO2 T00390022
GLS,KGLS,SCHOLES INTL AT GALVESTON,18/36,29.26533333,-94.86041666,2023-12-27T21:52:00Z,8.0,VFR,KGLS 272152Z 02008KT 10SM CLR 18/04 A3000 RMK AO2 SLP157 T01830039
GLV,PAGL,GOLOVIN,03/21,64.55045861,-163.0071719,,,,
GLW,KGLW,GLASGOW MUNI,08/26,37.03177638,-85.95375583,2023-12-27T22:35:00Z,0.0,VFR,KGLW 272235Z AUTO 00000KT 10SM SCT070 06/03 A2985 RMK AO2 T00610034
GLY,KGLY,CLINTON RGNL,04/22,38.35470027,-93.67918694,2023-12-27T22:35:00Z,7.0,IFR,KGLY 272235Z AUTO 31007KT 4SM -SN BR BKN008 OVC014 01/01 A2991 RMK AO2
GMJ,KGMJ,GROVE RGNL,18/36,36.60677777,-94.73855555,2023-12-27T22:35:00Z,8.0,VFR,KGMJ 272235Z AUTO 29008KT 260V320 10SM SCT026 OVC034 03/M01 A3000 RMK AO2 TSNO
GMU,KGMU,GREENVILLE DOWNTOWN,H2,34.84794444,-82.35,2023-12-27T21:53:00Z,7.0,VFR,KGMU 272153Z 23007KT 10SM CLR 13/11 A2982 RMK AO2 SLP095 T01330111 $
GNB,KGNB,GRANBY-GRAND COUNTY,09/27,40.09005555,-105.9166389,2023-12-27T22:35:00Z,0.0,VFR,KGNB 272235Z AUTO 00000KT 10SM CLR M04/M13 A3025 RMK AO2 T10451131
GNC,KGNC,GAINES COUNTY,08/26,32.67533333,-102.6526667,2023-12-27T22:35:00Z,8.0,VFR,KGNC 272235Z AUTO 34008KT 10SM CLR 14/M03 A3013 RMK AO2 T01351034
GNF,KGNF,GRENADA MUNI,13/31,33.83244444,-89.79816666,,,,
GNG,KGNG,GOODING MUNI,07/25,42.91708083,-114.7663381,2023-12-27T22:35:00Z,22.0,VFR,KGNG 272235Z AUTO 07022G31KT 10SM -SN CLR 01/M03 A3025 RMK AO2
GNT,KGNT,GRANTS-MILAN MUNI,13/31,35.16727777,-107.9020556,2023-12-27T22:35:00Z,13.0,VFR,KGNT 272235Z AUTO 34013KT 10SM CLR 08/M21 A3018 RMK AO2 T00751210
GNU,,GOODNEWS,06/24,59.11786111,-161.5736667,,,,
GNV,KGNV,GAINESVILLE RGNL,11/29,29.69005555,-82.27177777,2023-12-27T21:53:00Z,3.0,VFR,KGNV 272153Z 26003KT 10SM CLR 17/11 A2995 RMK AO2 SLP142 T01670106
GOK,KGOK,GUTHRIE/EDMOND RGNL,16/34,35.85152272,-97.41617755,2023-12-27T21:53:00Z,8.0,VFR,KGOK 272153Z AUTO 34008G16KT 300V020 10SM CLR 04/M06 A3005 RMK AO2 SLP183 T00391061
GON,KGON,GROTON-NEW LONDON,15/33,41.33005555,-72.04513888,2023-12-27T21:56:00Z,4.0,IFR,KGON 272156Z 04004KT 10SM -RA BKN005 OVC090 10/10 A3001 RMK AO2 RAB33 SLP162 P0000 T01000100
GOO,KGOO,NEVADA COUNTY,07/25,39.22405555,-121.0025556,2023-12-27T22:35:00Z,7.0,VFR,KGOO 272235Z AUTO 14007G13KT 110V190 10SM BKN035 BKN041 OVC060 08/04 A3008 RMK A01
GOP,KGOP,GATESVILLE MUNI,17/35,31.42093888,-97.79646388,2023-12-27T22:35:00Z,8.0,VFR,KGOP 272235Z AUTO 32008G16KT 10SM CLR 13/01 A3006 RMK AO2
GOV,KGOV,GRAYLING AAF,05/23,44.68033333,-84.72886111,2023-12-27T22:00:00Z,2.0,MVFR,GGOV 272200Z VRB02KT 6000 NSC 24/14 Q1012 NOSIG
GPC,KGPC,PUTNAM COUNTY RGNL,18/36,39.63352777,-86.81380555,2023-12-27T22:20:00Z,11.0,VFR,EGPC 272220Z AUTO 23011KT 9999 -RA FEW020/// SCT026/// 05/03 Q0974
GPH,KGPH,MIDWEST NTL AIR CENTER,18/36,39.33250777,-94.30964805,2023-12-27T22:20:00Z,11.0,VFR,EGPH 272220Z 23011KT 9999 SCT029 07/04 Q0983
GPI,KGPI,GLACIER PARK INTL,12/30,48.3105,-114.256,2023-12-27T22:20:00Z,15.0,MVFR,EGPI 272220Z AUTO 23015KT 9999 BKN015/// 06/04 Q0983
GPM,KGPM,GRAND PRAIRIE MUNI,18/36,32.69877777,-97.04691666,2023-12-27T21:50:00Z,8.0,VFR,KGPM 272150Z 31008G18KT 10SM SKC 10/M02 A3008
GPT,KGPT,GULFPORT-BILOXI INTL,18/36,30.40726916,-89.07009583,2023-12-27T21:53:00Z,4.0,VFR,KGPT 272153Z 19004KT 10SM CLR 14/10 A2995 RMK AO2 SLP140 T01440100
GPZ,KGPZ,GRAND RAPIDS/ITASCA COUNTY-GORDON NEWSTROM FLD,05/23,47.20928388,-93.50994472,2023-12-27T22:20:00Z,3.0,VFR,LGPZ 272220Z AUTO VRB03KT //// // ////// 10/09 Q1027 RE//
GQQ,KGQQ,GALION MUNI,05/23,40.75338888,-82.72380555,,,,
GRB,KGRB,GREEN BAY/AUSTIN STRAUBEL INTL,18/36,44.48463361,-88.12971333,2023-12-27T21:53:00Z,6.0,VFR,KGRB 272153Z 06006KT 10SM CLR 02/M03 A3004 RMK AO2 SLP183 T00221033
GRD,KGRD,GREENWOOD COUNTY,05/23,34.25039375,-82.15780933,2023-12-27T21:56:00Z,6.0,VFR,KGRD 272156Z AUTO 23006KT 10SM CLR 14/12 A2984 RMK AO2 SLP102 T01390117
GRE,KGRE,GREENVILLE,18/36,38.83622222,-89.37888888,,,,
GRI,KGRI,CENTRAL NEBRASKA RGNL,13/31,40.9675425,-98.30963888,2023-12-27T22:42:00Z,8.0,MVFR,KGRI 272242Z 33008KT 10SM BKN027 OVC032 M02/M06 A3009 RMK AO2 T10171056
GRK,KGRK,ROBERT GRAY AAF,15/33,31.06725,-97.82891666,2023-12-27T21:55:00Z,9.0,VFR,KGRK 272155Z 34009KT 7SM CLR 14/01 A3003 RMK AO2A SLP169 T01420011
GRN,KGRN,GORDON MUNI,11/29,42.80597222,-102.17525,2023-12-27T22:35:00Z,11.0,VFR,KGRN 272235Z AUTO 33011KT 10SM SCT033 00/M06 A3012 RMK AO2 T10031064
GRO,PGRO,BENJAMIN TAISACAN MANGLONA INTL,09/27,14.17434944,145.2411192,2023-12-27T21:50:00Z,12.0,VFR,PGRO 272150Z 07012KT 7SM SCT015 BKN085 26/23 A2997
GRR,KGRR,GERALD R FORD INTL,08L/26R,42.88083333,-85.52280555,2023-12-27T21:53:00Z,8.0,MVFR,KGRR 272153Z 36008KT 10SM OVC016 06/03 A2992 RMK AO2 SLP137 T00610028
GSH,KGSH,GOSHEN MUNI,09/27,41.52613341,-85.79427016,2023-12-27T22:20:00Z,17.0,VFR,EGSH 272220Z AUTO 21017KT 180V240 9999 FEW032/// 10/06 Q1001
GSN,PGSN,FRANCISCO C ADA/SAIPAN INTL,07/25,15.12024861,145.7299864,2023-12-27T21:54:00Z,12.0,VFR,PGSN 272154Z 07012KT 10SM FEW012 SCT028 27/23 A3002 RMK AO2 RAE2057 SLP187 P0000 T02720233
GSO,KGSO,PIEDMONT TRIAD INTL,05L/23R,36.10132666,-79.94112277,2023-12-27T21:54:00Z,3.0,IFR,KGSO 272154Z 33003KT 4SM -DZ BR BKN005 OVC010 13/12 A2977 RMK AO2 SLP076 P0000 T01330122
GSP,KGSP,GREENVILLE SPARTANBURG INTL,04/22,34.89567111,-82.21885944,2023-12-27T21:53:00Z,9.0,VFR,KGSP 272153Z 22009KT 10SM CLR 14/11 A2982 RMK AO2 SLP091 T01390106
GST,PAGS,GUSTAVUS,11/29,58.42527777,-135.7074167,,,,
GTE,KGTE,GOTHENBURG MUNI,03/21,40.92548333,-100.1465694,2023-12-27T22:20:00Z,21.0,VFR,EGTE 272220Z 22021G33KT 9999 -SHRA SCT035 11/08 Q1003
GTF,KGTF,GREAT FALLS INTL,03/21,47.48229927,-111.3702794,2023-12-27T21:53:00Z,12.0,VFR,KGTF 272153Z 22012KT 10SM CLR 06/M07 A3007 RMK AO2 SLP215 T00561067
GTG,KGTG,GRANTSBURG MUNI,05/23,45.79837786,-92.66433091,,,,
GTR,KGTR,GOLDEN TRIANGLE RGNL,18/36,33.44827777,-88.59138888,2023-12-27T21:56:00Z,8.0,VFR,KGTR 272156Z 20008KT 10SM OVC050 13/05 A2987 RMK AO2 SLP124 T01330050
GTU,KGTU,GEORGETOWN EXEC,11/29,30.67880555,-97.67938888,2023-12-27T21:56:00Z,9.0,VFR,KGTU 272156Z 33009KT 10SM CLR 16/00 A3003 RMK AO2 SLP165 T01560000 $
GUC,KGUC,GUNNISON-CRESTED BUTTE RGNL,06/24,38.53433333,-106.93175,2023-12-27T21:56:00Z,0.0,VFR,KGUC 272156Z AUTO 00000KT 10SM CLR 00/M14 A3018 RMK AO2 SLP270 T00001139 FZRANO
GUM,PGUM,GUAM INTL,06R/24L,13.48395194,144.7971294,2023-12-27T22:03:00Z,7.0,VFR,PGUM 272203Z 04007KT 10SM FEW012 SCT031 SCT070 25/24 A3002 RMK AO2 RAE2158 T02500244 PNO $
GUP,KGUP,GALLUP MUNI,06/24,35.51105833,-108.7893094,2023-12-27T21:53:00Z,9.0,VFR,KGUP 272153Z AUTO 20009KT 10SM CLR 07/M13 A3018 RMK AO2 SLP254 T00721128
GUR,KGUR,CAMP GUERNSEY,14/32,42.25975,-104.7283056,2023-12-27T21:55:00Z,14.0,VFR,KGUR 272155Z AUTO 32014G20KT 10SM CLR 06/M07 A3014 RMK AO2 SLP240 T00621071
GUS,KGUS,GRISSOM ARB,05/23,40.64809166,-86.15211944,2023-12-27T21:55:00Z,5.0,VFR,KGUS 272155Z AUTO 36005KT 10SM OVC080 07/01 A2987 RMK AO2 SLP124 T00740010 $
GUY,KGUY,GUYMON MUNI,18/36,36.68415547,-101.5069686,2023-12-27T21:53:00Z,15.0,VFR,KGUY 272153Z AUTO 36015G22KT 10SM SCT080 07/M01 A3007 RMK AO2 PK WND 35035/2103 SLP180 T00671006
GVE,KGVE,GORDONSVILLE MUNI,05/23,38.15599611,-78.16578,2023-12-27T22:35:00Z,0.0,IFR,KGVE 272235Z AUTO 00000KT 10SM BKN007 OVC014 11/11 A2978 RMK AO1 T01130106
GVL,KGVL,LEE GILMER MEML,05/23,34.27262638,-83.83022611,2023-12-27T21:53:00Z,8.0,VFR,KGVL 272153Z AUTO 25008KT 10SM CLR 12/07 A2986 RMK AO2 SLP107 T01170067 $
GVQ,KGVQ,GENESEE COUNTY,10/28,43.03175,-78.16966666,2023-12-27T22:40:00Z,6.0,LIFR,KGVQ 272240Z AUTO 09006KT 3/4SM -RA BR FEW003 BKN017 09/09 A2982 RMK AO2 P0002
GVT,KGVT,MAJORS,17/35,33.06783333,-96.06533333,2023-12-27T22:35:00Z,12.0,VFR,KGVT 272235Z AUTO 30012KT 10SM CLR 09/M02 A3005 RMK AO2 TSNO T00911025
GWB,KGWB,DE KALB COUNTY,09/27,41.30716666,-85.06436111,2023-12-27T22:35:00Z,8.0,VFR,KGWB 272235Z AUTO 36008KT 10SM CLR 05/03 A2988 RMK AO2
GWO,KGWO,GREENWOOD-LEFLORE,18/36,33.49330894,-90.08667741,2023-12-27T21:53:00Z,4.0,VFR,KGWO 272153Z AUTO VRB04KT 10SM OVC060 13/02 A2990 RMK AO2 SLP125 T01330017
GWR,KGWR,GWINNER-ROGER MELROE FLD,06/24,46.21827777,-97.64336111,2023-12-27T22:35:00Z,11.0,LIFR,KGWR 272235Z AUTO 01011KT 1 1/4SM BR OVC002 00/00 A3010 RMK A01
GWS,KGWS,GLENWOOD SPRINGS MUNI,14/32,39.506,-107.3090833,,,,
GWW,KGWW,WAYNE EXEC JETPORT,05/23,35.46055527,-77.9649275,2023-12-27T22:30:00Z,0.0,MVFR,KGWW 272230Z AUTO 00000KT 10SM OVC015 17/17 A2974 RMK AO2 T01720172
GXY,KGXY,GREELEY-WELD COUNTY,H1,40.43741666,-104.6332222,2023-12-27T21:56:00Z,18.0,VFR,KGXY 272156Z 36018KT 10SM CLR 08/M11 A3014 RMK AO2 SLP220 T00781106
GYB,KGYB,GIDDINGS-LEE COUNTY,17/35,30.16927777,-96.98002777,2023-12-27T22:35:00Z,0.0,VFR,KGYB 272235Z AUTO 00000KT 10SM CLR 16/00 A3003 RMK AO2 T01550001
GYH,KGYH,DONALDSON FLD,05/23,34.75831277,-82.37641388,2023-12-27T22:20:00Z,23.0,VFR,EGYH 272220Z AUTO 22023KT 9999 NCD 09/05 Q0998
GYI,KGYI,NORTH TEXAS RGNL/PERRIN FLD,13/31,33.71419111,-96.67435972,2023-12-27T21:50:00Z,13.0,VFR,KGYI 272150Z 33013G20KT 10SM CLR 09/M02 A3006
GYL,KGYL,GLENCOE MUNI,13/31,44.75600583,-94.08146055,2023-12-27T22:35:00Z,0.0,VFR,KGYL 272235Z AUTO 00000KT 10SM SCT070 00/M03 A3007 RMK AO2 T00021030
GYR,KGYR,PHOENIX GOODYEAR,H1,33.42327777,-112.3753611,2023-12-27T21:47:00Z,3.0,VFR,KGYR 272147Z VRB03KT 10SM FEW180 BKN220 BKN250 17/M01 A3014
GYY,KGYY,GARY/CHICAGO INTL,02/20,41.61725,-87.41452777,2023-12-27T22:45:00Z,15.0,VFR,KGYY 272245Z 36015KT 10SM BKN075 05/04 A2995
GZH,KGZH,EVERGREEN RGNL/MIDDLETON FLD,01/19,31.415,-87.04336111,2023-12-27T21:53:00Z,4.0,VFR,KGZH 272153Z AUTO 22004KT 10SM CLR 14/04 A2992 RMK AO2 SLP133 T01440044
GZL,KGZL,STIGLER RGNL,17/35,35.28816666,-95.09388888,2023-12-27T22:35:00Z,8.0,VFR,KGZL 272235Z AUTO 31008G13KT 10SM SCT043 05/M04 A3003 RMK AO2
GZN,KGZN,GREGORY M SIMMONS MEML,18/36,32.36583333,-99.02369444,2023-12-27T22:20:00Z,11.0,VFR,KGZN 272220Z AUTO 34011G17KT 10SM BKN041 10/M00 A3007 RMK AO2
GZS,KGZS,ABERNATHY FLD,16/34,35.15408333,-87.05705555,2023-12-27T22:35:00Z,7.0,VFR,KGZS 272235Z AUTO 19007KT 12/M00 RMK A01
H04,,VINITA MUNI,17/35,36.61461627,-95.15169477,,,,
H05,,WILBURTON MUNI,17/35,34.92020694,-95.39390277,,,,
H07,,HIGHLAND-WINET,18/36,38.77925,-89.64045138,,,,
H17,,BUFFALO MUNI,04/22,37.65408333,-93.087,,,,
H19,,BOWLING GREEN MUNI,13/31,39.37069638,-91.22027944,,,,
H28,,WHETSTONE INTL,07/25,48.99998972,-112.7925808,,,,
H34,,HUNTSVILLE MUNI,12/30,36.07822666,-93.75475472,,,,
H35,,CLARKSVILLE MUNI,09/27,35.47067805,-93.42715722,,,,
H37,,HERLONG,06/24,40.13872222,-120.1799722,,,,
H47,,HYAMPOM,14/32,40.62561111,-123.4685,,,,
H57,,BISMARCK MEML,17/35,37.75880555,-90.61680555,,,,
H58,,OWEN FLD,15/33,37.18405,-92.73705277,,,,
H66,,NOWATA MUNI,17/35,36.72092222,-95.62525583,,,,
H68,,HEFNER-EASLEY,18/36,35.96569444,-95.34180555,,,,
H70,,STRATFORD FLD,04/22,36.34563888,-102.04925,,,,
H71,,MID-AMERICA INDUSTRIAL,18/36,36.2253875,-95.33005694,,,,
H75,,HERNANDO VILLAGE AIRPARK,14/32,34.79815444,-90.03703583,,,,
H76,,PAWHUSKA MUNI,17/35,36.67172611,-96.40556916,,,,
H79,,ELDON MODEL AIRPARK,18/36,38.3615838,-92.57131761,,,,
H80,,FIELD OF DREAMS,08/26,44.36469166,-83.76282361,,,,
H81,,RIVER FALLS,04/22,35.08142538,-101.7557974,,,,
H88,,A PAUL VANCE FREDERICKTOWN RGNL,01/19,37.60563888,-90.28747222,,,,
H92,,HOMINY MUNI,17/35,36.44275,-96.38722222,,,,
H96,,BENTON MUNI,18/36,38.0085,-88.93444444,,,,
H97,,PAWNEE MUNI,18/36,36.37731111,-96.80520833,,,,
HAB,KHAB,MARION COUNTY-RANKIN FITE,18/36,34.11694444,-87.99822222,,,,
HAD,KHAD,HARFORD FLD,07/25,42.92441,-106.30947,,,,
HAE,KHAE,HANNIBAL RGNL,17/35,39.72516666,-91.44386111,2023-12-27T22:35:00Z,0.0,LIFR,KHAE 272235Z AUTO 00000KT 2 1/2SM -SN OVC002 01/00 A2985 RMK AO2 P0001
HAF,KHAF,HALF MOON BAY,12/30,37.51344444,-122.5011667,2023-12-27T22:35:00Z,22.0,LIFR,KHAF 272235Z AUTO 17022KT 3/4SM BR SCT006 BKN009 BKN014 13/13 A3003 RMK AO2
HAI,KHAI,THREE RIVERS MUNI/DR HAINES,05/23,41.95974027,-85.59306222,2023-12-27T22:35:00Z,4.0,MVFR,KHAI 272235Z AUTO 34004KT 10SM BKN012 OVC023 04/03 A2990 RMK AO2 T00390025
HAO,KHAO,BUTLER COUNTY RGNL/HOGAN FLD,11/29,39.36375,-84.52194444,2023-12-27T21:53:00Z,3.0,VFR,KHAO 272153Z AUTO 33003KT 10SM CLR 08/01 A2987 RMK AO2 SLP118 T00780006 PNO
HBC,KHBC,MOHALL MUNI,13/31,48.76888527,-101.5376422,,,,
HBG,KHBG,HATTIESBURG BOBBY L CHAIN MUNI,13/31,31.26494444,-89.25288888,2023-12-27T21:53:00Z,6.0,VFR,KHBG 272153Z AUTO 21006KT 10SM CLR 15/06 A2993 RMK AO2 SLP132 T01500061
HBI,KHBI,ASHEBORO RGNL,03/21,35.654525,-79.89473722,2023-12-27T22:25:00Z,0.0,IFR,KHBI 272225Z AUTO 00000KT 7SM OVC008 14/14 A2981 RMK AO2 T01410138
HBR,KHBR,HOBART RGNL,03/21,34.98991666,-99.05305861,2023-12-27T21:53:00Z,11.0,VFR,KHBR 272153Z AUTO 33011KT 10SM BKN040 07/M01 A3008 RMK AO2 SLP190 T00721006
HBV,KHBV,JIM HOGG COUNTY,13/31,27.34955555,-98.73694444,2023-12-27T22:35:00Z,7.0,VFR,KHBV 272235Z AUTO 35007KT 10SM CLR 22/01 A3001 RMK AO2 T02170011
HBZ,KHBZ,HEBER SPRINGS MUNI,06/24,35.51169388,-92.01300944,,,,
HCA,PAHC,HOLY CROSS,01/19,62.18830555,-159.7749444,2023-12-27T22:00:00Z,6.0,VFR,MHCA 272200Z 10006KT 9999 SCT028TCU 31/22 Q1014
HCD,KHCD,HUTCHINSON MUNI/BUTLER FLD,15/33,44.85988888,-94.3825,2023-12-27T22:35:00Z,5.0,VFR,KHCD 272235Z AUTO 28005KT 10SM OVC065 01/M02 A3008 RMK AO2 T00081022
HCO,KHCO,HALLOCK MUNI,13/31,48.75273138,-96.94300305,2023-12-27T21:55:00Z,4.0,LIFR,KHCO 272155Z AUTO 31004KT M1/4SM FZFG OVC001 M01/M01 A3015 RMK AO2
HCR,KHCR,HEBER VALLEY,04/22,40.48180555,-111.4288056,2023-12-27T22:35:00Z,0.0,VFR,KHCR 272235Z AUTO 00000KT 10SM CLR 03/M08 A3025 RMK AO2
HDC,KHDC,HAMMOND NORTHSHORE RGNL,13/31,30.5216875,-90.41837972,2023-12-27T22:15:00Z,6.0,VFR,LHDC 272215Z AUTO 17006KT 140V200 9999 OVC038 04/02 Q1026 NOSIG
HDE,KHDE,BREWSTER FLD,18/36,40.4518,-99.33600833,2023-12-27T22:35:00Z,7.0,LIFR,KHDE 272235Z AUTO 03007KT 3SM BR OVC004 M02/M03 A3007 RMK AO2 T10221028
HDH,PHDH,KAWAIHAPAI AIRFIELD,08/26,21.57947361,-158.1972814,,,,
HDL,KHDL,HEADLAND MUNI,09/27,31.36413888,-85.31252777,2023-12-27T22:35:00Z,6.0,VFR,KHDL 272235Z AUTO 23006KT 10SM SCT100 15/05 A2992 RMK AO2
HDN,KHDN,YAMPA VALLEY,10/28,40.48119444,-107.2176667,2023-12-27T21:56:00Z,0.0,VFR,KHDN 272156Z AUTO 00000KT 10SM CLR M05/M10 A3028 RMK AO2 SLP329 T10501100 FZRANO
HDO,KHDO,SOUTH TEXAS RGNL AT HONDO,17R/35L,29.35913055,-99.17749166,2023-12-27T21:51:00Z,4.0,VFR,KHDO 272151Z AUTO 33004KT 10SM CLR 22/M02 A3000 RMK AO2 SLP153 T02171022
HEE,KHEE,THOMPSON-ROBBINS,09/27,34.57649194,-90.67588944,,,,
HEF,KHEF,MANASSAS RGNL/HARRY P DAVIS FLD,16R/34L,38.72102308,-77.51510119,2023-12-27T22:09:00Z,0.0,IFR,KHEF 272209Z 00000KT 9SM -RA OVC007 13/13 A2979 RMK AO2 CIG 005V010 P0001
HEG,KHEG,HERLONG RECREATIONAL,11/29,30.27778583,-81.80594555,2023-12-27T22:35:00Z,3.0,VFR,KHEG 272235Z AUTO 21003KT 10SM CLR 15/09 A2994 RMK AO2
HEI,KHEI,HETTINGER/JB LINDQUIST RGNL,12/30,46.01488888,-102.656,2023-12-27T21:53:00Z,7.0,VFR,KHEI 272153Z AUTO 32007KT 10SM CLR 07/M09 A3015 RMK AO2 SLP237 T00671094
HEQ,KHEQ,HOLYOKE,14/32,40.56942972,-102.2726889,2023-12-27T22:35:00Z,16.0,VFR,KHEQ 272235Z AUTO 34016G20KT 10SM SCT022 SCT027 OVC046 03/M04 A3011 RMK AO2
HES,KHES,HEALDSBURG MUNI,13/31,38.65285916,-122.8986415,,,,
HEZ,KHEZ,HARDY-ANDERS FLD/NATCHEZ-ADAMS COUNTY,14/32,31.61366111,-91.29733555,2023-12-27T21:56:00Z,10.0,VFR,KHEZ 272156Z AUTO 28010KT 10SM CLR 16/02 A2993 RMK AO2 SLP137 T01610017
HFD,KHFD,HARTFORD-BRAINARD,NE/SW,41.73672222,-72.64944444,2023-12-27T22:13:00Z,5.0,IFR,KHFD 272213Z 35005KT 5SM BR BKN006 BKN065 08/07 A3001 RMK AO2 T00780067
HFJ,KHFJ,MONETT RGNL,18/36,36.90512944,-94.01416638,2023-12-27T22:35:00Z,9.0,MVFR,KHFJ 272235Z AUTO 30009KT 10SM OVC014 00/M01 A2995 RMK AO2
HFY,KHFY,INDY SOUTH GREENWOOD,01/19,39.62761111,-86.08802777,2023-12-27T22:35:00Z,3.0,VFR,KHFY 272235Z AUTO 36003KT 10SM OVC100 08/M01 A2988 RMK AO2 T00791009
HGR,KHGR,HAGERSTOWN RGNL/RICHARD A HENSON FLD,09/27,39.7085,-77.7265,2023-12-27T22:25:00Z,15.0,MVFR,EHGR 272225Z AUTO 21015G27KT 180V250 9999 OVC024 11/05 Q1008 WHT
HHF,KHHF,HEMPHILL COUNTY,04/22,35.89511111,-100.4038889,2023-12-27T22:35:00Z,6.0,VFR,KHHF 272235Z AUTO 35006KT 10SM OVC032 06/00 A3008 RMK AO2 T00560000
HHG,KHHG,HUNTINGTON MUNI,10/28,40.85291666,-85.45705555,2023-12-27T22:35:00Z,3.0,VFR,KHHG 272235Z AUTO 35003KT 10SM CLR 07/02 A2988 RMK AO2 T00650021
HHR,KHHR,JACK NORTHROP FLD/HAWTHORNE MUNI,07/25,33.92286111,-118.3350833,2023-12-27T21:53:00Z,4.0,VFR,KHHR 272153Z 30004KT 10SM FEW018 18/12 A3012 RMK AO2 SLP201 T01780122
HHW,KHHW,STAN STAMPER MUNI,17/35,34.03363888,-95.54205555,2023-12-27T22:25:00Z,36.0,MVFR,EHHW 272225Z AUTO 20036G47KT 9999 FEW001/// SCT012/// BKN016/// 09/07 Q1001
HIB,KHIB,RANGE RGNL,04/22,47.386575,-92.83897805,2023-12-27T22:25:00Z,0.0,MVFR,KHIB 272225Z AUTO 00000KT 10SM FEW014 SCT023 OVC027 02/01 A3007 RMK AO2 T00170006
HIE,KHIE,MOUNT WASHINGTON RGNL,10/28,44.36755555,-71.54580555,2023-12-27T22:41:00Z,0.0,LIFR,KHIE 272241Z AUTO 00000KT 1SM BR OVC004 04/04 A3002 RMK AO2 T00440044
HIG,KHIG,HIGGINSVILLE INDUSTRIAL MUNI,16/34,39.07244444,-93.67736111,,,,
HII,KHII,LAKE HAVASU CITY,14/32,34.57112388,-114.3582769,2023-12-27T22:35:00Z,4.0,VFR,KHII 272235Z AUTO 29004KT 10SM CLR 18/M08 A3014 RMK AO2
HIO,KHIO,PORTLAND-HILLSBORO,02/20,45.54212175,-122.9507219,2023-12-27T21:53:00Z,6.0,VFR,KHIO 272153Z 30006KT 10SM -RA OVC055 07/06 A2981 RMK AO2 SLP096 P0002 T00720061
HJH,KHJH,HEBRON MUNI,03/21,40.15194444,-97.58452777,2023-12-27T22:35:00Z,9.0,VFR,KHJH 272235Z AUTO 35009KT 10SM SCT045 00/M04 A3008 RMK AO2 T10041042
HJO,KHJO,HANFORD MUNI,14/32,36.31672222,-119.6276667,2023-12-27T21:53:00Z,5.0,VFR,KHJO 272153Z AUTO 24005KT 10SM CLR 18/09 A3010 RMK AO2 SLP195 T01780089
HKA,KHKA,BLYTHEVILLE MUNI,18/36,35.94041666,-89.83080555,2023-12-27T21:53:00Z,8.0,VFR,KHKA 272153Z AUTO 31008G16KT 10SM SCT037 OVC060 06/00 A2988 RMK AO2 WSHFT 2049 SLP120 T00610000
HKS,KHKS,HAWKINS FLD,16/34,32.33477777,-90.22252777,2023-12-27T21:53:00Z,10.0,VFR,KHKS 272153Z 25010KT 10SM CLR 14/00 A2991 RMK AO2 SLP123 T01440000
HKY,KHKY,HICKORY RGNL,01/19,35.74114555,-81.38955055,2023-12-27T22:39:00Z,0.0,MVFR,KHKY 272239Z 00000KT 10SM BKN016 13/12 A2978 RMK AO2 T01280117
HLA,PAHL,HUSLIA,03/21,65.69786111,-156.3513889,,,,
HLB,KHLB,BATESVILLE,18/36,39.34311111,-85.25841666,2023-12-27T22:35:00Z,0.0,VFR,KHLB 272235Z AUTO 00000KT 10SM BKN120 07/02 A2984 RMK A01
HLC,KHLC,HILL CITY MUNI,18/36,39.38019444,-99.83147222,2023-12-27T22:32:00Z,8.0,VFR,KHLC 272232Z AUTO 33008KT 10SM SCT022 BKN037 OVC049 02/M01 A3007 RMK AO2 T00171011
HLG,KHLG,WHEELING OHIO COUNTY,16/34,40.17501138,-80.64626833,2023-12-27T21:53:00Z,5.0,VFR,KHLG 272153Z 08005KT 10SM OVC040 12/11 A2980 RMK AO2 SLP093 T01220106
HLN,KHLN,HELENA RGNL,10/28,46.60672222,-111.9832778,2023-12-27T21:53:00Z,3.0,VFR,KHLN 272153Z AUTO 28003KT 10SM CLR M01/M08 A3020 RMK AO2 SLP294 T10111078
HLX,KHLX,TWIN COUNTY,01/19,36.76611083,-80.82356,2023-12-27T22:35:00Z,8.0,MVFR,KHLX 272235Z AUTO 31008KT 10SM OVC029 10/07 A2980 RMK AO2 T01030071
HMP,KHMP,ATLANTA SPEEDWAY,06/24,33.38990333,-84.33103666,2023-12-27T22:35:00Z,0.0,VFR,KHMP 272235Z AUTO 00000KT 10SM CLR 12/06 A2991 RMK AO2 T01180056
HMT,KHMT,HEMET-RYAN,05/23,33.73402777,-117.0223056,2023-12-27T22:35:00Z,4.0,VFR,KHMT 272235Z AUTO 25004KT 10SM CLR 20/04 A3012 RMK AO2 T02000044
HMZ,KHMZ,BEDFORD COUNTY,14/32,40.086125,-78.51349833,2023-12-27T22:35:00Z,0.0,MVFR,KHMZ 272235Z AUTO 00000KT 3SM -RA SCT010 BKN021 OVC050 09/08 A2983 RMK AO2 P0001 T00850080
HNB,KHNB,HUNTINGBURG,09/27,38.24901694,-86.95281944,2023-12-27T21:56:00Z,5.0,VFR,KHNB 272156Z AUTO 10005KT 10SM SCT080 OVC110 09/02 A2983 RMK AO2 SLP105 T00940017
HND,KHND,HENDERSON EXEC,17R/35L,35.972855,-115.1343847,2023-12-27T21:56:00Z,6.0,VFR,KHND 272156Z 04006KT 10SM CLR 14/M04 A3021 RMK AO2 SLP248 T01391044
HNH,PAOH,HOONAH,06/24,58.09619916,-135.4087563,,,,
HNL,PHNL,DANIEL K INOUYE INTL,08W/26W,21.31781722,-157.9202275,2023-12-27T21:53:00Z,4.0,VFR,PHNL 272153Z VRB04KT 10SM FEW025 SCT050 28/17 A3009 RMK AO2 SLP188 T02780172 $
HNM,PHHN,HANA,08/26,20.79563716,-156.0144379,,,,
HNR,KHNR,HARLAN MUNI,03/21,41.58436111,-95.33969444,2023-12-27T22:35:00Z,13.0,VFR,KHNR 272235Z AUTO 35013KT 8SM OVC036 00/M01 A3002 RMK A01
HNS,PAHN,HAINES,08/26,59.24382916,-135.5235375,,,,
HNZ,KHNZ,HENDERSON/OXFORD,06/24,36.36114083,-78.52982722,2023-12-27T22:30:00Z,3.0,LIFR,KHNZ 272230Z AUTO 31003KT 2 1/2SM RA BKN004 OVC009 15/14 A2975 RMK AO2 P0002 T01450143
HOB,KHOB,LEA COUNTY RGNL,12/30,32.6875,-103.2173333,2023-12-27T21:50:00Z,8.0,VFR,KHOB 272150Z 27008KT 10SM CLR 13/M04 A3010
HOC,KHOC,HIGHLAND COUNTY,05/23,39.18876133,-83.53879152,,,,
HOE,KHOE,HOMERVILLE,14/32,31.05688888,-82.77527777,2023-12-27T22:35:00Z,4.0,VFR,KHOE 272235Z AUTO 23004KT 10SM CLR 15/09 A2993 RMK AO2 T01510093
HOM,PAHO,HOMER,04/22,59.64499497,-151.4858084,,,,
HON,KHON,HURON RGNL,12/30,44.38519444,-98.22855555,2023-12-27T22:45:00Z,8.0,LIFR,KHON 272245Z AUTO 32008KT 2SM BR OVC004 01/00 A3007 RMK AO2 T00060000
HOT,KHOT,MEML FLD,05/23,34.47802777,-93.09622222,2023-12-27T21:53:00Z,7.0,VFR,KHOT 272153Z AUTO 31007G18KT 10SM CLR 06/M04 A2998 RMK AO2 SLP153 T00611044
HOU,KHOU,WILLIAM P HOBBY,04/22,29.64579983,-95.27723158,2023-12-27T21:53:00Z,10.0,VFR,KHOU 272153Z 31010KT 10SM FEW250 18/M01 A2999 RMK AO2 SLP160 T01831006
HPB,PAHP,HOOPER BAY,14/32,61.52387055,-166.1466228,,,,
HPN,KHPN,WESTCHESTER COUNTY,11/29,41.06695305,-73.70756611,2023-12-27T21:56:00Z,8.0,LIFR,KHPN 272156Z 09008KT 1/2SM R16/P6000FT DZ FG VV002 07/06 A2997 RMK AO2 DZE12B53RAB12E53 SLP152 P0000 T00720061
HPT,KHPT,HAMPTON MUNI,17/35,42.72369444,-93.22633333,2023-12-27T22:35:00Z,8.0,IFR,KHPT 272235Z AUTO 01008KT 2 1/2SM -SN SCT007 OVC019 01/00 A3002 RMK AO2
HPY,KHPY,BAYTOWN,14/32,29.78608333,-94.95266666,,,,
HQG,KHQG,HUGOTON MUNI,13/31,37.16335833,-101.3706775,2023-12-27T22:35:00Z,16.0,MVFR,KHQG 272235Z AUTO 35016G25KT 10SM OVC030 05/M01 A3008 RMK AO2 T00461011 PWINO
HQM,KHQM,BOWERMAN,06/24,46.97119444,-123.9365556,2023-12-27T21:53:00Z,11.0,VFR,KHQM 272153Z AUTO 11011KT 10SM SCT043 SCT100 11/07 A2971 RMK AO2 SLP064 T01110072
HQU,KHQU,THOMSON-MCDUFFIE COUNTY,10/28,33.52972222,-82.51694444,2023-12-27T22:35:00Z,0.0,VFR,KHQU 272235Z AUTO 00000KT 10SM CLR 13/11 A2985 RMK AO2 T01340106
HQZ,KHQZ,MESQUITE METRO,18/36,32.74696277,-96.53041722,2023-12-27T21:52:00Z,8.0,VFR,KHQZ 272152Z 30008KT 10SM CLR 10/M02 A3006
HRF,KHRF,RAVALLI COUNTY,17/35,46.25716588,-114.1238431,2023-12-27T22:40:00Z,0.0,VFR,KHRF 272240Z AUTO 00000KT 10SM BKN090 OVC110 M00/M05 A3013 RMK AO2 Hamilton 
HRI,KHRI,HERMISTON MUNI,05/23,45.82822222,-119.2591667,2023-12-27T21:53:00Z,5.0,VFR,KHRI 272153Z AUTO 11005KT 10SM -RA OVC075 05/02 A3001 RMK AO2 RAB51 SLP167 P0000 T00500022
HRJ,KHRJ,HARNETT RGNL JETPORT,05/23,35.380155,-78.73223666,2023-12-27T22:30:00Z,4.0,VFR,KHRJ 272230Z AUTO 27004KT 10SM SCT008 OVC034 18/17 A2976 RMK AO2 T01750171
HRL,KHRL,VALLEY INTL,17L/35R,26.22711111,-97.65513888,2023-12-27T21:52:00Z,10.0,VFR,KHRL 272152Z 04010KT 10SM CLR 21/11 A2998 RMK AO2 SLP150 T02110111
HRO,KHRO,BOONE COUNTY,18/36,36.26152055,-93.15472888,2023-12-27T22:00:00Z,5.0,VFR,MHRO 272200Z 10005KT 9999 FEW020 29/24 Q1010 A2983 NOSIG
HRR,PAHV,HEALY RIVER,15/33,63.86758333,-148.9688333,,,,
HRU,KHRU,HERINGTON RGNL,17/35,38.69472222,-96.80797222,,,,
HRX,KHRX,HEREFORD MUNI,02/20,34.86069888,-102.3258833,2023-12-27T22:35:00Z,11.0,VFR,KHRX 272235Z AUTO 35011G17KT 10SM CLR 11/M03 A3008 RMK AO2 T01121030 TSNO
HSA,KHSA,STENNIS INTL,18/36,30.36780472,-89.4546125,2023-12-27T22:25:00Z,33.0,VFR,EHSA 272225Z AUTO 22033KT 9999 ///////// 12/08 Q1005 W10/H28
HSB,KHSB,HARRISBURG-RALEIGH,14/32,37.81125611,-88.55025963,2023-12-27T22:35:00Z,5.0,VFR,KHSB 272235Z AUTO 24005KT 10SM BKN042 BKN060 OVC080 08/03 A2983 RMK AO2 T00770034
HSD,KHSD,SUNDANCE,18/36,35.60183333,-97.70616666,,,,
HSE,KHSE,BILLY MITCHELL,07/25,35.23280555,-75.61780555,2023-12-27T22:40:00Z,5.0,IFR,KHSE 272240Z AUTO 14005KT 1 1/2SM RA BR FEW022 OVC039 16/16 A2972 RMK AO2 RAE07B13 P0003 T01560156
HSG,KHSG,HOT SPRINGS COUNTY,05/23,43.71361111,-108.3896944,2023-12-27T22:35:00Z,0.0,VFR,KHSG 272235Z AUTO 00000KT 10SM CLR 01/M10 A3020 RMK AO2 T00131097
HSI,KHSI,HASTINGS MUNI,14/32,40.60525,-98.42788888,2023-12-27T22:01:00Z,10.0,VFR,KHSI 272201Z AUTO 34010KT 10SM FEW021 OVC031 M02/M06 A3008 RMK AO2 T10221056
HSP,KHSP,INGALLS FLD,07/25,37.95144444,-79.83389444,2023-12-27T22:35:00Z,3.0,LIFR,KHSP 272235Z AUTO 29003KT 1/4SM -RA OVC003 10/10 A2981 RMK AO2 T00980096
HSR,KHSR,HOT SPRINGS MUNI,01/19,43.36830555,-103.3882778,2023-12-27T22:00:00Z,0.0,VFR,MHSR 272200Z 00000KT 9999 FEW030 SCT100 29/14
HSV,KHSV,HUNTSVILLE INTL-CARL T JONES FLD,18R/36L,34.63719694,-86.77505416,2023-12-27T21:53:00Z,7.0,VFR,KHSV 272153Z 21007KT 10SM FEW070 SCT250 13/01 A2985 RMK AO2 SLP107 T01330006 $
HTF,KHTF,HORNELL MUNI,18/36,42.38213888,-77.68211111,,,,
HTH,KHTH,HAWTHORNE INDUSTRIAL,10/28,38.54507694,-118.6324031,2023-12-27T22:35:00Z,15.0,VFR,KHTH 272235Z AUTO 10015G22KT 10SM CLR 14/M03 A3002 RMK A01
HTL,KHTL,ROSCOMMON COUNTY/BLODGETT MEML,18/36,44.35986902,-84.66948302,,,,
HTS,KHTS,TRI-STATE/MILTON J FERGUSON FLD,12/30,38.3685078,-82.56036022,2023-12-27T21:51:00Z,0.0,MVFR,KHTS 272151Z 00000KT 10SM OVC015 09/07 A2984 RMK AO2 SLP105 T00940067 $
HTW,KHTW,LAWRENCE COUNTY AIRPARK,08/26,38.41911111,-82.49483333,,,,
HUF,KHUF,TERRE HAUTE RGNL,14/32,39.45063194,-87.30699,2023-12-27T21:53:00Z,6.0,VFR,KHUF 272153Z 08006KT 10SM OVC100 07/01 A2986 RMK AO2 SLP115 T00720011
HUL,KHUL,HOULTON INTL,01/19,46.12460694,-67.79236027,2023-12-27T21:53:00Z,0.0,MVFR,KHUL 272153Z AUTO 00000KT 10SM OVC022 02/M03 A3011 RMK AO2 SLP201 T00171028
HUM,KHUM,HOUMA-TERREBONNE,12/30,29.56650208,-90.66042666,2023-12-27T21:47:00Z,5.0,VFR,KHUM 272147Z 25005KT 7SM CLR 17/11 A2996
HUS,PAHU,HUGHES,18/36,66.03908333,-154.2646944,,,,
HUT,KHUT,HUTCHINSON RGNL,13/31,38.06615472,-97.86048972,2023-12-27T21:52:00Z,10.0,VFR,KHUT 272152Z 34010KT 10SM OVC033 00/M06 A3006 RMK AO2 SLP186 T00001061 $
HVC,KHVC,HOPKINSVILLE-CHRISTIAN COUNTY,08/26,36.85697222,-87.45508333,2023-12-27T22:35:00Z,0.0,VFR,KHVC 272235Z AUTO 00000KT 10SM BKN055 OVC070 09/03 A2980 RMK AO2
HVE,KHVE,HANKSVILLE,17/35,38.41941666,-110.7029167,2023-12-27T22:35:00Z,0.0,VFR,KHVE 272235Z AUTO 00000KT 10SM CLR 04/M12 A3031 RMK AO2
HVN,KHVN,TWEED/NEW HAVEN,02/20,41.26372472,-72.88772916,2023-12-27T21:53:00Z,0.0,LIFR,KHVN 272153Z 00000KT 6SM BR OVC003 09/09 A3000 RMK AO2 SLP160 T00940089
HVR,KHVR,HAVRE CITY-COUNTY,08/26,48.54298472,-109.7623422,2023-12-27T21:53:00Z,3.0,VFR,KHVR 272153Z AUTO 24003KT 10SM CLR 06/M06 A3010 RMK AO2 SLP217 T00561056
HVS,KHVS,HARTSVILLE RGNL,03/21,34.40308333,-80.11922222,2023-12-27T22:35:00Z,4.0,MVFR,KHVS 272235Z AUTO 25004KT 10SM BKN013 OVC025 15/14 A2980 RMK AO2
HWD,KHWD,HAYWARD EXEC,10R/28L,37.65892852,-122.1217372,2023-12-27T21:54:00Z,14.0,VFR,KHWD 272154Z 15014G21KT 10SM -RA BKN033 OVC050 17/10 A3002 RMK AO2 PK WND 14029/2139 SLP175 P0000 T01720100
HWO,KHWO,NORTH PERRY,10L/28R,26.00122222,-80.24072222,2023-12-27T22:25:00Z,14.0,MVFR,EHWO 272225Z AUTO 22014KT 190V260 9999 OVC019 11/06 Q1008 WHT
HWQ,KHWQ,WHEATLAND COUNTY AT HARLOWTON,09/27,46.44861111,-109.8527778,,,,
HWV,KHWV,BROOKHAVEN,06/24,40.82195416,-72.86690722,2023-12-27T21:56:00Z,0.0,VFR,KHWV 272156Z AUTO 00000KT 10SM OVC085 08/07 A2999 RMK AO2 RAE56 SLP156 P0000 T00830072
HWY,KHWY,WARRENTON/FAUQUIER,15/33,38.58628527,-77.71063083,2023-12-27T22:35:00Z,0.0,LIFR,KHWY 272235Z AUTO 00000KT 5SM -RA OVC003 13/11 A2979 RMK AO2 T01270113
HXD,KHXD,HILTON HEAD,03/21,32.224495,-80.69740083,2023-12-27T21:50:00Z,0.0,VFR,KHXD 272150Z 00000KT 10SM CLR 18/13 A2985
HXF,KHXF,HARTFORD MUNI,09/27,43.35004722,-88.39024083,,,,
HYA,KHYA,CAPE COD GATEWAY,15/33,41.66933722,-70.28035916,2023-12-27T21:56:00Z,0.0,LIFR,KHYA 272156Z 00000KT M1/4SM FG VV002 08/08 A3003 RMK AO2 SLP170 T00780078
HYI,KHYI,SAN MARCOS RGNL,08/26,29.89275,-97.863,2023-12-27T21:56:00Z,10.0,VFR,KHYI 272156Z 33010KT 10SM CLR 18/01 A3002 RMK AO2 SLP163 T01830006
HYR,KHYR,SAWYER COUNTY,16/34,46.02526608,-91.44426497,2023-12-27T22:00:00Z,,VFR,MHYR 272200Z 0000KT 9999 SCT025TCU 31/20
HYS,KHYS,HAYS RGNL,16/34,38.84222222,-99.27316666,2023-12-27T22:47:00Z,7.0,VFR,KHYS 272247Z AUTO 01007KT 10SM SCT018 OVC037 M01/M02 A3008 RMK AO2 FZRANO $
HYW,KHYW,CONWAY-HORRY COUNTY,04/22,33.8284875,-79.12217633,2023-12-27T22:35:00Z,6.0,VFR,KHYW 272235Z AUTO 27006KT 10SM SCT029 16/13 A2980 RMK AO2 P0001
HYX,KHYX,SAGINAW COUNTY/H W BROWNE,05/23,43.43337444,-83.86230194,2023-12-27T22:35:00Z,7.0,LIFR,KHYX 272235Z AUTO 36007KT 10SM OVC004 06/06 A2989 RMK AO2
HZD,KHZD,CARROLL COUNTY,01/19,36.08929736,-88.46329877,,,,
HZE,KHZE,MERCER COUNTY RGNL,15/33,47.28993527,-101.5809778,2023-12-27T22:35:00Z,4.0,VFR,KHZE 272235Z AUTO 31004KT 10SM CLR 02/M05 A3019 RMK AO2
HZL,KHZL,HAZLETON RGNL,10/28,40.9867725,-75.99470305,2023-12-27T22:35:00Z,5.0,LIFR,KHZL 272235Z AUTO 11005KT 3SM RA OVC003 08/08 A2990 RMK AO2 P0004
HZR,KHZR,FALSE RIVER RGNL,18/36,30.71833333,-91.47866666,2023-12-27T22:35:00Z,5.0,VFR,KHZR 272235Z AUTO 07005KT 10SM CLR 15/05 A2996 RMK AO2 T01520050
HZX,KHZX,ISEDOR IVERSON,14/32,46.61879722,-93.30981111,2023-12-27T22:43:00Z,0.0,MVFR,KHZX 272243Z AUTO 00000KT 10SM OVC014 01/00 A3007 RMK AO1
HZY,KHZY,NORTHEAST OHIO RGNL,09/27,41.77777777,-80.69677777,2023-12-27T22:26:00Z,6.0,LIFR,KHZY 272226Z AUTO 29006KT 1 1/4SM BR OVC002 09/08 A2983 RMK AO2 T00890078
I06,,CITY OF TULIA/SWISHER COUNTY MUNI,01/19,34.56682472,-101.7814611,,,,
I08,,CABIN CREEK USFS,02/20,45.14352444,-114.9289897,,,,
I10,,NOBLE COUNTY,05/23,39.80097083,-81.53632444,,,,
I16,,KEE FLD,08/26,37.60044444,-81.55927777,2023-12-27T22:35:00Z,,MVFR,KI16 272235Z AUTO 10SM SCT006 BKN010 OVC044 11/10 A2989 RMK AO2 T01080095
I17,,PIQUA/HARTZELL FLD,08/26,40.16469444,-84.30841666,,,,
I18,,JACKSON COUNTY,04/22,38.92977777,-81.81947222,,,,
I19,,GREENE COUNTY/LEWIS A JACKSON RGNL,07/25,39.69072222,-83.99277777,,,,
I20,,ED-AIR,18/36,38.85149861,-87.49979305,,,,
I22,,RANDOLPH COUNTY,08/26,40.16769444,-84.92938888,,,,
I23,,FAYETTE COUNTY,05/23,39.57040138,-83.42051333,2023-12-27T22:35:00Z,0.0,MVFR,KI23 272235Z AUTO 00000KT 10SM OVC011 07/05 A2985 RMK AO1
I27,,ELKADER,17/35,42.84725,-91.38216666,,,,
I34,,GREENSBURG MUNI,18/36,39.32691111,-85.52252694,,,,
I35,,TUCKER-GUTHRIE MEML,08/26,36.85933138,-83.35847444,2023-12-27T22:41:00Z,0.0,VFR,KI35 272241Z AUTO 00000KT 10SM CLR 11/08 A2984 RMK AO2
I40,,RICHARD DOWNING,04/22,40.31016666,-81.85241666,,,,
I41,,ROBERT NEWLON FLD,02/20,38.45702888,-82.31376,,,,
I42,,PAOLI MUNI,02/20,38.58480388,-86.46494833,,,,
I44,,DAHIO TROTWOOD,04/22,39.76510555,-84.34296111,,,,
I45,,WAPSHILLA,15/33,45.94184722,-116.7636694,,,,
I50,,STANTON,06/24,37.84981047,-83.84583341,,,,
I54,,MAD RIVER AIRPARK,09/27,40.02005916,-83.82854111,,,,
I61,,HAGERSTOWN,02/20,39.88916666,-85.16333333,,,,
I63,,MOUNT STERLING MUNI,18/36,39.98538888,-90.80413888,2023-12-27T22:35:00Z,3.0,IFR,KI63 272235Z AUTO 29003KT 2SM -RA OVC006 00/00 A2985 RMK AO2 P0004 T00010001
I64,,ORTNER,04/22,41.29349166,-82.37236111,,,,
I66,,CLINTON FLD,03/21,39.50247805,-83.86331083,,,,
I67,,CINCINNATI WEST,01/19,39.25926861,-84.77430555,2023-12-27T22:35:00Z,0.0,VFR,KI67 272235Z AUTO 00000KT 10SM CLR 08/01 A2986 RMK AO1
I68,,WARREN COUNTY/JOHN LANE FLD,01/19,39.46217305,-84.25184713,2023-12-27T22:35:00Z,0.0,VFR,KI68 272235Z AUTO 00000KT 10SM CLR 08/01 A2984 RMK AO2
I69,,CLERMONT COUNTY,04/22,39.07838888,-84.21022222,2023-12-27T22:36:00Z,0.0,VFR,KI69 272236Z AUTO 00000KT 10SM CLR 08/01 A2986 RMK AO1 T00840005
I71,,MORGAN COUNTY,12/30,39.65423472,-81.8031875,,,,
I72,,WESTFIELD,18/36,40.04892638,-86.1577675,,,,
I73,,MORAINE AIR PARK,08/26,39.68210972,-84.23999166,,,,
I74,,GRIMES FLD,01/19,40.13237186,-83.75406272,2023-12-27T22:35:00Z,0.0,MVFR,KI74 272235Z AUTO 00000KT 10SM OVC019 06/02 A2986 RMK AO2
I75,,OSCEOLA MUNI,18/36,41.05222222,-93.68913888,2023-12-27T22:35:00Z,9.0,LIFR,KI75 272235Z AUTO 34009KT 4SM -SN OVC004 01/01 A2994 RMK AO2 T00100009
I76,,PERU MUNI,01/19,40.78577222,-86.14643333,,,,
I80,,NOBLESVILLE,09/27,40.0035,-85.96452777,,,,
I83,,SALEM MUNI,08/26,38.60407569,-86.15225161,,,,
I86,,PERRY COUNTY,08/26,39.69159166,-82.19778805,,,,
I91,,BOONVILLE,09/27,38.04209722,-87.31607083,,,,
I92,,REED RANCH,16/34,44.89166666,-115.7130556,,,,
I93,,BRECKINRIDGE COUNTY,10/28,37.78480555,-86.44127777,,,,
I95,,HARDIN COUNTY,04/22,40.6100925,-83.64425927,2023-12-27T22:35:00Z,4.0,MVFR,KI95 272235Z AUTO 33004KT 10SM OVC017 08/08 A2983 RMK A01
I96,,COLUMBIA-ADAIR COUNTY,08/26,37.08533972,-85.34718444,,,,
I99,,ALEXANDRIA,09/27,40.23251333,-85.63753055,,,,
IA8,,DYERSVILLE AREA,11/29,42.49610527,-91.17985888,,,,
IAD,KIAD,WASHINGTON DULLES INTL,12/30,38.94745638,-77.45992861,2023-12-27T22:08:00Z,3.0,IFR,KIAD 272208Z 06003KT 3SM -RA BR BKN007 OVC015 13/12 A2979 RMK AO2 P0004 T01280117 $
IAG,KIAG,NIAGARA FALLS INTL,10L/28R,43.10755736,-78.94584666,2023-12-27T22:41:00Z,3.0,MVFR,KIAG 272241Z 09003KT 3SM BR OVC012 11/09 A2981 RMK AO2 RAE25 P0000 T01060094
IAH,KIAH,GEORGE BUSH INTCNTL/HOUSTON,15L/33R,29.98443527,-95.3414425,2023-12-27T22:00:00Z,0.0,VFR,OIAH 272200Z 00000KT CAVOK 06/04 Q1022
IAN,PAIK,BOB BAKER MEML,07/25,66.9761775,-160.4385992,,,,
IBM,KIBM,KIMBALL MUNI/ROBERT E ARRAJ FLD,10/28,41.18805555,-103.6773889,2023-12-27T22:35:00Z,13.0,VFR,KIBM 272235Z AUTO 35013KT 10SM CLR 01/M07 A3013 RMK AO2 T00121067
ICL,KICL,SCHENCK FLD,02/20,40.72219444,-95.02661111,2023-12-27T22:35:00Z,15.0,MVFR,KICL 272235Z AUTO 36015KT 10SM BKN023 OVC029 02/M00 A3000 RMK AO2
ICR,KICR,WINNER RGNL,03/21,43.38948466,-99.84121441,2023-12-27T22:04:00Z,9.0,IFR,KICR 272204Z AUTO 31009KT 10SM OVC005 00/M01 A3010 RMK AO2 T00001011
ICT,KICT,WICHITA DWIGHT D EISENHOWER NTL,14/32,37.6499525,-97.43304277,2023-12-27T21:55:00Z,4.0,VFR,LICT 272155Z 14004KT 9999 SCT018 BKN033 13/11 Q1028 RMK BKN VIS MIN 9999 WIND THR13 16004KT BLU
ID8,,MARBLE CREEK,04/22,44.77347222,-114.9852778,,,,
IDA,KIDA,IDAHO FALLS RGNL,17/35,43.51367333,-112.0708203,2023-12-27T21:53:00Z,8.0,MVFR,KIDA 272153Z 03008KT 10SM OVC019 M02/M06 A3033 RMK AO2 SLP313 T10221061
IDG,KIDG,IDA GROVE MUNI,12/30,42.33259777,-95.44488777,,,,
IDI,KIDI,INDIANA COUNTY/JIMMY STEWART FLD,11/29,40.63106083,-79.10152638,2023-12-27T22:35:00Z,4.0,VFR,KIDI 272235Z AUTO 09004KT 10SM FEW095 SCT120 09/09 A2983 RMK A01
IDL,KIDL,INDIANOLA MUNI,18/36,33.48572222,-90.67888888,,,,
IDP,KIDP,INDEPENDENCE MUNI,17/35,37.1579263,-95.77895025,2023-12-27T22:35:00Z,11.0,VFR,KIDP 272235Z AUTO 30011KT 10SM SCT029 OVC043 03/M03 A3004 RMK AO2 T00291025
IEM,PAWR,WHITTIER,04/22,60.77716944,-148.7196528,,,,
IEN,KIEN,PINE RIDGE,12/30,43.02127372,-102.5066064,2023-12-27T21:52:00Z,7.0,VFR,KIEN 272152Z AUTO 35007KT 10SM CLR 02/M07 A3014 RMK AO2 SLP230 T00171067
IER,KIER,NATCHITOCHES RGNL,07/25,31.73572,-93.09913638,2023-12-27T22:35:00Z,12.0,VFR,KIER 272235Z AUTO 29012G22KT 10SM CLR 14/01 A2998 RMK AO2 T01410006
IFA,KIFA,IOWA FALLS MUNI,13/31,42.47135833,-93.27071944,2023-12-27T22:35:00Z,8.0,IFR,KIFA 272235Z AUTO 03008KT 4SM UP OVC006 01/00 A3002 RMK AO2 T00121002
IFP,KIFP,LAUGHLIN/BULLHEAD INTL,16/34,35.15461444,-114.5593322,2023-12-27T21:49:00Z,19.0,VFR,KIFP 272149Z 35019G26KT 10SM FEW085 19/M07 A3013
IGG,PAIG,IGIUGIG,05/23,59.32404166,-155.9017728,,,,
IGM,KIGM,KINGMAN,17/35,35.25947805,-113.9380503,2023-12-27T21:51:00Z,4.0,VFR,KIGM 272151Z AUTO 03004KT 10SM CLR 13/M10 A3018 RMK AO2 SLP193 T01281100
IGQ,KIGQ,LANSING MUNI,18/36,41.53491666,-87.52952777,2023-12-27T22:35:00Z,9.0,VFR,KIGQ 272235Z AUTO 04009G15KT 10SM SCT019 SCT070 OVC085 04/04 A2995 RMK AO2 T00430036
IGT,PAGT,NIGHTMUTE,03/21,60.46917083,-164.7040375,,,,
IIB,KIIB,JAMES H CONNELL FLD AT INDEPENDENCE MUNI,18/36,42.45688888,-91.94766666,2023-12-27T22:35:00Z,11.0,VFR,KIIB 272235Z AUTO 02011KT 10SM OVC055 03/00 A3001 RMK AO2 T00280000
IIK,PAKI,KIPNUK,17/35,59.93161111,-164.0281111,2023-12-27T22:00:00Z,4.0,VFR,OIIK 272200Z 04004KT CAVOK 06/M02 Q1022
IIY,KIIY,WASHINGTON/WILKES COUNTY,13/31,33.77859805,-82.81449666,2023-12-27T22:35:00Z,4.0,VFR,KIIY 272235Z AUTO 23004KT 10SM CLR 13/10 A2985 RMK AO2 T01350097
IJD,KIJD,WINDHAM,09/27,41.74402777,-72.18022222,2023-12-27T22:41:00Z,3.0,IFR,KIJD 272241Z AUTO 16003KT 1 1/2SM BR FEW008 BKN075 OVC090 08/08 A3001 RMK AO2 RAE10 P0000 T00780078
IJX,KIJX,JACKSONVILLE MUNI,13/31,39.77461111,-90.23827777,2023-12-27T22:35:00Z,4.0,MVFR,KIJX 272235Z AUTO 20004KT 4SM OVC013 03/01 A2984 RMK AO2 P0005 T00270006
IKG,KIKG,KLEBERG COUNTY,13/31,27.55086111,-98.03091666,2023-12-27T22:35:00Z,3.0,VFR,KIKG 272235Z AUTO 33003KT 10SM CLR 22/03 A3000 RMK AO2 T02200028
IKK,KIKK,GREATER KANKAKEE,16/34,41.07138888,-87.84627777,2023-12-27T22:00:00Z,4.0,VFR,OIKK 272200Z 13004KT CAVOK 01/M08 Q1025 A3028
IKO,PAKO,NIKOLSKI AS,08/26,52.94155555,-168.8490278,,,,
IKV,KIKV,ANKENY RGNL,18/36,41.6913468,-93.56634913,2023-12-27T22:35:00Z,10.0,MVFR,KIKV 272235Z AUTO 02010G17KT 3SM -RA SCT007 BKN016 SCT024 01/01 A2999 RMK AO2
IKW,KIKW,JACK BARSTOW,06/24,43.66292555,-84.26131277,2023-12-27T22:35:00Z,5.0,IFR,KIKW 272235Z AUTO 33005KT 10SM OVC006 05/04 A2991 RMK AO2 T00500036
ILE,KILE,SKYLARK FLD,01/19,31.08583333,-97.6865,2023-12-27T21:56:00Z,11.0,VFR,KILE 272156Z AUTO 33011G15KT 10SM CLR 14/01 A3004 RMK AO2 SLP172 T01390006
ILG,KILG,NEW CASTLE,09/27,39.67870972,-75.606635,2023-12-27T21:51:00Z,11.0,IFR,KILG 272151Z 05011KT 10SM -RA BKN006 OVC055 11/11 A2988 RMK AO2 SLP116 P0003 T01060106
ILI,PAIL,ILIAMNA,N/S,59.75557811,-154.9177523,,,,
ILM,KILM,WILMINGTON INTL,17/35,34.27113888,-77.90288888,2023-12-27T21:53:00Z,7.0,VFR,KILM 272153Z 30007KT 10SM FEW031 19/17 A2971 RMK AO2 SLP059 T01890167
ILN,KILN,WILMINGTON AIR PARK,04L/22R,39.42791666,-83.79211111,2023-12-27T21:54:00Z,6.0,VFR,KILN 272154Z AUTO 01006KT 10SM CLR 08/03 A2985 RMK AO2 SLP121 T00830033
IML,KIML,IMPERIAL MUNI,13/31,40.51032622,-101.620146,2023-12-27T22:23:00Z,16.0,IFR,KIML 272223Z AUTO 35016G23KT 2SM -SN BR FEW009 BKN038 OVC045 00/M02 A3009 RMK AO2 P0000 T00001017
IMM,KIMM,IMMOKALEE RGNL,18/36,26.43371216,-81.40047816,2023-12-27T22:30:00Z,4.0,VFR,OIMM 272230Z 18004KT CAVOK 04/M01 Q1021 A3016
IMS,KIMS,MADISON MUNI,03/21,38.75991666,-85.46469444,2023-12-27T22:35:00Z,0.0,VFR,KIMS 272235Z AUTO 00000KT 10SM SCT090 SCT120 07/02 A2987 RMK AO2
IMT,KIMT,FORD,01/19,45.81836111,-88.11455555,2023-12-27T22:00:00Z,4.0,VFR,OIMT 272200Z AUTO 07004KT //// // ////// 08/M07 Q1021
IND,KIND,INDIANAPOLIS INTL,05L/23R,39.71730555,-86.29463888,2023-12-27T21:54:00Z,6.0,VFR,KIND 272154Z 04006KT 10SM BKN100 OVC150 08/M01 A2987 RMK AO2 SLP121 VIRGA OHD T00781011
INF,KINF,INVERNESS,01/19,28.80361277,-82.31829083,2023-12-27T22:35:00Z,0.0,VFR,KINF 272235Z AUTO 00000KT 7SM SCT120 15/12 A2997 RMK AO2
INJ,KINJ,HILLSBORO MUNI,16/34,32.08363888,-97.09725,2023-12-27T22:35:00Z,14.0,VFR,KINJ 272235Z AUTO 34014KT 10SM CLR 11/02 A3006 RMK AO2 T01120017
INK,KINK,WINKLER COUNTY,04/22,31.77980555,-103.2016944,2023-12-27T21:53:00Z,0.0,VFR,KINK 272153Z AUTO 00000KT 10SM CLR 13/M02 A3010 RMK AO2 SLP188 T01331017
INL,KINL,FALLS INTL/EINARSON FLD,04/22,48.56558777,-93.40217916,2023-12-27T22:22:00Z,5.0,LIFR,KINL 272222Z AUTO 01005KT 2 1/2SM BR BKN003 OVC011 01/00 A3010 RMK AO2 VIS 1 1/4 RWY 31 T00060000
INR,PAIN,MC KINLEY NTL PARK,16/34,63.73259833,-148.9106383,,,,
INT,KINT,SMITH REYNOLDS,15/33,36.1337138,-80.22198772,2023-12-27T21:54:00Z,0.0,IFR,KINT 272154Z 00000KT 10SM OVC008 14/12 A2979 RMK AO2 CIG 005V012 SLP082 T01390122
INW,KINW,WINSLOW-LINDBERGH RGNL,04/22,35.02190972,-110.7225158,2023-12-27T21:56:00Z,4.0,VFR,KINW 272156Z AUTO 34004KT 10SM CLR 07/M09 A3024 RMK AO2 SLP254 T00671094
IOB,KIOB,MOUNT STERLING/MONTGOMERY COUNTY,03/21,38.05813888,-83.97958333,2023-12-27T22:35:00Z,0.0,VFR,KIOB 272235Z AUTO 00000KT 10SM CLR 05/03 A2988 RMK AO2 PWINO
IOW,KIOW,IOWA CITY MUNI,07/25,41.63977777,-91.54813888,2023-12-27T21:52:00Z,9.0,VFR,KIOW 272152Z AUTO 03009KT 10SM FEW021 BKN045 OVC050 04/02 A2996 RMK AO2 RAE48 SLP150 P0000 T00440017
IPJ,KIPJ,LINCOLNTON-LINCOLN COUNTY RGNL,05/23,35.48314166,-81.16150555,2023-12-27T22:25:00Z,0.0,VFR,KIPJ 272225Z AUTO 00000KT 10SM CLR 13/12 A2979 RMK AO2 T01290122
IPL,KIPL,IMPERIAL COUNTY,08/26,32.83422222,-115.57875,2023-12-27T21:53:00Z,5.0,VFR,KIPL 272153Z AUTO 13005KT 10SM CLR 19/04 A3011 RMK AO2 SLP196 T01890039
IPT,KIPT,WILLIAMSPORT RGNL,09/27,41.24166666,-76.92180555,2023-12-27T22:42:00Z,4.0,IFR,KIPT 272242Z 28004KT 2SM +RA BR FEW006 BKN013 OVC020 11/09 A2990 RMK AO2 RAB02 P0009 T01060094
IRK,KIRK,KIRKSVILLE RGNL,09/27,40.09347222,-92.54491666,2023-12-27T21:55:00Z,7.0,VFR,LIRK 272155Z AUTO 32007KT //// 07/M13 Q1028
IRS,KIRS,KIRSCH MUNI,06/24,41.81328761,-85.43896072,2023-12-27T22:35:00Z,7.0,IFR,KIRS 272235Z AUTO 01007KT 10SM BKN008 BKN023 04/02 A2989 RMK AO2 T00350015
ISB,KISB,SIBLEY MUNI,17/35,43.36935277,-95.75963888,,,,
ISM,KISM,KISSIMMEE GATEWAY,06/24,28.28980694,-81.43708138,2023-12-27T21:56:00Z,6.0,VFR,KISM 272156Z 30006KT 10SM CLR A2995 RMK AO2 SLPNO $
ISO,KISO,KINSTON RGNL JETPORT AT STALLINGS FLD,05/23,35.33143277,-77.60883,2023-12-27T21:56:00Z,3.0,IFR,KISO 272156Z 36003KT 2SM BR OVC006 18/18 A2972
ISP,KISP,LONG ISLAND MAC ARTHUR,H1,40.79613569,-73.10066505,2023-12-27T21:56:00Z,4.0,VFR,KISP 272156Z 06004KT 10SM -RA FEW026 BKN080 OVC110 09/08 A2998 RMK AO2 SLP152 P0001 T00890083
ISQ,KISQ,SCHOOLCRAFT COUNTY,01/19,45.97463888,-86.17183333,2023-12-27T22:35:00Z,6.0,VFR,KISQ 272235Z AUTO 33006KT 10SM SCT016 SCT023 OVC040 03/03 A3000 RMK AO2 T00310025
ISW,KISW,ALEXANDER FLD SOUTH WOOD COUNTY,12/30,44.360355,-89.83903944,2023-12-27T21:54:00Z,0.0,VFR,KISW 272154Z AUTO 00000KT 10SM CLR 03/M04 A3004 RMK AO2 SLP185 T00331039
ITH,KITH,ITHACA TOMPKINS INTL,15/33,42.49136111,-76.45872222,2023-12-27T21:56:00Z,5.0,MVFR,KITH 272156Z 12005KT 10SM -RA OVC011 10/09 A2988 RMK AO2 SLP122 P0000 T01000094
ITO,PHTO,HILO INTL,08/26,19.720263,-155.0484701,,,,
ITR,KITR,KIT CARSON COUNTY,15/33,39.24251111,-102.2853775,2023-12-27T22:00:00Z,4.0,MVFR,OITR 272200Z 27004KT 8000 FEW040 BKN170 M00/M04 Q1020 A3014
IUA,KIUA,CANANDAIGUA,13/31,42.90890188,-77.32522627,2023-12-27T22:35:00Z,0.0,VFR,KIUA 272235Z AUTO 00000KT 10SM -RA SCT005 BKN060 OVC070 10/10 A2985 RMK AO2 P0001 T00950095
IWA,KIWA,PHOENIX-MESA GATEWAY,12C/30C,33.30782388,-111.6554592,2023-12-27T21:50:00Z,7.0,VFR,KIWA 272150Z 30007KT 10SM CLR 17/M02 A3010
IWD,KIWD,GOGEBIC/IRON COUNTY,09/27,46.52748138,-90.13139444,2023-12-27T21:56:00Z,0.0,VFR,KIWD 272156Z AUTO 00000KT 10SM OVC033 02/M03 A3007 RMK AO2 SLP198 T00171028 FZRANO
IWH,KIWH,WABASH MUNI,18/36,40.76197222,-85.79875,,,,
IWI,KIWI,WISCASSET,07/25,43.96141666,-69.71255555,2023-12-27T22:13:00Z,0.0,LIFR,KIWI 272213Z AUTO 00000KT 3/4SM BR VV003 06/06 A3009 RMK AO2 T00560056
IWK,PAIW,WALES,18/36,65.62255555,-168.0949722,,,,
IWS,KIWS,WEST HOUSTON,15/33,29.81819444,-95.67261111,,,,
IXA,KIXA,HALIFAX/NORTHAMPTON RGNL,02/20,36.32979166,-77.63523083,2023-12-27T22:30:00Z,0.0,IFR,KIXA 272230Z AUTO 00000KT 10SM OVC008 16/16 A2974 RMK AO2
IXD,KIXD,NEW CENTURY AIRCENTER,04/22,38.83091666,-94.89030555,2023-12-27T21:53:00Z,14.0,MVFR,KIXD 272153Z 32014G23KT 10SM OVC011 01/M01 A2995 RMK AO2 SLP150 T00111011 $
IYA,KIYA,ABBEVILLE CHRIS CRUSTA MEML,16/34,29.97577777,-92.08422222,2023-12-27T22:35:00Z,7.0,MVFR,KIYA 272235Z AUTO 25007KT 5SM HZ CLR 16/02 A2998 RMK AO2 T01610023
IYK,KIYK,INYOKERN,10/28,35.65874127,-117.8295325,,,,
IYS,PAWS,WASILLA,04S/22S,61.57198613,-149.5395567,,,,
IZA,KIZA,SANTA YNEZ/KUNKLE FLD,08/26,34.60681527,-120.07555,2023-12-27T22:35:00Z,0.0,VFR,KIZA 272235Z AUTO 00000KT 10SM SCT022 16/11 A3014 RMK AO2
IZG,KIZG,EASTERN SLOPES RGNL,14/32,43.99113888,-70.94788888,,,,
JAC,KJAC,JACKSON HOLE,01/19,43.60733333,-110.73775,2023-12-27T21:56:00Z,0.0,VFR,KJAC 272156Z 00000KT 10SM CLR M04/M13 A3029 RMK AO2 SLP351 T10391128
JAN,KJAN,JACKSON-MEDGAR WILEY EVERS INTL,16R/34L,32.31116666,-90.07588888,2023-12-27T21:54:00Z,12.0,VFR,KJAN 272154Z 26012G19KT 10SM FEW045 SCT250 15/00 A2991 RMK AO2 SLP128 T01500000
JAQ,KJAQ,WESTOVER FLD AMADOR COUNTY,H1,38.37680166,-120.7939103,2023-12-27T22:00:00Z,6.0,MVFR,OJAQ 272200Z 34006KT 7000 NSC 17/08 Q1017 NOSIG
JAS,KJAS,JASPER COUNTY/BELL FLD,18/36,30.88569444,-94.03494444,2023-12-27T22:35:00Z,11.0,VFR,KJAS 272235Z AUTO 29011G16KT 10SM CLR 15/M02 A2997 RMK AO2
JAU,KJAU,COLONEL TOMMY C STINER AIRFIELD,05/23,36.33408888,-84.16296527,2023-12-27T22:30:00Z,0.0,VFR,KJAU 272230Z AUTO 00000KT 10SM CLR 10/07 A2987 RMK A01
JAX,KJAX,JACKSONVILLE INTL,14/32,30.49404555,-81.68784666,2023-12-27T21:56:00Z,6.0,VFR,KJAX 272156Z 23006KT 10SM FEW080 BKN130 OVC200 16/09 A2991 RMK AO2 SLP127 T01610089
JBR,KJBR,JONESBORO MUNI,13/31,35.83171111,-90.64642194,2023-12-27T21:53:00Z,11.0,VFR,KJBR 272153Z AUTO 27011KT 10SM BKN047 OVC060 06/M03 A2991 RMK AO2 SLP129 T00561028 $
JCA,KJCA,JACKSON COUNTY,17/35,34.17613888,-83.56169444,2023-12-27T22:35:00Z,8.0,VFR,KJCA 272235Z AUTO 25008KT 10SM CLR 12/07 A2986 RMK AO2 T01200066
JCT,KJCT,KIMBLE COUNTY,17/35,30.51111111,-99.76288888,2023-12-27T21:51:00Z,9.0,VFR,KJCT 272151Z AUTO 32009KT 10SM CLR 14/00 A3007 RMK AO2 SLP168 T01440000
JDD,KJDD,WOOD COUNTY/COLLINS FLD,18/36,32.74219444,-95.49647222,2023-12-27T22:40:00Z,10.0,VFR,KJDD 272240Z AUTO 33010KT 10SM CLR 10/M02 A3005 RMK AO2
JDN,KJDN,JORDAN,11/29,47.32875,-106.9526889,2023-12-27T21:48:00Z,5.0,VFR,KJDN 272148Z AUTO 25005KT 09/M07 A3013 RMK AO1 SLP236 T00891067
JEF,KJEF,JEFFERSON CITY MEML,12/30,38.59117361,-92.15614472,2023-12-27T21:53:00Z,5.0,VFR,KJEF 272153Z 31005KT 7SM -SN OVC055 02/M01 A2987 RMK AO2 SLP108 P0000 T00221006
JER,KJER,JEROME COUNTY,09/27,42.72668333,-114.4566472,2023-12-27T21:53:00Z,20.0,VFR,KJER 272153Z AUTO 06020KT 10SM CLR 01/M04 A3025 RMK AO2 PK WND 06031/2141 SLP269 T00061039
JES,KJES,JESUP-WAYNE COUNTY,11/29,31.55397222,-81.8825,2023-12-27T22:35:00Z,0.0,VFR,KJES 272235Z AUTO 00000KT 10SM CLR 16/10 A2992 RMK AO2
JFK,KJFK,JOHN F KENNEDY INTL,13R/31L,40.63992805,-73.77869222,2023-12-27T21:51:00Z,8.0,VFR,KJFK 272151Z 06008KT 10SM -RA SCT009 SCT038 OVC090 09/08 A2998 RMK AO2 SLP151 P0001 T00890083 $
JFX,KJFX,WALKER COUNTY-BEVILL FLD,09/27,33.902,-87.31383333,2023-12-27T22:35:00Z,0.0,VFR,KJFX 272235Z AUTO 00000KT 10SM CLR 11/02 A2987 RMK AO2
JFZ,KJFZ,TAZEWELL COUNTY,07/25,37.06374638,-81.79826583,2023-12-27T22:35:00Z,4.0,VFR,KJFZ 272235Z AUTO 23004KT 10SM SCT014 SCT020 BKN031 10/09 A2984 RMK AO2 T00960085
JGG,KJGG,WILLIAMSBURG-JAMESTOWN,13/31,37.23917472,-76.71609611,2023-12-27T22:30:00Z,9.0,VFR,RJGG 272230Z 36009KT 9999 FEW020 05/01 Q1028 NOSIG
JHN,KJHN,STANTON COUNTY MUNI,17/35,37.58539,-101.7323031,2023-12-27T22:35:00Z,22.0,MVFR,KJHN 272235Z AUTO 33022G26KT 10SM OVC029 05/M02 A3009 RMK AO2 T00501017
JHW,KJHW,CHAUTAUQUA COUNTY/JAMESTOWN,07/25,42.15339444,-79.25802277,2023-12-27T22:29:00Z,4.0,VFR,KJHW 272229Z AUTO 19004KT 10SM FEW004 OVC055 08/08 A2982 RMK AO2
JKA,KJKA,GULF SHORES INTL/JACK EDWARDS FLD,17/35,30.28963888,-87.67177777,2023-12-27T22:00:00Z,10.0,VFR,RJKA 272200Z AUTO 04010KT 9999 SCT036 SCT220 BKN240 18/11 Q1025
JKJ,KJKJ,MOORHEAD MUNI/FLORENCE KLINGENSMITH FLD,12/30,46.83927777,-96.66402777,2023-12-27T22:46:00Z,8.0,LIFR,KJKJ 272246Z AUTO 35008KT 7SM OVC003 00/M01 A3011 RMK AO2
JKL,KJKL,JULIAN CARROLL,01/19,37.59386111,-83.31725,2023-12-27T21:53:00Z,3.0,MVFR,KJKL 272153Z AUTO 18003KT 10SM FEW004 SCT008 OVC024 08/07 A2985 RMK AO2 SLP107 T00780067
JLA,,QUARTZ CREEK,04/22,60.48426388,-149.7229,,,,
JLN,KJLN,JOPLIN RGNL,18/36,37.15316722,-94.4988075,2023-12-27T21:53:00Z,15.0,MVFR,KJLN 272153Z 30015G24KT 10SM BKN019 OVC026 02/M03 A2997 RMK AO2 SLP155 T00171028
JMR,KJMR,MORA MUNI,17/35,45.89189833,-93.27294916,2023-12-27T22:35:00Z,3.0,IFR,KJMR 272235Z AUTO 22003KT 7SM BKN007 OVC012 00/00 A3011 RMK AO2
JMS,KJMS,JAMESTOWN RGNL,13/31,46.92972222,-98.67819444,2023-12-27T21:56:00Z,8.0,MVFR,KJMS 272156Z AUTO 35008KT 10SM BKN013 BKN019 01/M03 A3012 RMK AO2 SLP216 T00061028 $
JNU,PAJN,JUNEAU INTL,08W/26W,58.3547118,-134.5784705,,,,
JNX,KJNX,JOHNSTON RGNL,03/21,35.54093805,-78.39032555,2023-12-27T22:30:00Z,0.0,LIFR,KJNX 272230Z AUTO 00000KT 3/4SM BR OVC009 17/17 A2974 RMK AO2
JOT,KJOT,JOLIET RGNL,04/22,41.51774138,-88.17539722,2023-12-27T22:00:00Z,7.0,VFR,RJOT 272200Z 14007KT 9999 FEW025 02/01 Q1027
JQD,KJQD,OHIO COUNTY,03/21,37.45854777,-86.84982416,,,,
JQF,KJQF,CONCORD-PADGETT RGNL,02/20,35.38777027,-80.7091325,2023-12-27T21:50:00Z,0.0,MVFR,KJQF 272150Z 00000KT 10SM OVC019 16/13 A2982
JRF,PHJR,KALAELOA (JOHN RODGERS FLD),04R/22L,21.30735388,-158.0703017,,,,
JRO,KJRO,JAMES A RHODES,01/19,38.98136027,-82.57784972,,,,
JSO,KJSO,CHEROKEE COUNTY,14/32,31.86933036,-95.21740547,2023-12-27T22:35:00Z,8.0,VFR,KJSO 272235Z AUTO 34008KT 10SM CLR 11/01 A3004 RMK AO2 T01050005
JST,KJST,JOHN MURTHA JOHNSTOWN/CAMBRIA COUNTY,05/23,40.31555555,-78.83466666,2023-12-27T22:01:00Z,5.0,VFR,KJST 272201Z AUTO 09005KT 10SM SCT002 OVC065 08/07 A2979 RMK AO2 T00780072
JSV,KJSV,SALLISAW MUNI,17/35,35.43825,-94.80291666,2023-12-27T22:35:00Z,10.0,VFR,KJSV 272235Z AUTO 30010KT 10SM SCT047 05/M04 A3001 RMK AO2
JSY,KJSY,JOSEPH STATE,15/33,45.35954972,-117.2538389,2023-12-27T22:00:00Z,6.0,VFR,RJSY 272200Z 18006KT 9999 FEW030 SCT035 BKN040 03/M02 Q1028
JTC,KJTC,SPRINGERVILLE MUNI,11/29,34.12941666,-109.3108611,2023-12-27T22:35:00Z,8.0,VFR,KJTC 272235Z AUTO 35008G13KT 10SM CLR 05/M15 A3023 RMK AO2
JVL,KJVL,SOUTHERN WISCONSIN RGNL,18/36,42.62025277,-89.04156694,2023-12-27T21:45:00Z,13.0,VFR,KJVL 272145Z 05013KT 10SM SCT070 05/M04 A2998
JVW,KJVW,JOHN BELL WILLIAMS,12/30,32.30447222,-90.41052777,2023-12-27T22:35:00Z,10.0,VFR,KJVW 272235Z AUTO 26010KT 10SM CLR 15/M00 A2992 RMK AO2
JVY,KJVY,CLARK RGNL,18/36,38.36661833,-85.73814472,,,,
JWG,KJWG,WATONGA RGNL,17/35,35.86456361,-98.42075694,2023-12-27T22:35:00Z,8.0,VFR,KJWG 272235Z AUTO 33008KT 10SM OVC039 05/M03 A3010 RMK AO2 T00461030
JWN,KJWN,JOHN C TUNE,02/20,36.18302183,-86.88649533,2023-12-27T21:50:00Z,7.0,VFR,KJWN 272150Z 07007G13KT 10SM FEW070 10/03 A2980
JWY,KJWY,MID-WAY RGNL,18/36,32.45829305,-96.91252638,2023-12-27T22:35:00Z,8.0,VFR,KJWY 272235Z AUTO 30008KT 10SM SCT120 10/00 RMK AO2 T00970000
JXI,KJXI,FOX STEPHENS FLD / GILMER MUNI,18/36,32.69803194,-94.94886833,2023-12-27T22:35:00Z,7.0,VFR,KJXI 272235Z AUTO 32007G15KT 10SM CLR 10/M02 A3003 RMK AO2 T00951023
JXN,KJXN,JACKSON COUNTY/REYNOLDS FLD,14/32,42.26044305,-84.46213861,2023-12-27T22:42:00Z,4.0,LIFR,KJXN 272242Z 32004KT 10SM OVC004 05/04 A2988 RMK AO2 RAE2158 P0000 T00500044
JYG,KJYG,ST JAMES MUNI,15/33,43.98635388,-94.55797416,2023-12-27T22:35:00Z,6.0,VFR,KJYG 272235Z AUTO 34006KT 10SM FEW028 BKN100 BKN120 01/M01 A3006 RMK AO2
JYL,KJYL,PLANTATION AIRPARK,15/33,32.64552277,-81.59661166,2023-12-27T22:35:00Z,3.0,VFR,KJYL 272235Z AUTO 28003KT 10SM CLR 17/11 A2987 RMK AO2 T01650110
JYM,KJYM,HILLSDALE MUNI,10/28,41.92130277,-84.58669861,2023-12-27T22:35:00Z,6.0,LIFR,KJYM 272235Z AUTO 33006KT 4SM BR OVC003 05/02 A2987 RMK AO2 T00450023
JYO,KJYO,LEESBURG EXEC,17/35,39.07797222,-77.5575,,,,
JYR,KJYR,YORK MUNI,17/35,40.89641638,-97.62407244,2023-12-27T22:35:00Z,8.0,VFR,KJYR 272235Z AUTO 35008G14KT 10SM OVC041 M02/M04 A3007 RMK AO2
JZI,KJZI,CHARLESTON EXEC,04/22,32.70102777,-80.00325,2023-12-27T22:35:00Z,4.0,VFR,KJZI 272235Z AUTO 26004KT 17/13 A2983 RMK AO2
JZP,KJZP,PICKENS COUNTY,16/34,34.45347222,-84.45722222,2023-12-27T22:35:00Z,0.0,VFR,KJZP 272235Z AUTO 00000KT 10SM CLR 09/05 A2987 RMK AO2 T00910048
JZZ,PAJZ,KOLIGANEK,09/27,59.72675,-157.26025,,,,
K01,,FARINGTON FLD,16/34,40.38666666,-95.788,,,,
K06,,GREATER BEARDSTOWN,18/36,39.97338138,-90.40373555,,,,
K07,,ROLLA DOWNTOWN,09/27,37.93565222,-91.8135475,,,,
K08,,HOLLY,17/35,38.03512361,-102.1166708,,,,
K09,,PISECO,04/22,43.453265,-74.51500805,,,,
K11,,SAM RIGGS AIRPARK,18/36,36.21816666,-95.65188888,,,,
K15,,GRAND GLAIZE-OSAGE BEACH,14/32,38.11044444,-92.68055555,,,,
K16,,BECKS GROVE,06/24,43.25084722,-75.60436111,,,,
K17,,MONTEZUMA MUNI,17/35,37.58566666,-100.4701389,,,,
K19,,ALBANY MUNI,01/19,40.26219444,-94.33902777,,,,
K23,,COOPERSTOWN-WESTVILLE,02/20,42.6292425,-74.89098777,,,,
K24,,RUSSELL COUNTY,17/35,37.00969444,-85.10275,,,,
K26,,CARROLLTON MEML,18/36,39.31216666,-93.50655555,,,,
K29,,COUNCIL,10/28,64.89674722,-163.7034986,,,,
K30,,HEBER AIRPARK,06/24,43.18340722,-73.63317222,,,,
K31,,SHARON,13/31,42.7784075,-74.57764,,,,
K33,,SALEM MEML,17/35,37.61522222,-91.60444444,,,,
K34,,GARDNER MUNI,17/35,38.80684833,-94.95674944,,,,
K38,,WASHINGTON COUNTY VETERAN'S MEML,17/35,39.73516666,-97.04758333,,,,
K43,,UNIONVILLE MUNI,17/35,40.54022222,-93.02552777,,,,
K44,,BEAVER MUNI,17/35,36.7979485,-100.5269138,,,,
K49,,TEXHOMA MUNI,03/21,36.50561111,-101.8136667,,,,
K50,,COOK AIRFIELD,17/35,37.56538888,-97.17461111,,,,
K51,,MEDICINE LODGE,13/31,37.26541116,-98.54790588,,,,
K52,,CPT BEN SMITH AIRFIELD - MONROE CITY,09/27,39.63441083,-91.72699444,,,,
K55,,THOMPSON PASS,05/23,61.17727027,-145.6884339,,,,
K57,,GOULD PETERSON MUNI,18/36,40.44548916,-95.36730638,,,,
K58,,HAROLD KRIER FLD,14/32,37.16669361,-99.77512805,,,,
K59,,AMELIA EARHART,16/34,39.57052472,-95.18033138,,,,
K61,,MORITZ MEML,08/26,39.47160166,-98.12875638,,,,
K62,,GENE SNYDER,03/21,38.70408333,-84.39183333,2023-12-27T22:35:00Z,0.0,VFR,KK62 272235Z AUTO 00000KT 10SM CLR 08/00 A2984 RMK AO2
K63,,COUNCIL GROVE MUNI,04/22,38.67647222,-96.57275,,,,
K64,,VINLAND VALLEY AERODROME,16/34,38.83613055,-95.18203611,,,,
K65,,DIGHTON,13/31,38.48890808,-100.4816716,,,,
K67,,OSWEGO MUNI,17/35,37.15938888,-95.0415,,,,
K68,,GARNETT MUNI,01/19,38.27730555,-95.21522222,,,,
K71,,LINCOLN MUNI,15/33,39.05806194,-98.16699722,,,,
K74,,ROBERT ODEGAARD FLD,11/29,46.64873075,-96.99900961,,,,
K75,,OSBORNE MUNI,12/30,39.43329305,-98.68001805,,,,
K77,,FREEDOM MUNI,12/30,36.75849444,-99.10201111,,,,
K78,,ABILENE MUNI,17/35,38.90405555,-97.23586111,,,,
K79,,JETMORE MUNI,17/35,37.98444444,-99.89433333,,,,
K81,,MIAMI COUNTY,15/33,38.54064138,-94.92022333,,,,
K82,,SMITH CENTER MUNI,14/32,39.76261111,-98.7945,2023-12-27T22:35:00Z,10.0,MVFR,KK82 272235Z AUTO 35010KT 10SM OVC017 M02/M04 A3010 RMK AO2 T10181044
K83,,SABETHA MUNI,01/19,39.90544444,-95.77669444,2023-12-27T22:35:00Z,14.0,MVFR,KK83 272235Z AUTO 34014KT 10SM OVC013 00/00 A3001 RMK AO2 T00000000
K87,,HIAWATHA MUNI,17/35,39.87917,-95.52525972,,,,
K88,,ALLEN COUNTY,01/19,37.86822222,-95.38694444,2023-12-27T22:35:00Z,14.0,MVFR,KK88 272235Z AUTO 29014KT 10SM OVC018 01/M02 A3001 RMK AO1 T00061018
K89,,MACON-FOWER MEML,02/20,39.72980555,-92.45672222,,,,
K91,,HORTON MUNI,17/35,39.67884697,-95.53421194,,,,
K94,,RUSH COUNTY,17/35,38.54681944,-99.28975,,,,
K96,,TUSCOLA,09/27,39.78119722,-88.30644583,,,,
K98,,ALLISON MUNI,18/36,42.76386527,-92.80436111,,,,
KAL,PAKV,KALTAG,03/21,64.31898,-158.7413058,,,,
KCL,,CHIGNIK LAGOON,04/22,56.31096666,-158.5344861,2023-12-27T22:00:00Z,9.0,VFR,SKCL 272200Z 30009KT 9999 SCT020TCU SCT120 29/18 Q1013 NOSIG RMK TCU/N/SW
KDK,PAKD,KODIAK MUNI,02/20,57.8059175,-152.3738414,,,,
KEB,,NANWALEK,01/19,59.35214833,-151.9251558,2023-12-27T22:20:00Z,19.0,IFR,EKEB 272220Z AUTO 15019KT 6000 RA OVC006/// 05/05 Q1000
KEK,,EKWOK,02/20,59.35683888,-157.4711394,,,,
KFP,PAKF,FALSE PASS,14/32,54.84786111,-163.4071111,,,,
KGX,PAGX,GRAYLING,17/35,62.8920853,-160.0663969,,,,
KGZ,,GLACIER CREEK,11/29,61.45513444,-142.3809508,,,,
KIC,KKIC,MESA DEL REY,11/29,36.22855555,-121.1213056,,,,
KKA,PAKK,KOYUK ALFRED ADAMS,01/19,64.93952777,-161.1542778,2023-12-27T22:31:00Z,16.0,IFR,EKKA 272231Z AUTO 12016KT 7000 -RASN OVC008/// 02/01 Q1000 RERASN
KLG,PALG,KALSKAG,07/25,61.53597222,-160.3455833,,,,
KLS,KKLS,SOUTHWEST WASHINGTON RGNL,12/30,46.118,-122.8983611,2023-12-27T21:56:00Z,4.0,VFR,KKLS 272156Z AUTO 15004KT 10SM SCT050 SCT070 BKN080 09/06 A2981 RMK AO2 RAE46 SLP099 P0001 T00940056
KNB,KKNB,KANAB MUNI,01/19,37.01051138,-112.5314778,2023-12-27T22:35:00Z,0.0,VFR,KKNB 272235Z AUTO 00000KT 10SM CLR 11/M06 A3024 RMK A01
KNW,PANW,NEW STUYAHOK,14/32,59.45152777,-157.3731667,2023-12-27T22:00:00Z,0.0,VFR,HKNW 272200Z 00000KT CAVOK 18/14 Q1025
KOA,PHKO,ELLISON ONIZUKA KONA INTL AT KEAHOLE,17/35,19.738765,-156.0456311,,,,
KSM,PASM,ST MARY'S,17/35,62.06083083,-163.3018364,2023-12-27T22:00:00Z,4.0,VFR,SKSM 272200Z 23004KT 9999 FEW025 31/25 Q1009
KTN,PAKT,KETCHIKAN INTL,11/29,55.35408333,-131.7112222,2023-12-27T22:00:00Z,1.0,MVFR,RKTN 272200Z 11001KT 6000 NSC M03/M06 Q1028
KTS,PFKT,BREVIG MISSION,05/23,65.33133333,-166.4657222,,,,
KVC,PAVC,KING COVE,08/26,55.11638416,-162.2665356,,,,
KVL,PAVL,KIVALINA,12/30,67.73613888,-164.5635,,,,
KWT,PFKW,KWETHLUK,18/36,60.79033333,-161.4436944,,,,
KY8,,HANCOCK COUNTY/RON LEWIS FLD,05/23,37.95420916,-86.85598472,2023-12-27T22:35:00Z,0.0,VFR,KKY8 272235Z AUTO 00000KT 10SM BKN095 BKN120 10/M01 A2983 RMK A01
KYK,PAKY,KARLUK,10/28,57.56605555,-154.4538056,,,,
KYU,PFKU,KOYUKUK,07/25,64.87580555,-157.7304444,,,,
L00,,ROSAMOND SKYPARK,08/26,34.8705,-118.2054167,,,,
L05,,KERN VALLEY,17/35,35.72822222,-118.4197222,,,,
L06,,FURNACE CREEK,15/33,36.4605,-116.8798056,,,,
L08,,BORREGO VALLEY,08/26,33.25902777,-116.3209722,2023-12-27T22:35:00Z,7.0,VFR,KL08 272235Z AUTO 12007KT 10SM CLR 19/03 A3012 RMK AO2
L09,,STOVEPIPE WELLS,05/23,36.60383333,-117.1592222,,,,
L17,,TAFT-KERN COUNTY,07/25,35.14165808,-119.4378403,,,,
L18,,FALLBROOK COMMUNITY AIRPARK,H1,33.35416666,-117.2508333,2023-12-27T22:35:00Z,4.0,VFR,KL18 272235Z AUTO 23004KT 10SM CLR 17/11 A3012 RMK AO2
L19,,WASCO-KERN COUNTY,12/30,35.61986111,-119.3537222,,,,
L20,,COAL CREEK,01/19,65.31152083,-143.1341194,,,,
L22,,YUCCA VALLEY,06/24,34.12983333,-116.4068889,,,,
L25,,PEARCE FERRY,01/19,36.09322222,-114.0467222,,,,
L26,,HESPERIA,03/21,34.37694444,-117.3160556,,,,
L31,,ST TAMMANY RGNL,18/36,30.44505416,-89.98887888,,,,
L32,,JONESVILLE,06/24,31.620258,-91.83429205,,,,
L33,,TENSAS PARISH,16/34,31.97321944,-91.23873333,,,,
L35,,BIG BEAR CITY,08/26,34.26377777,-116.8560278,2023-12-27T22:35:00Z,5.0,VFR,KL35 272235Z AUTO 26005KT 10SM CLR 10/M16 A3025 RMK AO2
L36,,RIO LINDA,17/35,38.675,-121.4454444,,,,
L37,,GRAND CANYON CAVERNS,05/23,35.52723472,-113.2475028,,,,
L39,,LEESVILLE,18/36,31.16819444,-93.34247222,,,,
L41,,MARBLE CANYON,03/21,36.81080555,-111.6444444,,,,
L45,,BAKERSFIELD MUNI,16/34,35.32487472,-118.9960219,,,,
L51,,HELLER FARM,11/29,47.72633333,-108.8750417,,,,
L52,,OCEANO COUNTY,11/29,35.10152916,-120.6223153,,,,
L53,,LODI AIRPARK,07/25,38.08408694,-121.3163369,,,,
L54,,AGUA CALIENTE SPRINGS,11/29,32.95569444,-116.2947222,,,,
L61,,SHOSHONE,15/33,35.96861111,-116.2692778,,,,
L62,,ELK HILLS-BUTTONWILLOW,11/29,35.35344444,-119.4797222,,,,
L65,,PERRIS VALLEY,15/33,33.76463888,-117.219,,,,
L66,,POLLOCK MUNI,18/36,31.47747222,-92.46116666,,,,
L70,,AGUA DULCE,04/22,34.50351483,-118.3131572,,,,
L71,,CALIFORNIA CITY MUNI,06/24,35.15125,-118.0166667,,,,
L72,,TRONA,17/35,35.81266666,-117.3269167,,,,
L73,,POSO-KERN COUNTY,16/34,35.59638888,-119.1282778,,,,
L77,,CHIRIACO SUMMIT,06/24,33.66481111,-115.7104139,,,,
L78,,JACUMBA,07/25,32.61588055,-116.1655389,,,,
L83,,THIBODAUX MUNI,08/26,29.74779194,-90.83289888,,,,
L88,,NEW CUYAMA,11/29,34.94017777,-119.6861167,,,,
L90,,OCOTILLO,13/31,33.14781744,-116.1315336,,,,
L92,,ALAMO LANDING FLD,14/32,37.36343388,-115.1954894,,,,
L94,,MOUNTAIN VALLEY,09L/27R,35.10107777,-118.4231392,,,,
LA3,,FELICIANA AIRPARK,15/33,30.80777777,-91.21333333,,,,
LAA,KLAA,SOUTHEAST COLORADO RGNL,18/36,38.06969444,-102.6885,2023-12-27T22:30:00Z,4.0,MVFR,ULAA 272230Z 23002MPS 200V260 9999 OVC019 M05/M05 Q0999 R26/490138 NOSIG RMK QFE748/0997
LAF,KLAF,PURDUE UNIVERSITY,10/28,40.41230555,-86.93688888,2023-12-27T21:54:00Z,13.0,VFR,KLAF 272154Z 03013KT 10SM BKN090 OVC110 06/02 A2987 RMK AO2 PRESFR SLP121 T00610017
LAL,KLAL,LAKELAND LINDER INTL,05/23,27.98763888,-82.019,2023-12-27T21:48:00Z,5.0,VFR,KLAL 272148Z 33005KT 10SM BKN120 20/07 A2995
LAM,KLAM,LOS ALAMOS,09/27,35.87968611,-106.2686861,2023-12-27T22:35:00Z,5.0,VFR,KLAM 272235Z AUTO 18005KT 8SM CLR 04/M09 A3013 RMK AO2 T00371088 $
LAN,KLAN,CAPITAL REGION INTL,10L/28R,42.77863888,-84.58619444,2023-12-27T21:53:00Z,6.0,IFR,KLAN 272153Z 33006KT 10SM OVC005 04/03 A2991 RMK AO2 SLP134 T00440033
LAR,KLAR,LARAMIE RGNL,03/21,41.31205722,-105.6749856,2023-12-27T21:53:00Z,12.0,VFR,KLAR 272153Z AUTO 36012KT 10SM CLR 01/M09 A3016 RMK AO2 RAE2056 SLP225 P0000 T00061089
LAS,KLAS,HARRY REID INTL,01R/19L,36.08004388,-115.1522347,2023-12-27T21:56:00Z,4.0,VFR,KLAS 272156Z 08004KT 10SM FEW130 BKN220 13/M05 A3019 RMK AO2 SLP222 T01331050
LAW,KLAW,LAWTON-FORT SILL RGNL,17/35,34.56771444,-98.41663666,2023-12-27T21:53:00Z,8.0,VFR,KLAW 272153Z 34008KT 10SM SCT060 08/M02 A3008 RMK AO2 SLP189 T00781017
LAX,KLAX,LOS ANGELES INTL,06L/24R,33.94249638,-118.4080486,2023-12-27T21:53:00Z,8.0,VFR,KLAX 272153Z 26008KT 9SM FEW050 SCT140 BKN180 OVC250 16/13 A3012 RMK AO2 SLP201 T01610128 $
LBB,KLBB,LUBBOCK PRESTON SMITH INTL,17R/35L,33.66366666,-101.8205556,2023-12-27T21:53:00Z,12.0,VFR,KLBB 272153Z 34012KT 10SM FEW048 12/M01 A3007 RMK AO2 SLP177 T01171006
LBE,KLBE,ARNOLD PALMER RGNL,06/24,40.2731005,-79.41032555,2023-12-27T21:47:00Z,0.0,VFR,KLBE 272147Z 00000KT 10SM SCT100 11/10 A2980
LBF,KLBF,NORTH PLATTE RGNL/LEE BIRD FLD,12/30,41.12621277,-100.6836531,2023-12-27T22:42:00Z,12.0,VFR,KLBF 272242Z AUTO 35012G21KT 10SM SCT017 OVC055 01/M03 A3009 RMK AO2 T00061033
LBL,KLBL,LIBERAL MID-AMERICA RGNL,17/35,37.04392111,-100.9599686,2023-12-27T21:56:00Z,17.0,MVFR,KLBL 272156Z AUTO 35017KT 10SM OVC026 05/M01 A3007 RMK AO2 SLP197 T00501006
LBO,KLBO,FLOYD W JONES LEBANON,18/36,37.64832194,-92.65243083,2023-12-27T22:35:00Z,6.0,IFR,KLBO 272235Z AUTO 29006KT 7SM -SN BKN008 BKN014 OVC018 00/00 A2986 RMK AO2
LBR,KLBR,CLARKSVILLE/RED RIVER CTY-J D TRISSELL FLD,18/36,33.59264027,-95.06414722,,,,
LBT,KLBT,LUMBERTON RGNL,05/23,34.60980555,-79.05955555,2023-12-27T22:29:00Z,9.0,MVFR,KLBT 272229Z AUTO 28009G17KT 10SM SCT014 BKN022 BKN029 18/16 A2977 RMK AO2 T01830161
LBX,KLBX,TEXAS GULF COAST RGNL,17/35,29.10863888,-95.46208333,2023-12-27T21:53:00Z,9.0,VFR,KLBX 272153Z AUTO 35009KT 10SM CLR 19/01 A3000 RMK AO2 SLP158 T01940006
LC0,,LEFT COULEE,09/27,47.88527777,-109.0227778,,,,
LCG,KLCG,WAYNE MUNI/STAN MORRIS FLD,18/36,42.24160575,-96.982271,2023-12-27T22:35:00Z,7.0,VFR,KLCG 272235Z AUTO 33007KT 10SM SCT075 M01/M06 A3008 RMK AO2 T10141056 PNO
LCH,KLCH,LAKE CHARLES RGNL,05/23,30.12608333,-93.22341666,2023-12-27T22:00:00Z,3.0,VFR,PLCH 272200Z 02003KT 9999 FEW020 31/25 Q1012
LCI,KLCI,LACONIA MUNI,08/26,43.57304166,-71.41784166,2023-12-27T22:33:00Z,0.0,LIFR,KLCI 272233Z AUTO 00000KT 1/2SM FG BKN002 OVC046 A3005 RMK AO2 FZRANO $
LCK,KLCK,RICKENBACKER INTL,05R/23L,39.81378805,-82.92781638,2023-12-27T21:55:00Z,5.0,IFR,KLCK 272155Z AUTO 34005KT 7SM OVC009 08/06 A2984 RMK AO2 T00770060
LCQ,KLCQ,LAKE CITY GATEWAY,05/23,30.18205555,-82.57686111,2023-12-27T22:35:00Z,4.0,VFR,KLCQ 272235Z AUTO 25004KT 10SM CLR 15/09 A2994 RMK AO2
LDJ,KLDJ,LINDEN,09/27,40.61744944,-74.24459416,2023-12-27T22:35:00Z,0.0,IFR,KLDJ 272235Z AUTO 00000KT 10SM OVC009 09/07 A2997 RMK AO2 T00880070
LDM,KLDM,MASON COUNTY,08/26,43.96253111,-86.40791638,2023-12-27T22:35:00Z,8.0,MVFR,KLDM 272235Z AUTO 36008KT 10SM OVC024 04/M02 A2997 RMK AO2 T00441016
LEB,KLEB,LEBANON MUNI,07/25,43.62611111,-72.30419444,2023-12-27T22:02:00Z,0.0,MVFR,KLEB 272202Z 00000KT 4SM BR FEW001 BKN033 OVC043 07/06 A3003 RMK AO2 T00670056
LEE,KLEE,LEESBURG INTL,13/31,28.82289805,-81.8084175,2023-12-27T21:53:00Z,5.0,VFR,KLEE 272153Z 28005KT 10SM FEW110 18/11 A2995 RMK AO2 SLP141 T01780106
LEM,KLEM,LEMMON MUNI,12/30,45.91838052,-102.1055364,,,,
LEW,KLEW,AUBURN/LEWISTON MUNI,04/22,44.04847277,-70.2835075,2023-12-27T21:56:00Z,0.0,IFR,KLEW 272156Z AUTO 00000KT 10SM -RA BKN005 BKN013 OVC080 04/04 A3007 RMK AO2 SLP193 P0002 T00440044
LEX,KLEX,BLUE GRASS,04/22,38.03675,-84.60863888,2023-12-27T21:54:00Z,4.0,VFR,KLEX 272154Z 09004KT 10SM CLR 09/03 A2984 RMK AO2 SLP109 T00940028
LFK,KLFK,ANGELINA COUNTY,16/34,31.23402777,-94.75,2023-12-27T21:53:00Z,9.0,VFR,KLFK 272153Z AUTO 29009G16KT 10SM CLR 16/02 A2999 RMK AO2 SLP155 T01560017
LFT,KLFT,LAFAYETTE RGNL/PAUL FOURNET FLD,04R/22L,30.20502777,-91.98775,2023-12-27T21:53:00Z,7.0,VFR,KLFT 272153Z 22007KT 10SM CLR 17/07 A2996 RMK AO2 SLP146 T01670072
LGA,KLGA,LAGUARDIA,04/22,40.77725,-73.87261111,2023-12-27T22:41:00Z,10.0,IFR,KLGA 272241Z 04010KT 6SM -RA BR OVC005 08/06 A2997 RMK AO2 RAB2154E08B31 P0000 T00780061
LGB,KLGB,LONG BEACH (DAUGHERTY FLD),08R/26L,33.81792972,-118.1518906,2023-12-27T21:53:00Z,3.0,MVFR,KLGB 272153Z 21003KT 5SM HZ CLR 19/13 A3012 RMK AO2 SLP198 T01890128
LGC,KLGC,LAGRANGE/CALLAWAY,13/31,33.00915083,-85.07320416,2023-12-27T22:35:00Z,0.0,VFR,KLGC 272235Z AUTO 00000KT 10SM CLR 10/04 A2990 RMK AO2 T01000041
LGD,KLGD,LA GRANDE/UNION COUNTY,17/35,45.28907805,-118.0061239,2023-12-27T22:07:00Z,24.0,VFR,KLGD 272207Z AUTO 17024G32KT 10SM OVC031 04/M02 A3009 RMK AO2 PK WND 17032/2207
LGU,KLGU,LOGAN-CACHE,10/28,41.79177055,-111.8516472,2023-12-27T21:51:00Z,,VFR,KLGU 272151Z AUTO 10SM CLR 01/M05 A3031 RMK AO2 SLP285 T00111050
LHB,KLHB,HEARNE MUNI,18/36,30.87208333,-96.62219444,2023-12-27T22:35:00Z,8.0,VFR,KLHB 272235Z AUTO 32008KT 10SM CLR 14/02 A3005 RMK AO2 T01440024
LHD,PALH,LAKE HOOD,14/32,61.18663919,-149.9653936,,,,
LHM,KLHM,LINCOLN RGNL/KARL HARDER FLD,15/33,38.90916666,-121.3513333,2023-12-27T22:35:00Z,5.0,MVFR,KLHM 272235Z AUTO 13005KT 4SM BKN039 BKN044 OVC065 11/11 A3006 RMK AO1 P0012
LHQ,KLHQ,FAIRFIELD COUNTY,10/28,39.75563861,-82.65709638,2023-12-27T21:53:00Z,4.0,IFR,KLHQ 272153Z AUTO 34004KT 6SM BR OVC006 07/07 A2985 RMK AO2 SLP110 T00720067 $
LHV,KLHV,WILLIAM T PIPER MEML,09R/27L,41.13577777,-77.42230555,,,,
LHW,KLHW,WRIGHT AAF (FORT STEWART)/MIDCOAST RGNL,06L/24R,31.88781944,-81.562655,2023-12-27T21:55:00Z,5.0,VFR,KLHW 272155Z AUTO 25005KT 10SM BKN180 18/09 A2983 RMK AO2 SLP104 T01750086 $
LHX,KLHX,LA JUNTA MUNI,12/30,38.05,-103.50975,2023-12-27T21:53:00Z,19.0,VFR,KLHX 272153Z AUTO 36019G29KT 10SM OVC080 08/M10 A3013 RMK AO2 PK WND 36029/2151 SLP195 T00781100
LHZ,KLHZ,TRIANGLE NORTH EXEC,05/23,36.02334861,-78.33026305,2023-12-27T22:30:00Z,0.0,IFR,KLHZ 272230Z AUTO 00000KT 2 1/2SM DZ OVC006 16/16 A2975 RMK AO2
LIC,KLIC,LIMON MUNI,16/34,39.27477777,-103.6658611,2023-12-27T21:55:00Z,14.0,VFR,KLIC 272155Z AUTO 35014KT 10SM CLR 03/M07 A3010 RMK AO2 PK WND 34027/2128 SLP197 T00281072
LIH,PHLI,LIHUE,03/21,21.97598333,-159.3389578,,,,
LIT,KLIT,BILL AND HILLARY CLINTON NTL/ADAMS FLD,04L/22R,34.72944138,-92.22477722,2023-12-27T21:53:00Z,12.0,VFR,KLIT 272153Z 31012KT 10SM BKN050 BKN060 08/M04 A2996 RMK AO2 SLP150 T00831039
LIU,KLIU,LITTLEFIELD TAYLOR BROWN MUNI,13/31,33.92394419,-102.3866738,,,,
LJF,KLJF,LITCHFIELD MUNI,13/31,45.09713888,-94.50725,2023-12-27T22:35:00Z,0.0,MVFR,KLJF 272235Z AUTO 00000KT 3SM UP SCT018 OVC031 M01/M02 A3007 RMK AO2
LKK,PAKL,KULIK LAKE,07/25,58.96500555,-155.0956125,,,,
LKP,KLKP,LAKE PLACID,14/32,44.26447777,-73.96186944,,,,
LKR,KLKR,LANCASTER COUNTY-MC WHIRTER FLD,06/24,34.72290438,-80.85459008,2023-12-27T22:35:00Z,0.0,VFR,KLKR 272235Z AUTO 00000KT 10SM SCT014 14/13 A2980 RMK AO2
LKU,KLKU,LOUISA COUNTY/FREEMAN FLD,09/27,38.00982472,-77.97012666,2023-12-27T22:15:00Z,5.0,LIFR,KLKU 272215Z AUTO 33005KT 2 1/2SM +RA BR OVC003 11/11 A2978 RMK AO2 P0010 T01140113
LKV,KLKV,LAKE COUNTY,17/35,42.16111111,-120.3990833,2023-12-27T21:53:00Z,20.0,VFR,KLKV 272153Z AUTO 20020G28KT 10SM FEW035 BKN047 OVC055 07/M01 A2999 RMK AO2 PK WND 19028/2150 SLP169 T00721006
LLJ,KLLJ,CHALLIS,17/35,44.52360666,-114.2179383,2023-12-27T22:21:00Z,0.0,VFR,KLLJ 272221Z AUTO 00000KT 10SM FEW015 SCT024 OVC100 M03/M06 A3026 RMK AO2 T10281061
LLN,KLLN,LEVELLAND MUNI,08/26,33.55252777,-102.3725278,2023-12-27T22:35:00Z,10.0,VFR,KLLN 272235Z AUTO 34010KT 10SM CLR 12/M02 A3009 RMK AO2
LLQ,KLLQ,MONTICELLO MUNI/ELLIS FLD,03/21,33.63855555,-91.751,2023-12-27T21:53:00Z,7.0,VFR,KLLQ 272153Z AUTO 30007G16KT 10SM OVC050 11/01 A2995 RMK AO2 SLP141 T01060006
LLR,KLLR,LITTLE RIVER,11/29,39.26205555,-123.7537778,,,,
LLU,KLLU,LAMAR MUNI,17/35,37.48597222,-94.312,,,,
LMO,KLMO,VANCE BRAND,11/29,40.16438888,-105.1636389,2023-12-27T22:35:00Z,7.0,VFR,KLMO 272235Z AUTO 04007KT 10SM CLR 10/M12 A3014 RMK AO2 T01011124
LMS,KLMS,LOUISVILLE/WINSTON COUNTY,17/35,33.14598833,-89.06244833,2023-12-27T22:35:00Z,7.0,VFR,KLMS 272235Z AUTO 29007G16KT 10SM FEW048 BKN060 BKN065 13/04 A2991 RMK AO2
LMT,KLMT,CRATER LAKE/KLAMATH RGNL,14/32,42.15614388,-121.7332047,2023-12-27T21:53:00Z,13.0,VFR,KLMT 272153Z 18013G22KT 10SM -RA BKN039 BKN050 OVC065 07/02 A2997 RMK AO2 PK WND 20032/2124 RAB10 SLP142 P0000 T00670017
LNA,KLNA,PALM BEACH COUNTY PARK,16/34,26.59305555,-80.08506461,2023-12-27T22:35:00Z,5.0,VFR,KLNA 272235Z AUTO 28005KT OVC110 23/16 A2994 RMK AO2 T02270161 TSNO
LNC,KLNC,LANCASTER RGNL,13/31,32.57760416,-96.71750277,2023-12-27T22:35:00Z,10.0,VFR,KLNC 272235Z AUTO 34010G14KT 10SM CLR 10/00 A3007 RMK AO2 T00951001
LND,KLND,HUNT FLD,04/22,42.81538472,-108.7285631,2023-12-27T21:53:00Z,0.0,VFR,KLND 272153Z AUTO 00000KT 10SM CLR M03/M12 A3021 RMK AO2 SLP283 T10331122
LNK,KLNK,LINCOLN,14/32,40.85089138,-96.75912111,2023-12-27T22:20:00Z,14.0,VFR,KLNK 272220Z 36014KT 10SM SCT026 OVC032 01/M04 A3007 RMK AO2 T00061039
LNL,KLNL,KINGS LAND O' LAKES,14/32,46.1541175,-89.211965,2023-12-27T22:35:00Z,0.0,MVFR,KLNL 272235Z AUTO 00000KT 10SM BKN026 M01/M02 A3006 RMK AO2 T10071024
LNN,KLNN,LAKE COUNTY EXEC,05/23,41.68402777,-81.38975,2023-12-27T22:35:00Z,6.0,LIFR,KLNN 272235Z AUTO 24006KT 3/4SM OVC003 06/05 A2984 RMK AO1 T00610050
LNP,KLNP,LONESOME PINE,06/24,36.98751777,-82.5299975,2023-12-27T22:35:00Z,0.0,MVFR,KLNP 272235Z AUTO 00000KT 10SM BKN023 07/07 A2985 RMK AO2
LNR,KLNR,TRI-COUNTY RGNL,09/27,43.21186111,-90.17983333,2023-12-27T21:56:00Z,4.0,VFR,KLNR 272156Z AUTO 03004KT 10SM FEW029 03/M02 A3001 RMK AO2 SLP165 T00331017
LNS,KLNS,LANCASTER,08/26,40.12236111,-76.29436111,2023-12-27T21:53:00Z,6.0,LIFR,KLNS 272153Z 08006KT 4SM -RA BR OVC004 11/09 A2987 RMK AO2 SLP117 P0010 T01060094
LNY,PHNY,LANAI,03/21,20.78561111,-156.9514181,,,,
LOL,KLOL,DERBY FLD,08/26,40.06646747,-118.5650861,2023-12-27T21:53:00Z,3.0,VFR,KLOL 272153Z AUTO 33003KT 10SM CLR 09/02 A3003 RMK AO2 SLP178 T00890017
LOM,KLOM,WINGS FLD,06/24,40.13755555,-75.26513888,2023-12-27T22:35:00Z,8.0,LIFR,KLOM 272235Z AUTO 07008KT 3 1/2SM -RA BR OVC003 09/ A2991 RMK AO2 P0001 T0086////
LOT,KLOT,LEWIS UNIVERSITY,02/20,41.60809694,-88.09638972,2023-12-27T22:45:00Z,16.0,VFR,KLOT 272245Z 04016KT 10SM CLR 04/02 A2995
LOU,KLOU,BOWMAN FLD,06/24,38.22798402,-85.66374905,2023-12-27T21:53:00Z,0.0,VFR,KLOU 272153Z 00000KT 10SM BKN095 10/02 A2985 RMK AO2 SLP109 T01000017
LOZ,KLOZ,LONDON/CORBIN/MAGEE,06/24,37.08688888,-84.07738888,2023-12-27T21:53:00Z,0.0,VFR,KLOZ 272153Z AUTO 00000KT 10SM CLR 09/05 A2984 RMK AO2 SLP105 T00940050
LPC,KLPC,LOMPOC,07/25,34.66561944,-120.4675028,2023-12-27T22:31:00Z,5.0,VFR,KLPC 272231Z AUTO 26005KT 10SM FEW001 17/10 A3014 RMK AO2
LPR,KLPR,LORAIN COUNTY RGNL,07/25,41.34427777,-82.17763888,2023-12-27T22:03:00Z,5.0,LIFR,KLPR 272203Z AUTO 30005KT 1 1/4SM BR OVC003 07/07 A2985 RMK AO2 T00720067
LQK,KLQK,PICKENS COUNTY,05/23,34.80997222,-82.70288888,2023-12-27T22:35:00Z,3.0,VFR,KLQK 272235Z AUTO 24003KT 10SM CLR 13/11 A2981 RMK AO2 T01300113
LQR,KLQR,LARNED-PAWNEE COUNTY,12/30,38.20860408,-99.08591408,,,,
LRD,KLRD,LAREDO INTL,18L/36R,27.54419444,-99.46158333,2023-12-27T21:56:00Z,5.0,VFR,KLRD 272156Z 34005KT 10SM CLR 22/03 A3000 RMK AO2 SLP160 T02170028
LRG,KLRG,LINCOLN RGNL,17/35,45.36184972,-68.53445833,,,,
LRJ,KLRJ,LE MARS MUNI,18/36,42.77855555,-96.19358333,2023-12-27T22:35:00Z,7.0,VFR,KLRJ 272235Z AUTO 34007KT 10SM BKN038 00/M03 A3006 RMK AO2
LRO,KLRO,MT PLEASANT RGNL-FAISON FLD,17/35,32.89783333,-79.78286111,2023-12-27T22:35:00Z,3.0,VFR,KLRO 272235Z AUTO VRB03G10KT 9SM CLR 18/16 A2982 RMK AO2
LRU,KLRU,LAS CRUCES INTL,08/26,32.28941388,-106.9219644,2023-12-27T22:35:00Z,3.0,VFR,KLRU 272235Z AUTO 33003KT 10SM CLR 11/M13 A3016 RMK AO2 T01131134
LRY,KLRY,LAWRENCE SMITH MEML,17/35,38.61019444,-94.34352777,2023-12-27T22:35:00Z,10.0,MVFR,KLRY 272235Z AUTO 33010KT 10SM OVC013 02/01 A2996 RMK AO2
LSB,KLSB,LORDSBURG MUNI,01/19,32.33346277,-108.6917342,,,,
LSE,KLSE,LA CROSSE RGNL,04/22,43.87926566,-91.25663361,2023-12-27T21:53:00Z,4.0,VFR,KLSE 272153Z 35004KT 10SM CLR 02/M02 A3004 RMK AO2 SLP184 T00171017
LSK,KLSK,LUSK MUNI,10/28,42.75380555,-104.4045556,,,,
LSN,KLSN,LOS BANOS MUNI,14/32,37.06388888,-120.8698611,,,,
LTY,KLTY,LIBERTY COUNTY,07/25,48.51072222,-110.9908639,,,,
LUA,KLUA,LURAY CAVERNS,04/22,38.66671047,-78.50083502,2023-12-27T22:35:00Z,7.0,LIFR,KLUA 272235Z AUTO 03007KT 7SM BKN003 OVC014 09/08 A2981 RMK AO2
LUD,KLUD,DECATUR MUNI,17/35,33.25425,-97.5805,2023-12-27T22:35:00Z,4.0,VFR,KLUD 272235Z AUTO 30004KT 10SM CLR 09/M02 A3007 RMK AO2 T00901016
LUG,KLUG,ELLINGTON,02/20,35.50697416,-86.8038875,2023-12-27T22:35:00Z,5.0,VFR,KLUG 272235Z AUTO 20005KT 10SM BKN070 11/M01 A2982 RMK A01
LUK,KLUK,CINCINNATI MUNI/LUNKEN FLD,03R/21L,39.10333333,-84.41861111,2023-12-27T21:53:00Z,3.0,VFR,KLUK 272153Z 06003KT 10SM CLR 09/00 A2986 RMK AO2 SLP111 T00940000 PNO $
LUL,KLUL,HESLER-NOBLE FLD,13/31,31.67302777,-89.17280555,2023-12-27T22:35:00Z,4.0,VFR,KLUL 272235Z AUTO 23004KT 10SM CLR 13/05 A2991 RMK A02 T01330054
LUM,KLUM,MENOMONIE MUNI/SCORE FLD,09/27,44.89233333,-91.86780555,2023-12-27T22:40:00Z,0.0,VFR,KLUM 272240Z AUTO 00000KT 10SM CLR 02/M04 A3008 RMK AO2 T00201037 PWINO
LUP,PHLU,KALAUPAPA,05/23,21.21104027,-156.9735972,,,,
LUV,KLUV,LAMESA MUNI,16/34,32.75630555,-101.9202222,2023-12-27T22:35:00Z,11.0,VFR,KLUV 272235Z AUTO 34011KT 10SM CLR 12/M01 A3009 RMK AO2
LUX,KLUX,LAURENS COUNTY,08/26,34.50711111,-81.94694444,2023-12-27T22:35:00Z,3.0,VFR,KLUX 272235Z AUTO 24003KT 10SM CLR 13/12 A2982 RMK AO2
LVJ,KLVJ,PEARLAND RGNL,14/32,29.52127777,-95.24213888,2023-12-27T21:53:00Z,7.0,VFR,KLVJ 272153Z AUTO 33007KT 10SM CLR 18/M01 A3001 RMK AO2 SLP160 T01831006
LVK,KLVK,LIVERMORE MUNI,H1,37.69338888,-121.8203611,2023-12-27T21:53:00Z,10.0,VFR,KLVK 272153Z 17010KT 10SM OVC055 17/09 A3003 RMK AO2 SLP166 T01670089
LVL,KLVL,BRUNSWICK COUNTY,18/36,36.77462916,-77.79378194,,,,
LVM,KLVM,MISSION FLD,08/26,45.69941666,-110.4480278,2023-12-27T21:53:00Z,21.0,VFR,KLVM 272153Z AUTO 29021G28KT 10SM CLR 04/M08 A3013 RMK AO2 PK WND 25034/2127 SLP229 T00391083
LVN,KLVN,AIRLAKE,12/30,44.62786111,-93.22809444,2023-12-27T22:35:00Z,0.0,VFR,KLVN 272235Z AUTO 00000KT 10SM CLR 01/M04 A3007 RMK AO2
LVS,KLVS,LAS VEGAS MUNI,02/20,35.65422222,-105.1423889,2023-12-27T21:53:00Z,11.0,VFR,KLVS 272153Z AUTO 20011KT 10SM CLR 06/M07 A3008 RMK AO2 SLP161 T00611072
LWA,KLWA,SOUTH HAVEN AREA RGNL,05/23,42.35132638,-86.2557375,2023-12-27T22:35:00Z,0.0,MVFR,KLWA 272235Z AUTO 00000KT 10SM OVC019 04/01 A2994 RMK AO2 T00430011
LWB,KLWB,GREENBRIER VALLEY,04/22,37.85830666,-80.3994825,2023-12-27T22:45:00Z,0.0,VFR,KLWB 272245Z 00000KT 10SM OVC034 12/09 A2981
LWC,KLWC,LAWRENCE RGNL,15/33,39.01111111,-95.21647222,2023-12-27T22:45:00Z,11.0,MVFR,KLWC 272245Z AUTO 31011KT 8SM OVC015 02/M01 A2999 RMK AO1 T00171006
LWD,KLWD,LAMONI MUNI,18/36,40.63239194,-93.90222611,2023-12-27T21:53:00Z,10.0,IFR,KLWD 272153Z AUTO 35010KT 10SM OVC006 01/M01 A2992 RMK AO2 SLP141 T00061006
LWL,KLWL,WELLS MUNI/HARRIET FLD,01/19,41.11711111,-114.9221389,,,,
LWM,KLWM,LAWRENCE MUNI,05/23,42.71704222,-71.12353333,2023-12-27T21:54:00Z,5.0,VFR,KLWM 272154Z 06005KT 10SM OVC100 08/06 A3006 RMK AO2 SLP178 T00830061
LWS,KLWS,LEWISTON/NEZ PERCE COUNTY,12/30,46.37449861,-117.0153964,2023-12-27T21:56:00Z,8.0,VFR,KLWS 272156Z 05008KT 10SM CLR 06/M01 A3004 RMK AO2 SLP183 T00561006
LWT,KLWT,LEWISTOWN MUNI,03/21,47.04925,-109.4666944,2023-12-27T21:54:00Z,4.0,VFR,KLWT 272154Z AUTO 10004KT 10SM CLR 07/M06 A3008 RMK AO2 SLP213 T00671061
LWV,KLWV,LAWRENCEVILLE-VINCENNES INTL,09/27,38.76427777,-87.6055,2023-12-27T21:53:00Z,4.0,VFR,KLWV 272153Z AUTO 08004KT 10SM FEW075 OVC100 08/04 A2984 RMK AO2 SLP108 T00830039 $
LXL,KLXL,LITTLE FALLS/MORRISON COUNTY-LINDBERGH FLD,18/36,45.949065,-94.34703638,2023-12-27T22:35:00Z,0.0,LIFR,KLXL 272235Z AUTO 00000KT 1 1/2SM BR OVC004 00/00 A3006 RMK AO2
LXN,KLXN,JIM KELLY FLD,14/32,40.79042361,-99.77591416,2023-12-27T22:35:00Z,3.0,MVFR,KLXN 272235Z AUTO 04003KT 10SM OVC010 00/M01 A3007 RMK AO2 T10021012
LXT,KLXT,LEE'S SUMMIT MUNI,18/36,38.95909666,-94.37189472,2023-12-27T22:02:00Z,11.0,IFR,KLXT 272202Z AUTO 34011G18KT 7SM -SN OVC008 02/01 A2992 RMK AO2 RAE2155UPB2155E2159SNB2159 CIG 007V013 P0001 T00170006
LXV,KLXV,LAKE COUNTY,H1,39.21947222,-106.3164167,2023-12-27T21:53:00Z,10.0,VFR,KLXV 272153Z AUTO 36010G17KT 10SM CLR M02/M18 A3015 RMK AO2 SLP189 T10171178
LXY,KLXY,MEXIA-LIMESTONE COUNTY,18/36,31.64117833,-96.51445944,2023-12-27T22:35:00Z,8.0,VFR,KLXY 272235Z AUTO 32008G18KT 10SM CLR 12/01 A3005 RMK AO2 T01200009
LYH,KLYH,LYNCHBURG RGNL/PRESTON GLENN FLD,04/22,37.32538888,-79.20122222,2023-12-27T22:45:00Z,0.0,LIFR,KLYH 272245Z 00000KT 2SM BR BKN002 OVC010 11/11 A2979 RMK AO2 T01110111
LYO,KLYO,LYONS-RICE COUNTY MUNI,17/35,38.34025,-98.22855555,2023-12-27T22:35:00Z,12.0,MVFR,KLYO 272235Z AUTO 34012KT 10SM OVC027 00/M05 A3008 RMK AO2 T10031053
LYV,KLYV,QUENTIN AANENSON FLD,18/36,43.61676925,-96.21773638,2023-12-27T22:35:00Z,4.0,VFR,KLYV 272235Z AUTO 32004KT 10SM SCT046 BKN060 OVC080 00/M03 A3008 RMK AO2
LZD,KLZD,DANIELSON,13/31,41.81975,-71.90097222,,,,
LZU,KLZU,GWINNETT COUNTY/BRISCOE FLD,07/25,33.97809194,-83.96236388,2023-12-27T21:56:00Z,5.0,VFR,KLZU 272156Z 26005KT 10SM CLR 12/05 A2986 RMK AO2 SLP121 T01170050
LZZ,KLZZ,LAMPASAS,16/34,31.10619444,-98.19591666,2023-12-27T22:35:00Z,6.0,VFR,KLZZ 272235Z AUTO 31006KT 10SM CLR 13/00 A3004 RMK AO2 T01250001
M01,,GENERAL DEWITT SPAIN,17/35,35.2006925,-90.05397527,2023-12-27T22:35:00Z,12.0,VFR,KM01 272235Z AUTO 32012KT 10SM OVC060 07/01 A2990 RMK AO2 T00670007 $
M02,,DICKSON MUNI,17/35,36.12795666,-87.42983972,2023-12-27T22:35:00Z,5.0,VFR,KM02 272235Z AUTO 24005KT 10SM OVC055 11/M00 A2980 RMK A01
M04,,COVINGTON MUNI,01/19,35.583365,-89.58722166,2023-12-27T22:30:00Z,14.0,VFR,KM04 272230Z AUTO 32014KT 10SM FEW044 OVC060 07/01 A2990 RMK A01
M05,,CARUTHERSVILLE MEML,18/36,36.16912583,-89.67648083,,,,
M08,,WILLIAM L WHITEHURST FLD,01/19,35.21513888,-89.04325,2023-12-27T22:35:00Z,11.0,VFR,KM08 272235Z AUTO 24011KT 10SM OVC050 10/00 A2986 RMK A01
M10,,MOUNTAINAIR MUNI,H1,34.53333333,-106.2238889,,,,
M11,,COPIAH COUNTY,18/36,31.90244444,-90.36675,,,,
M12,,STEELE MUNI,18/36,36.09561111,-89.85947222,,,,
M13,,POPLARVILLE/PEARL RIVER COUNTY,16/34,30.78657638,-89.5045375,,,,
M15,,JAMES TUCKER,18/36,35.59483888,-87.87662916,,,,
M17,,BOLIVAR MUNI,18/36,37.59610694,-93.34769861,,,,
M18,,HOPE MUNI,16/34,33.71998113,-93.65890372,,,,
M19,,NEWPORT RGNL,04/22,35.63772222,-91.17638888,2023-12-27T21:56:00Z,9.0,VFR,KM19 272156Z AUTO 26009KT 10SM OVC060 06/M02 A2993 RMK AO2 SLP135 T00611017 $
M20,,LEITCHFIELD-GRAYSON COUNTY,02/20,37.39975,-86.26127777,,,,
M21,,MUHLENBERG COUNTY,06/24,37.22622222,-87.15638888,2023-12-27T22:35:00Z,0.0,VFR,KM21 272235Z AUTO 00000KT 10SM BKN065 OVC075 08/03 A2982 RMK AO2 T00780025
M22,,BILL PUGH FLD,02/20,34.44508333,-87.71163888,,,,
M23,,JAMES H EASOM FLD,14/32,32.31200694,-89.13565,,,,
M24,,DEAN GRIFFIN MEML,17/35,30.843,-89.1615,,,,
M25,,MAYFIELD GRAVES COUNTY,01/19,36.76962916,-88.58466805,,,,
M26,,DRUMMOND,07/25,46.6207625,-113.2050661,,,,
M27,,WALDRON MUNI,09/27,34.876,-94.10888888,,,,
M28,,MID CONTINENT,18/36,36.22425,-89.72883333,,,,
M29,,HASSELL FLD,03/21,35.38303444,-87.96826777,,,,
M30,,METROPOLIS MUNI,18/36,37.18294444,-88.75066666,2023-12-27T22:35:00Z,4.0,VFR,KM30 272235Z AUTO 24004KT 10SM OVC065 07/02 A2985 RMK AO2 T00700017
M31,,ARNOLD FLD,18/36,35.90340694,-89.39729444,,,,
M32,,LAKE VILLAGE MUNI,01/19,33.34652777,-91.31555555,,,,
M34,,KENTUCKY DAM STATE PARK,10/28,37.00981361,-88.29940222,,,,
M36,,FRANK FEDERER MEML,02/20,34.88027777,-91.17644444,,,,
M37,,RULEVILLE-DREW,18/36,33.77639166,-90.52500833,,,,
M38,,HAZEL GREEN,07/25,34.91613194,-86.64704583,,,,
M40,,MONROE COUNTY,18/36,33.87375,-88.48966666,2023-12-27T22:35:00Z,6.0,VFR,KM40 272235Z AUTO 24006KT 10SM SCT048 OVC055 13/05 A2988 RMK AO2
M41,,HOLLY SPRINGS-MARSHALL COUNTY,18/36,34.80436111,-89.52111111,,,,
M42,,RUSSIAN FLAT,07/25,46.72431111,-110.4178278,,,,
M43,,PRENTISS-JEFFERSON DAVIS COUNTY,12/30,31.59530555,-89.90644444,,,,
M44,,HOUSTON MUNI,03/21,33.88649444,-89.022975,,,,
M45,,ALPINE COUNTY,17/35,38.73475,-119.7670556,,,,
M46,,COLSTRIP,06/24,45.85283333,-106.7092778,,,,
M48,,HOUSTON MEML,16/34,37.33022222,-91.97316666,,,,
M50,,BOARDMAN,04/22,45.814825,-119.8205006,,,,
M51,,OKTIBBEHA,14/32,33.49767886,-88.68142191,,,,
M53,,HUMBOLDT MUNI,04/22,35.80218333,-88.87493444,,,,
M54,,LEBANON MUNI,01/19,36.19041122,-86.31569041,2023-12-27T22:30:00Z,3.0,VFR,KM54 272230Z AUTO 15003KT 10SM CLR 09/01 A2982 RMK A01
M55,,LAMAR COUNTY,17/35,33.84671888,-88.11547583,,,,
M59,,RICHTON-PERRY COUNTY,18/36,31.31703194,-88.9348625,,,,
M60,,WOODRUFF COUNTY,09/27,35.27190555,-91.27033055,,,,
M61,,EDWARD F JOHNSON,18/36,46.34521861,-87.78846805,,,,
M66,,ALFRED SCHROEDER FLD,17/35,38.34157083,-97.21387222,,,,
M70,,POCAHONTAS MUNI,18/36,36.2455,-90.95522222,,,,
M71,,GREENSFIELD,09/27,38.901775,-90.96030555,,,,
M72,,NEW ALBANY/UNION COUNTY,18/36,34.54900972,-89.02443611,,,,
M73,,ALMYRA MUNI,18/36,34.41247944,-91.46530555,,,,
M74,,BALD KNOB MUNI,09/27,35.29947222,-91.55769444,,,,
M75,,MALTA,08/26,48.36694444,-107.9193333,2023-12-27T22:35:00Z,3.0,VFR,KM75 272235Z AUTO 23003KT 10SM CLR 03/M04 A3013 RMK A01
M77,,HOWARD COUNTY,01/19,33.99719444,-93.83808333,,,,
M78,,MALVERN MUNI,04/22,34.33331583,-92.76149944,,,,
M79,,JOHN H HOOKS JR MEML,18/36,32.48541972,-91.77106638,,,,
M80,,SCOTT,17/35,32.41626333,-91.14895083,,,,
M83,,MCCHAREN FLD,18/36,33.58402777,-88.66669444,,,,
M85,,GIDEON MEML,15/33,36.44375583,-89.90383833,,,,
M86,,WALLE FLD,09/27,42.47097222,-86.12563888,,,,
M91,,SPRINGFIELD ROBERTSON COUNTY,04/22,36.53669444,-86.92116666,2023-12-27T22:30:00Z,5.0,VFR,KM91 272230Z AUTO 09005KT 10SM BKN060 OVC080 09/04 A2980 RMK A01
M93,,HOUSTON COUNTY,08/26,36.31672166,-87.91669555,,,,
M94,,DESERT AIRE RGNL,10/28,46.68725111,-119.9197261,,,,
M95,,RICHARD ARTHUR FLD,01/19,33.70910583,-87.81520861,,,,
M99,,SHADY LANE,09/27,43.0612,-84.54838888,,,,
MAC,KMAC,MACON DOWNTOWN,10/28,32.82176444,-83.56193494,,,,
MAE,KMAE,MADERA MUNI,12/30,36.98860027,-120.1124497,2023-12-27T21:53:00Z,9.0,VFR,KMAE 272153Z AUTO 17009KT 10SM CLR 19/07 A3008 RMK AO2 SLP186 T01890067
MAF,KMAF,MIDLAND INTL AIR AND SPACE PORT,04/22,31.94252777,-102.2019167,2023-12-27T21:53:00Z,11.0,VFR,KMAF 272153Z 36011KT 10SM CLR 12/01 A3009 RMK AO2 SLP179 T01220006
MAI,KMAI,MARIANNA MUNI,08/26,30.83822138,-85.18222361,2023-12-27T21:53:00Z,4.0,VFR,KMAI 272153Z AUTO 26004KT 10SM CLR 15/06 A2993 RMK AO2 SLP135 T01500056
MAJ,PKMJ,AMATA KABUA INTL,07/25,7.06497222,171.2720278,,,,
MAL,KMAL,MALONE-DUFORT,14/32,44.85366666,-74.32894444,2023-12-27T22:00:00Z,2.0,MVFR,OMAL 272200Z VRB02KT 8000 NSC 17/14 Q1019 NOSIG
MAN,KMAN,NAMPA MUNI,11/29,43.58134111,-116.5230631,2023-12-27T22:35:00Z,10.0,VFR,KMAN 272235Z AUTO 15010G17KT 10SM CLR 03/00 A3019 RMK A01
MAO,KMAO,MARION COUNTY,04/22,34.18116666,-79.33472222,2023-12-27T22:35:00Z,4.0,VFR,KMAO 272235Z AUTO 28004KT 10SM SCT032 16/16 A2979 RMK AO2
MAW,KMAW,MALDEN RGNL,18/36,36.59820416,-89.99254861,2023-12-27T22:35:00Z,3.0,VFR,KMAW 272235Z AUTO 30003KT 10SM OVC065 06/00 A2990 RMK AO1
MAZ,TJMZ,EUGENIO MARIA DE HOSTOS,09/27,18.25569444,-67.14847222,,,,
MBA,PAMB,MANOKOTAK,03/21,58.93205555,-158.9018889,2023-12-27T22:00:00Z,0.0,VFR,WMBA 272200Z 00000KT 9000 FEW031 25/24 Q1010
MBG,KMBG,MOBRIDGE MUNI,17/35,45.54627777,-100.4062778,,,,
MBGT,MBGT,JAGS MCCARTNEY INTL,11/29,21.44454444,-71.14234444,,,,
MBL,KMBL,MANISTEE COUNTY/BLACKER,10/28,44.272465,-86.24690083,2023-12-27T21:56:00Z,9.0,MVFR,KMBL 272156Z AUTO 01009KT 10SM OVC024 04/M02 A2999 RMK AO2 SLP161 T00441022
MBNC,MBNC,NORTH CAICOS INTL,08/26,21.91748611,-71.93965833,,,,
MBO,KMBO,BRUCE CAMPBELL FLD,17/35,32.43866666,-90.10311111,2023-12-27T22:35:00Z,7.0,VFR,KMBO 272235Z AUTO 27007KT 230V290 10SM CLR 14/M00 A2991 RMK AO2
MBPV,MBPV,PROVIDENCIALES INTL,10/28,21.7736,-72.2659,,,,
MBS,KMBS,MBS INTL,14/32,43.53292694,-84.07963583,2023-12-27T21:53:00Z,6.0,IFR,KMBS 272153Z 35006KT 10SM OVC006 06/05 A2992 RMK AO2 SLP135 T00610050
MBSC,MBSC,SOUTH CAICOS INTL,11/29,21.51577777,-71.52861666,,,,
MBT,KMBT,MURFREESBORO MUNI,18/36,35.87865833,-86.37747083,2023-12-27T22:35:00Z,0.0,VFR,KMBT 272235Z AUTO 00000KT 10SM CLR 10/02 A2982 RMK A01
MBY,KMBY,OMAR N BRADLEY,05/23,39.46317027,-92.42589,2023-12-27T22:35:00Z,4.0,LIFR,KMBY 272235Z AUTO 28004KT 1 1/4SM -SN OVC002 01/00 A2986 RMK AO2
MCB,KMCB,MC COMB/PIKE COUNTY/JOHN E LEWIS FLD,16/34,31.17844444,-90.47186111,2023-12-27T21:53:00Z,8.0,VFR,KMCB 272153Z AUTO 25008KT 10SM CLR 14/05 A2992 RMK AO2 SLP132 T01440050
MCC,KMCC,MC CLELLAN AIRFIELD,16/34,38.66763888,-121.4006111,2023-12-27T22:35:00Z,8.0,VFR,KMCC 272235Z AUTO 12008KT 10SM FEW024 BKN041 OVC047 13/12 A3004 RMK AO2
MCD,KMCD,MACKINAC ISLAND,08/26,45.86498333,-84.63709444,2023-12-27T22:35:00Z,6.0,LIFR,KMCD 272235Z AUTO 01006KT 5SM BR OVC003 05/05 A2999 RMK AO2 T00450045
MCE,KMCE,MERCED YOSEMITE RGNL,12/30,37.28475,-120.5139167,2023-12-27T21:44:00Z,0.0,VFR,MMCE 272144Z 00000KT 6SM SCT090 BKN260 29/23 A2983 RMK 8/038 HZY
MCG,PAMC,MC GRATH,05/23,62.95278391,-155.6070481,,,,
MCI,KMCI,KANSAS CITY INTL,09/27,39.29761111,-94.71388888,2023-12-27T21:53:00Z,12.0,MVFR,KMCI 272153Z 34012G19KT 10SM OVC011 02/00 A2994 RMK AO2 SNE23 SLP144 P0000 T00170000
MCK,KMCK,MC COOK BEN NELSON RGNL,04/22,40.20629222,-100.5920939,2023-12-27T21:53:00Z,11.0,VFR,KMCK 272153Z AUTO 35011KT 10SM SCT015 OVC050 02/M01 A3007 RMK AO2 SNB2059E33 SLP207 P0000 T00171011
MCN,KMCN,MIDDLE GEORGIA RGNL,05/23,32.69283333,-83.64922222,2023-12-27T21:41:00Z,8.0,VFR,MMCN 272141Z 28008KT 10SM SCT200 24/M04 A2997 RMK 8/008 HZY
MCO,KMCO,ORLANDO INTL,18R/36L,28.42938888,-81.309,2023-12-27T21:53:00Z,7.0,VFR,KMCO 272153Z 32007KT 10SM BKN130 BKN250 21/09 A2994 RMK AO2 SLP136 T02060089
MCW,KMCW,MASON CITY MUNI,12/30,43.15780555,-93.33125,2023-12-27T21:53:00Z,6.0,VFR,KMCW 272153Z AUTO 03006KT 10SM OVC032 02/M01 A3003 RMK AO2 SLP178 T00171011
MCX,KMCX,WHITE COUNTY,18/36,40.71019388,-86.76679388,,,,
MCZ,KMCZ,MARTIN COUNTY,03/21,35.86219277,-77.17820055,2023-12-27T22:20:00Z,3.0,LIFR,KMCZ 272220Z AUTO 36003KT 1 3/4SM BR OVC004 17/16 A2974 RMK AO2 T01660164
MD1,,MASSEY AERODROME,02/20,39.29936111,-75.79938888,,,,
MDD,KMDD,MIDLAND AIRPARK,07/25,32.03657044,-102.1015276,2023-12-27T22:35:00Z,,VFR,KMDD 272235Z AUTO 10SM CLR 12/M01 A3010 RMK AO2 T01241010
MDF,KMDF,MOORELAND MUNI,17/35,36.48476666,-99.19416666,,,,
MDH,KMDH,SOUTHERN ILLINOIS,18L/36R,37.77808333,-89.25202777,2023-12-27T21:52:00Z,9.0,MVFR,KMDH 272152Z 29009G21KT 10SM OVC025 03/00 A2985 RMK AO2 WSHFT 2126 SLP111 T00330000
MDM,PADM,MARSHALL DON HUNTER SR,07/25,61.86416666,-162.0261111,,,,
MDO,PAMD,MIDDLETON ISLAND,02/20,59.44994361,-146.3072406,2023-12-27T21:45:00Z,2.0,VFR,MMDO 272145Z 08002KT 12SM SKC 18/M07 A3011
MDQ,KMDQ,HUNTSVILLE EXEC TOM SHARP JR FLD,18/36,34.85935222,-86.55751388,2023-12-27T22:35:00Z,6.0,VFR,KMDQ 272235Z AUTO 21006KT 10SM CLR 12/M04 A2985 RMK A02 T01161041
MDS,KMDS,MADISON MUNI,03/21,44.01641666,-97.08561111,,,,
MDT,KMDT,HARRISBURG INTL,13/31,40.19319166,-76.76261916,2023-12-27T21:56:00Z,5.0,IFR,KMDT 272156Z 10005KT 8SM -RA OVC006 11/09 A2987 RMK AO2 SLP115 P0008 T01110089
MDW,KMDW,CHICAGO MIDWAY INTL,04L/22R,41.78597222,-87.75241666,2023-12-27T22:00:00Z,5.0,MVFR,OMDW 272200Z 17005KT 6000 NSC 19/17 Q1018 NOSIG
MDY,PMDY,HENDERSON FLD,06/24,28.20148388,-177.3813089,2023-12-27T21:56:00Z,12.0,VFR,PMDY 272156Z AUTO 09012KT 10SM 22/14 A3023 RMK AO2 SLP238 T02220144
MDZ,KMDZ,TAYLOR COUNTY,16/34,45.10131847,-90.30017441,2023-12-27T22:35:00Z,3.0,VFR,KMDZ 272235Z AUTO 01003KT 10SM CLR M01/M02 A3004 RMK AO2 T10071025 PWINO
ME2,,CUTLER RGNL,09/27,44.68,-67.26436111,,,,
ME5,,BANKS,10/28,44.16538888,-68.42816666,,,,
ME6,,WALES,04/22,44.17452777,-70.01894444,,,,
MEB,KMEB,LAURINBURG/MAXTON,13/31,34.79217222,-79.36589611,2023-12-27T21:52:00Z,7.0,VFR,KMEB 272152Z AUTO 29007KT 10SM FEW021 SCT032 17/16 A2977 RMK AO2 SLP081 T01720156
MEI,KMEI,KEY FLD,04/22,32.33261111,-88.75186111,2023-12-27T21:58:00Z,6.0,VFR,KMEI 272158Z 22006KT 10SM OVC060 14/05 A2990 RMK AO2 SLP124 I1000 T01390050 $
MEJ,KMEJ,MEADE MUNI,08/26,37.27867505,-100.3564557,,,,
MEM,KMEM,MEMPHIS INTL,09/27,35.04241138,-89.97667916,2023-12-27T21:54:00Z,16.0,VFR,KMEM 272154Z 28016G23KT 10SM BKN047 OVC055 09/M01 A2989 RMK AO2 SLP123 T00891006
MER,KMER,CASTLE,13/31,37.38048444,-120.5681864,,,,
MEV,KMEV,MINDEN-TAHOE,16/34,39.0005,-119.7511111,2023-12-27T22:35:00Z,15.0,VFR,KMEV 272235Z AUTO 17015G26KT 10SM CLR 16/M15 A3000 RMK AO2
MEY,KMEY,JAMES G WHITING MEML FLD,02/20,42.178295,-95.79364527,,,,
MEZ,KMEZ,MENA INTERMOUNTAIN MUNI,09/27,34.54551175,-94.20241647,2023-12-27T22:35:00Z,8.0,VFR,KMEZ 272235Z AUTO 32008KT 10SM CLR 03/M05 A3000 RMK AO2 T00351053 TSNO $
MFD,KMFD,MANSFIELD LAHM RGNL,05/23,40.82141666,-82.51663888,2023-12-27T22:10:00Z,5.0,LIFR,KMFD 272210Z 31005KT 1/4SM FG VV002 06/06 A2984 RMK AO2 T00610061
MFE,KMFE,MC ALLEN INTL,14/32,26.17583333,-98.23861111,2023-12-27T21:53:00Z,3.0,VFR,KMFE 272153Z 34003KT 10SM CLR 22/13 A2999 RMK AO2 SLP153 T02220128
MFI,KMFI,MARSHFIELD MUNI,16/34,44.63687972,-90.18932666,2023-12-27T21:54:00Z,5.0,VFR,KMFI 272154Z AUTO 02005KT 10SM CLR 03/M04 A3003 RMK AO2 SLP183 T00281044
MFR,KMFR,ROGUE VALLEY INTL - MEDFORD,14/32,42.37496472,-122.8732875,2023-12-27T21:53:00Z,14.0,VFR,KMFR 272153Z 17014G20KT 10SM FEW050 SCT070 12/05 A2988 RMK AO2 SLP117 T01220050
MFV,KMFV,ACCOMACK COUNTY,03/21,37.64687888,-75.76104527,,,,
MGC,KMGC,MICHIGAN CITY MUNI-PHILLIPS FLD,02/20,41.70331527,-86.82124,2023-12-27T22:35:00Z,6.0,MVFR,KMGC 272235Z AUTO 36006KT 10SM OVC017 03/01 A2995 RMK AO2
MGG,KMGG,MAPLE LAKE MUNI-BILL MAVENCAMP SR FLD,10/28,45.23599277,-93.98558888,2023-12-27T22:35:00Z,3.0,MVFR,KMGG 272235Z AUTO 27003KT 5SM BR BKN017 OVC029 00/M01 A3009 RMK AO2 T00031015
MGJ,KMGJ,ORANGE COUNTY,08/26,41.51181166,-74.26353916,2023-12-27T21:54:00Z,4.0,VFR,KMGJ 272154Z AUTO 04004KT 6SM BR SCT090 OVC110 07/07 A2996 RMK AO2 RAB03E46 SLP145 P0000 T00720067
MGM,KMGM,MONTGOMERY RGNL (DANNELLY FLD),03/21,32.30063888,-86.39397222,2023-12-27T21:53:00Z,3.0,VFR,KMGM 272153Z 23003KT 10SM FEW042 SCT050 13/03 A2992 RMK AO2 SLP130 T01280033
MGN,KMGN,HARBOR SPRINGS,10/28,45.42547222,-84.91347222,2023-12-27T22:35:00Z,4.0,LIFR,KMGN 272235Z AUTO 36004KT 4SM BR OVC003 02/02 A2998 RMK AO2 T00300030
MGR,KMGR,MOULTRIE MUNI,04/22,31.08557944,-83.80280916,2023-12-27T22:35:00Z,0.0,VFR,KMGR 272235Z AUTO 00000KT 10SM SCT160 BKN190 15/09 A2992 RMK AO2 T01460091 $
MGW,KMGW,MORGANTOWN MUNI/WALTER L BILL HART FLD,18/36,39.64359527,-79.91754694,2023-12-27T22:46:00Z,3.0,MVFR,KMGW 272246Z 30003KT 3SM BR FEW008 OVC015 12/11 A2981 RMK AO2 T01220106
MGY,KMGY,DAYTON/WRIGHT BROTHERS,02/20,39.58897222,-84.22486111,2023-12-27T21:53:00Z,6.0,VFR,KMGY 272153Z AUTO 03006KT 10SM CLR 08/00 A2984 RMK AO2 SLP110 T00780000
MHE,KMHE,MITCHELL MUNI,18/36,43.77482194,-98.03861527,2023-12-27T22:43:00Z,7.0,LIFR,KMHE 272243Z AUTO 32007KT 3/4SM -SN BR BKN007 OVC013 01/M01 A3009 RMK AO2 SNB01 P0001 T00061006
MHK,KMHK,MANHATTAN RGNL,13/31,39.14141666,-96.67155555,2023-12-27T22:13:00Z,6.0,MVFR,KMHK 272213Z 34006KT 10SM BKN022 OVC037 01/M03 A3005 RMK AO2 T00111033
MHL,KMHL,MARSHALL MEML MUNI,09/27,39.09547833,-93.20299972,2023-12-27T22:35:00Z,5.0,IFR,KMHL 272235Z AUTO 29005KT 2 1/2SM -SN OVC005 00/00 A2989 RMK AO2
MHM,PAMH,MINCHUMINA,03/21,63.88597222,-152.3018333,,,,
MHP,KMHP,JOHN EDWIN JONES SR FLD/METTER MUNI,10/28,32.37397222,-82.08144444,2023-12-27T22:35:00Z,5.0,VFR,KMHP 272235Z AUTO 23005KT 10SM CLR 16/10 A2988 RMK AO2 T01570095
MHR,KMHR,SACRAMENTO MATHER,04L/22R,38.55531083,-121.2972114,2023-12-27T22:35:00Z,0.0,VFR,KMHR 272235Z AUTO 00000KT 9SM FEW026 SCT039 OVC047 14/11 A3004 RMK AO2
MHT,KMHT,MANCHESTER BOSTON RGNL,06/24,42.93280555,-71.43575,2023-12-27T21:53:00Z,0.0,MVFR,KMHT 272153Z 00000KT 4SM BR FEW001 SCT060 BKN120 BKN170 09/07 A3003 RMK AO2 SLP185 T00890072
MHV,KMHV,MOJAVE AIR & SPACE PORT/RUTAN FLD,04/22,35.05894444,-118.1506111,2023-12-27T22:20:00Z,4.0,VFR,KMHV 272220Z AUTO 07004KT 10SM CLR 14/03 A3014 RMK AO2
MI1,,DENTON FARMS,12/30,43.75386458,-84.81094147,,,,
MIA,KMIA,MIAMI INTL,09/27,25.79536111,-80.29011583,2023-12-27T21:40:00Z,12.0,VFR,MMIA 272140Z 25012KT 8SM FEW015 25/15 A3001 RMK 8/100
MIC,KMIC,CRYSTAL,14/32,45.06246944,-93.35396527,2023-12-27T21:53:00Z,0.0,VFR,KMIC 272153Z AUTO 00000KT 10SM FEW120 02/M03 A3006 RMK AO2 SLP189 T00221033
MIE,KMIE,DELAWARE COUNTY RGNL,14/32,40.24247222,-85.39575,2023-12-27T21:53:00Z,4.0,VFR,KMIE 272153Z 03004KT 10SM FEW002 07/01 A2986 RMK AO2 SLP113 T00720011
MIO,KMIO,MIAMI RGNL,17/35,36.90922222,-94.8875,2023-12-27T21:52:00Z,10.0,VFR,MMIO 272152Z 36010KT 10SM SKC 15/06 A3014
MIT,KMIT,SHAFTER-MINTER FLD,08/26,35.50747777,-119.1921306,,,,
MIV,KMIV,MILLVILLE MUNI,10/28,39.36780555,-75.07222222,2023-12-27T21:54:00Z,9.0,LIFR,KMIV 272154Z AUTO 08009KT 10SM OVC004 11/11 A2988 RMK AO2 RAE17 SLP116 P0001 T01110111
MIW,KMIW,MARSHALLTOWN MUNI,18/36,42.11275,-92.91777777,2023-12-27T22:07:00Z,11.0,MVFR,KMIW 272207Z AUTO 03011KT 9SM -RA SCT012 OVC022 02/01 A2997 RMK AO2 UPB01E05 P0000 T00220011
MJD,KMJD,PICAYUNE MUNI,18/36,30.48747222,-89.65119444,2023-12-27T22:35:00Z,6.0,VFR,KMJD 272235Z AUTO 21006KT 10SM CLR 14/11 A2993 RMK AO2
MJQ,KMJQ,JACKSON MUNI,13/31,43.65013888,-94.98658333,2023-12-27T22:35:00Z,3.0,VFR,KMJQ 272235Z AUTO 35003KT 10SM SCT090 SCT110 00/M03 A3005 RMK AO2
MJX,KMJX,OCEAN COUNTY,06/24,39.92604166,-74.29553472,2023-12-27T21:43:00Z,5.0,LIFR,KMJX 272143Z AUTO 06005KT 1 1/4SM -RA BR OVC003 09/09 A2995 RMK AO2 P0000
MKA,KMKA,MILLER MUNI,15/33,44.52523888,-98.95807916,2023-12-27T22:00:00Z,3.0,VFR,WMKA 272200Z VRB03KT 9999 FEW030 26/23 Q1011
MKC,KMKC,CHARLES B WHEELER DOWNTOWN,04/22,39.12293555,-94.59282305,2023-12-27T22:00:00Z,8.0,VFR,WMKC 272200Z 09008KT 030V140 9000 -RA FEW010 SCT020 25/24 Q1011
MKE,KMKE,GENERAL MITCHELL INTL,01L/19R,42.94693194,-87.89706444,2023-12-27T22:00:00Z,6.0,VFR,WMKE 272200Z AUTO 09006KT 010V160 //// // ////// 25/25 Q1011
MKG,KMKG,MUSKEGON COUNTY,14/32,43.16767172,-86.23543872,2023-12-27T21:55:00Z,6.0,MVFR,KMKG 272155Z 02006KT 10SM OVC024 08/02 A2995 RMK AO2 SLP145 T00780017
MKJ,KMKJ,MOUNTAIN EMPIRE,08/26,36.89484888,-81.34994611,2023-12-27T22:00:00Z,0.0,MVFR,WMKJ 272200Z 00000KT 7000 FEW008 FEW017CB 25/25 Q1011
MKK,PHMK,MOLOKAI,17/35,21.15288583,-157.0962561,2023-12-27T22:30:00Z,0.0,VFR,WMKK 272230Z 00000KT 9000 FEW008 FEW017CB SCT030 25/24 Q1011 NOSIG
MKL,KMKL,MC KELLAR-SIPES RGNL,02/20,35.59988055,-88.91561194,2023-12-27T22:00:00Z,6.0,VFR,WMKL 272200Z 05006KT 350V110 9999 FEW026 28/22 Q1011
MKN,KMKN,COMANCHE COUNTY-CITY,17/35,31.92030555,-98.59919444,2023-12-27T22:00:00Z,7.0,VFR,WMKN 272200Z 04007KT 360V080 9000 -RA SCT020 27/25 Q1011
MKO,KMKO,MUSKOGEE-DAVIS RGNL,04/22,35.65775,-95.36163888,2023-12-27T21:53:00Z,12.0,VFR,KMKO 272153Z AUTO 32012G19KT 10SM FEW047 06/M04 A3004 RMK AO2 SLP175 T00561044
MKS,KMKS,BERKELEY COUNTY,05/23,33.18483694,-80.03697638,2023-12-27T22:35:00Z,0.0,VFR,KMKS 272235Z AUTO 00000KT 10SM CLR 15/14 A2983 RMK AO2
MKT,KMKT,MANKATO RGNL,15/33,44.22277777,-93.91930555,2023-12-27T21:56:00Z,5.0,VFR,KMKT 272156Z AUTO 35005KT 10SM CLR 02/M04 A3007 RMK AO2 SLP195 T00171039 FZRANO
MKV,KMKV,MARKSVILLE MUNI,04/22,31.09465333,-92.06905861,,,,
MKY,KMKY,MARCO ISLAND EXEC,17/35,25.99502777,-81.67252777,2023-12-27T21:56:00Z,6.0,VFR,KMKY 272156Z AUTO 29006KT 10SM BKN100 20/17 A2995 RMK AO2 SLP142 T02000167 TSNO $
MLB,KMLB,MELBOURNE ORLANDO INTL,09L/27R,28.10275,-80.64525,2023-12-27T21:53:00Z,3.0,VFR,KMLB 272153Z 33003KT 10SM CLR 22/11 A2991 RMK AO2 SLP127 T02220111
MLC,KMLC,MC ALESTER RGNL,02/20,34.88238888,-95.78347222,2023-12-27T21:53:00Z,10.0,VFR,KMLC 272153Z AUTO 34010G16KT 10SM FEW070 FEW085 07/M06 A3003 RMK AO2 SLP171 T00721061
MLD,KMLD,MALAD CITY,08/26,42.17012633,-112.2926793,,,,
MLE,KMLE,MILLARD,12/30,41.19598611,-96.11226472,2023-12-27T22:35:00Z,8.0,VFR,KMLE 272235Z AUTO 34008G14KT 10SM BKN041 01/M03 A3005 RMK AO2 T00051030
MLF,KMLF,MILFORD MUNI/BEN AND JUDY BRISCOE FLD,16/34,38.42663558,-113.013274,2023-12-27T21:52:00Z,8.0,VFR,KMLF 272152Z AUTO 03008KT 10SM CLR 04/M06 A3026 RMK AO2 SLP263 T00391061
MLI,KMLI,QUAD CITIES INTL,13/31,41.44820916,-90.50777,2023-12-27T21:52:00Z,13.0,VFR,KMLI 272152Z 06013G18KT 10SM OVC065 06/00 A2992 RMK AO2 SLP136 T00560000
MLJ,KMLJ,BALDWIN COUNTY RGNL,10/28,33.15422611,-83.24140277,2023-12-27T22:35:00Z,0.0,VFR,KMLJ 272235Z AUTO 00000KT 10SM CLR 16/06 A2986 RMK AO2
MLS,KMLS,FRANK WILEY FLD,13/31,46.42688638,-105.8882253,2023-12-27T21:53:00Z,5.0,VFR,KMLS 272153Z AUTO 15005KT 10SM CLR 02/M04 A3017 RMK AO2 SLP251 T00221039
MLT,KMLT,MILLINOCKET MUNI,16/34,45.64783333,-68.68555555,2023-12-27T22:30:00Z,4.0,VFR,YMLT 272230Z AUTO 07004KT 350V110 9999 // NCD 21/15 Q1008 RF00.0/000.0
MLU,KMLU,MONROE RGNL,14/32,32.51055583,-92.03613361,2023-12-27T21:53:00Z,17.0,VFR,KMLU 272153Z 28017G26KT 10SM CLR 14/01 A2995 RMK AO2 PK WND 30026/2150 SLP140 T01440006
MLY,PAML,MANLEY HOT SPRINGS,18/36,64.98794444,-150.6475833,,,,
MMH,KMMH,MAMMOTH YOSEMITE,09/27,37.62405555,-118.83875,2023-12-27T22:35:00Z,6.0,VFR,KMMH 272235Z AUTO 14006KT 10SM CLR 08/M03 A3015 RMK AO2 T00801030
MMI,KMMI,MCMINN COUNTY,02/20,35.39919444,-84.56177777,2023-12-27T22:35:00Z,3.0,VFR,KMMI 272235Z AUTO VRB03KT 10SM OVC070 11/07 A2987 RMK A01
MMK,KMMK,MERIDEN MARKHAM MUNI,18/36,41.50871472,-72.82947833,2023-12-27T21:53:00Z,0.0,IFR,KMMK 272153Z AUTO 00000KT 8SM OVC006 08/06 A3001 RMK AO2 RAB11E25 SLP163 P0000 T00830061
MML,KMML,SOUTHWEST MINNESOTA RGNL MARSHALL/RYAN FLD,02/20,44.45172222,-95.82441666,2023-12-27T22:30:00Z,9.0,MVFR,YMML 272230Z 21009KT 7000 -DZ SCT005 BKN017 17/16 Q1014 RF00/0/000/4
MMS,KMMS,SELFS,02/20,34.23144444,-90.28955555,2023-12-27T22:30:00Z,14.0,VFR,UMMS 272230Z 31007G12MPS 9999 BKN036 01/M03 Q1015 NOSIG
MMU,KMMU,MORRISTOWN MUNI,13/31,40.79933833,-74.41488861,2023-12-27T22:45:00Z,5.0,IFR,KMMU 272245Z 05005KT 7SM BR OVC007 09/09 A2997
MMV,KMMV,MC MINNVILLE MUNI,04/22,45.19455555,-123.1360556,2023-12-27T21:44:00Z,0.0,VFR,MMMV 272144Z 00000KT 12SM FEW060 SCT200 21/00 A2998 RMK 8/170
MNE,KMNE,MINDEN,01/19,32.64602777,-93.29808333,2023-12-27T22:35:00Z,7.0,VFR,KMNE 272235Z AUTO 27007KT 10SM CLR 10/M01 A3001 RMK AO2
MNF,KMNF,MOUNTAIN VIEW,10/28,36.99283333,-91.71447222,,,,
MNI,KMNI,SANTEE COOPER RGNL,02/20,33.58710055,-80.20867,2023-12-27T22:35:00Z,0.0,VFR,KMNI 272235Z AUTO 00000KT 10SM CLR 15/12 A2983 RMK AO2
MNM,KMNM,MENOMINEE RGNL,14/32,45.12668777,-87.63854277,2023-12-27T22:00:00Z,3.0,VFR,FMNM 272200Z VRB03KT 9999 FEW020TCU 28/26 Q1013
MNN,KMNN,MARION MUNI,13/31,40.61625,-83.06347222,2023-12-27T22:33:00Z,3.0,LIFR,KMNN 272233Z AUTO 35003KT 1 3/4SM BR OVC003 08/07 A2984 RMK AO2 T00780067
MNV,KMNV,MONROE COUNTY,05/23,35.54523194,-84.38040027,2023-12-27T22:35:00Z,5.0,VFR,KMNV 272235Z AUTO 22005KT 10SM OVC070 11/06 A2984 RMK A01
MNZ,KMNZ,HAMILTON MUNI,18/36,31.66592083,-98.14864305,2023-12-27T22:35:00Z,10.0,VFR,KMNZ 272235Z AUTO 34010KT 10SM 12/00 A3007 RMK AO2 T01200003 TSNO
MO1,,RICHLAND MUNI,14/32,37.87488888,-92.40805555,,,,
MO2,,FLYING BAR H RANCH,06/24,37.17515,-93.12893333,,,,
MO3,,STOCKTON MUNI,01/19,37.66027777,-93.81683333,,,,
MO5,,BOLLINGER-CRASS MEML,02/20,37.00938888,-91.00688888,,,,
MO8,,NORTH CENTRAL MISSOURI RGNL,18/36,39.77136111,-93.01277777,,,,
MO9,,KINGSLEY AIRFIELD,18/36,37.2298125,-93.93020833,,,,
MOB,KMOB,MOBILE RGNL,15/33,30.69141666,-88.24283333,2023-12-27T21:56:00Z,7.0,VFR,KMOB 272156Z 20007KT 10SM SCT100 OVC200 14/07 A2995 RMK AO2 SLP141 T01440072
MOD,KMOD,MODESTO CITY-COUNTY-HARRY SHAM FLD,10R/28L,37.62582472,-120.95443,2023-12-27T21:53:00Z,11.0,MVFR,KMOD 272153Z 15011KT 5SM HZ CLR 14/08 A3005 RMK AO2 SLP174 T01390083
MOP,KMOP,MOUNT PLEASANT MUNI,09/27,43.62163888,-84.73730555,2023-12-27T22:35:00Z,5.0,MVFR,KMOP 272235Z AUTO 35005KT 10SM SCT010 OVC015 04/03 A2992 RMK AO2 T00400031
MOR,KMOR,MOORE-MURRELL,05/23,36.17938888,-83.37544444,2023-12-27T22:35:00Z,0.0,VFR,KMOR 272235Z AUTO 00000KT 10SM CLR 10/08 A2981 RMK A01
MOT,KMOT,MINOT INTL,08/26,48.25763888,-101.2780278,2023-12-27T21:54:00Z,5.0,VFR,KMOT 272154Z 27005KT 10SM CLR 04/M06 A3014 RMK AO2 SLP231 T00441061
MOU,PAMO,MOUNTAIN VILLAGE,02/20,62.09477777,-163.6828611,,,,
MOX,KMOX,MORRIS MUNI/CHARLIE SCHMIDT FLD,14/32,45.56518222,-95.96638972,2023-12-27T21:40:00Z,6.0,VFR,MMOX 272140Z 13006KT 10SM SCT025 OVC080 19/10 A3017 RMK 8/42/ OCNL DROPS
MPE,KMPE,PHILADELPHIA MUNI,18/36,32.79921202,-89.12599719,,,,
MPG,KMPG,MARSHALL COUNTY,06/24,39.88083333,-80.73577777,2023-12-27T21:40:00Z,12.0,VFR,MMPG 272140Z 33012KT 10SM SKC 19/M02 A3005
MPI,KMPI,MARIPOSA-YOSEMITE,08/26,37.51086111,-120.0395278,,,,
MPJ,KMPJ,PETIT JEAN PARK,03/21,35.13883333,-92.90919444,,,,
MPO,KMPO,POCONO MOUNTAINS RGNL,13/31,41.13769444,-75.38005555,2023-12-27T22:37:00Z,6.0,LIFR,KMPO 272237Z AUTO 09006KT 1/2SM -RA FG VV002 06/06 A2992 RMK AO2 RAB24 P0000 T00560056
MPR,KMPR,MC PHERSON,18/36,38.35239361,-97.69129833,2023-12-27T21:41:00Z,11.0,VFR,MMPR 272141Z 17011KT 15SM SKC 26/19 A2992 RMK SC ARND
MPV,KMPV,EDWARD F KNAPP STATE,17/35,44.20348916,-72.56209638,2023-12-27T22:46:00Z,0.0,IFR,KMPV 272246Z AUTO 00000KT 1 1/4SM -RA BR FEW003 BKN009 OVC015 04/03 A3005 RMK AO2 RAB09 P0002
MPZ,KMPZ,MOUNT PLEASANT MUNI,03/21,40.94661222,-91.51117055,2023-12-27T22:35:00Z,14.0,MVFR,KMPZ 272235Z AUTO 03014KT 10SM BKN013 OVC022 03/01 A2991 RMK AO2
MQB,KMQB,MACOMB MUNI,18/36,40.52008333,-90.65238888,2023-12-27T22:35:00Z,18.0,VFR,KMQB 272235Z AUTO 08018G21KT 10SM -RA SCT023 BKN040 OVC048 04/00 A2991 RMK AO2 T00350003
MQI,KMQI,DARE COUNTY RGNL,17/35,35.91898277,-75.69553583,2023-12-27T22:30:00Z,7.0,LIFR,KMQI 272230Z AUTO 12007KT 10SM -DZ BKN003 BKN012 OVC032 15/15 A2975 RMK AO2 P0008 T01530150
MQJ,KMQJ,INDIANAPOLIS RGNL,16/34,39.84313777,-85.89773555,2023-12-27T22:35:00Z,7.0,VFR,KMQJ 272235Z AUTO 35007KT 10SM OVC080 06/02 A2988 RMK AO2 T00610024 $
MQS,KMQS,CHESTER COUNTY G O CARLSON,11/29,39.97897222,-75.86547222,2023-12-27T22:35:00Z,6.0,LIFR,KMQS 272235Z AUTO 04006KT 1 3/4SM -RA OVC001 09/09 A2988 RMK AO2
MQW,KMQW,TELFAIR-WHEELER,03/21,32.09699638,-82.87941166,2023-12-27T22:35:00Z,0.0,VFR,KMQW 272235Z AUTO 00000KT 10SM CLR 15/09 A2990 RMK AO2 T01450088
MQY,KMQY,SMYRNA,H1,36.00897027,-86.52008972,2023-12-27T21:56:00Z,4.0,VFR,KMQY 272156Z 10004KT 10SM CLR 11/02 A2985 RMK AO2 SLPNO T01110022
MRB,KMRB,EASTERN WV RGNL/SHEPHERD FLD,08/26,39.40235777,-77.983,2023-12-27T22:38:00Z,7.0,MVFR,KMRB 272238Z 35007KT 4SM -RA BR SCT004 OVC016 09/09 A2982 RMK AO2 P0003 T00890089
MRC,KMRC,MAURY COUNTY RGNL,06/24,35.55433861,-87.17914,2023-12-27T22:20:00Z,7.0,VFR,KMRC 272220Z AUTO 19007KT 10SM SCT065 OVC075 12/M01 A2980 RMK A01
MRF,KMRF,MARFA MUNI,09/27,30.37111111,-104.0175278,2023-12-27T21:56:00Z,4.0,VFR,KMRF 272156Z AUTO 36004KT 10SM CLR 12/M14 A3013 RMK AO2 SLP195 T01221139
MRH,KMRH,MICHAEL J SMITH FLD,03/21,34.73375861,-76.66035472,2023-12-27T22:27:00Z,6.0,IFR,KMRH 272227Z AUTO 10006KT 10SM BKN005 BKN013 OVC017 19/19 A2966 RMK AO2 T01940189
MRI,PAMR,MERRILL FLD,05/23,61.21354638,-149.8447094,,,,
MRJ,KMRJ,IOWA COUNTY,11/29,42.88688,-90.23666583,2023-12-27T22:35:00Z,4.0,VFR,KMRJ 272235Z AUTO 03004KT 10SM CLR 02/M01 A3001 RMK AO2 PWINO
MRN,KMRN,FOOTHILLS RGNL,03/21,35.82022222,-81.61141666,2023-12-27T22:25:00Z,0.0,VFR,KMRN 272225Z AUTO 00000KT 7SM CLR 12/12 A2979 RMK AO2 T01240121
MRT,KMRT,UNION COUNTY,08/26,40.22449972,-83.35163305,2023-12-27T22:35:00Z,5.0,MVFR,KMRT 272235Z AUTO 36005KT 7SM OVC010 07/06 A2985 RMK AO2 T00720055
MRY,KMRY,MONTEREY RGNL,10L/28R,36.58695222,-121.8427831,2023-12-27T21:54:00Z,4.0,VFR,KMRY 272154Z 31004KT 10SM BKN036 17/09 A3007 RMK AO2 SLP195 T01720094
MS9,,EAGLES RIDGE,10/28,34.79643055,-89.91322222,,,,
MSL,KMSL,NORTHWEST ALABAMA RGNL,12/30,34.74530555,-87.61022222,2023-12-27T21:53:00Z,9.0,VFR,KMSL 272153Z AUTO 20009KT 10SM OVC070 14/00 A2983 RMK AO2 SLP102 T01390000
MSN,KMSN,DANE COUNTY RGNL/TRUAX FLD,03/21,43.13987913,-89.33750447,2023-12-27T21:53:00Z,6.0,VFR,KMSN 272153Z 02006KT 10SM BKN090 BKN250 03/M03 A2999 RMK AO2 SLP166 T00331028
MSO,KMSO,MISSOULA MONTANA,12/30,46.91630555,-114.0905556,2023-12-27T21:53:00Z,5.0,VFR,KMSO 272153Z 28005KT 10SM CLR M01/M06 A3015 RMK AO2 SLP252 T10111056
MSP,KMSP,MINNEAPOLIS-ST PAUL INTL/WOLD-CHAMBERLAIN,12L/30R,44.88197222,-93.22177777,2023-12-27T21:53:00Z,3.0,VFR,KMSP 272153Z 34003KT 10SM FEW030 FEW060 BKN130 03/M04 A3007 RMK AO2 SLP190 T00281044
MSS,KMSS,MASSENA INTL-RICHARDS FLD,05/23,44.93624111,-74.84511972,2023-12-27T22:39:00Z,9.0,LIFR,KMSS 272239Z AUTO 06009KT 4SM -RA BR OVC003 03/03 A2999 RMK AO2 P0001 T00330033
MSV,KMSV,SULLIVAN COUNTY INTL,15/33,41.70163888,-74.79502777,,,,
MSY,KMSY,LOUIS ARMSTRONG NEW ORLEANS INTL,02/20,29.99327777,-90.25902777,2023-12-27T21:53:00Z,5.0,VFR,KMSY 272153Z 30005KT 10SM BKN270 16/09 A2996 RMK AO2 SLP147 T01610089
MT3,,KNOX RIDGE,09/27,47.61666666,-108.8480556,,,,
MTH,KMTH,THE FLORIDA KEYS MARATHON INTL,07/25,24.72619444,-81.05136111,2023-12-27T21:53:00Z,5.0,VFR,KMTH 272153Z AUTO 31005KT 10SM CLR A2993 RMK AO2 SLP136 $
MTJ,KMTJ,MONTROSE RGNL,17/35,38.50980555,-107.89425,2023-12-27T21:53:00Z,4.0,VFR,KMTJ 272153Z AUTO 29004KT 10SM CLR 02/M13 A3025 RMK AO2 SLP265 T00171133
MTN,KMTN,MARTIN STATE,15/33,39.32566138,-76.41375611,2023-12-27T22:00:00Z,3.0,VFR,GMTN 272200Z 34003KT 9999 FEW020 10/07 Q1026 NOSIG
MTO,KMTO,COLES COUNTY MEML,18/36,39.47788888,-88.27997222,2023-12-27T21:42:00Z,10.0,VFR,MMTO 272142Z 30010KT 8SM SCT020 BKN070 BKN200 13/05 A3027 RMK 8/578
MTP,KMTP,MONTAUK,06/24,41.07666666,-71.92047222,2023-12-27T21:54:00Z,5.0,VFR,KMTP 272154Z AUTO 06005KT 09/08 A3003 RMK AO1 SLP168 P0001 T00940083
MTV,KMTV,BLUE RIDGE,13/31,36.6307525,-80.01833833,2023-12-27T22:35:00Z,0.0,IFR,KMTV 272235Z AUTO 00000KT 10SM OVC009 13/12 A2981 RMK AO2 T01280115 TSNO
MTW,KMTW,MANITOWOC COUNTY,07/25,44.12877777,-87.68058333,2023-12-27T21:56:00Z,7.0,VFR,KMTW 272156Z AUTO 35007KT 10SM CLR 03/M04 A3003 RMK AO2 SLP177 T00331039
MUE,PHMU,WAIMEA-KOHALA,04/22,20.00132694,-155.6681072,,,,
MUL,KMUL,SPENCE,14/32,31.13768666,-83.70405972,,,,
MUT,KMUT,MUSCATINE MUNI,12/30,41.36788888,-91.14822222,2023-12-27T22:35:00Z,8.0,VFR,KMUT 272235Z AUTO 03008KT 10SM FEW029 SCT044 OVC055 05/04 A2995 RMK AO2
MVC,KMVC,MONROE COUNTY AEROPLEX,03/21,31.45805555,-87.35102777,,,,
MVE,KMVE,MONTEVIDEO-CHIPPEWA COUNTY,14/32,44.96919444,-95.71038888,2023-12-27T22:35:00Z,4.0,MVFR,KMVE 272235Z AUTO 22004KT 3SM -SN BKN021 OVC033 00/M01 A3007 RMK AO2
MVI,KMVI,MONTE VISTA MUNI,10/28,37.52872611,-106.0458978,,,,
MVL,KMVL,MORRISVILLE-STOWE STATE,01/19,44.53436111,-72.614,2023-12-27T22:41:00Z,3.0,MVFR,KMVL 272241Z AUTO 20003KT 3SM BR BKN012 OVC023 04/03 A3002 RMK AO2 T00440033
MVM,KMVM,MACHIAS VALLEY,18/36,44.70309555,-67.47859027,,,,
MVN,KMVN,MOUNT VERNON,H1,38.32336111,-88.8585,2023-12-27T22:47:00Z,6.0,MVFR,KMVN 272247Z AUTO 27006KT 10SM -RA BKN026 OVC033 04/03 A2985 RMK AO2
MVY,KMVY,MARTHA'S VINEYARD,06/24,41.3934175,-70.61387444,2023-12-27T22:41:00Z,4.0,IFR,KMVY 272241Z AUTO 01004KT 1 1/2SM R24/1800V5500FT -RA BR SCT002 SCT020 OVC070 09/08 A3004 RMK AO2 RAB19 P0000 T00890083
MWA,KMWA,VETERANS AIRPORT OF SOUTHERN ILLINOIS,02/20,37.75497222,-89.01108333,2023-12-27T21:47:00Z,5.0,VFR,KMWA 272147Z 25005KT 10SM OVC032 07/03 A2983
MWC,KMWC,LAWRENCE J TIMMERMAN,04R/22L,43.11038,-88.03441833,2023-12-27T21:49:00Z,5.0,VFR,KMWC 272149Z 03005KT 10SM CLR 03/M02 A3001
MWH,KMWH,GRANT COUNTY INTL,18/36,47.20858333,-119.3191389,2023-12-27T21:52:00Z,3.0,VFR,KMWH 272152Z 11003KT 10SM CLR 06/02 A3002 RMK AO2 SLP173 T00610017
MWK,KMWK,MOUNT AIRY/SURRY COUNTY,18/36,36.46136166,-80.55321027,2023-12-27T22:25:00Z,0.0,MVFR,KMWK 272225Z AUTO 00000KT 10SM BKN011 13/13 A2980 RMK AO2 T01300125
MWL,KMWL,MINERAL WELLS RGNL,17/35,32.78160555,-98.060175,2023-12-27T21:53:00Z,12.0,VFR,KMWL 272153Z AUTO 33012G26KT 10SM CLR 11/M01 A3006 RMK AO2 PK WND 31026/2145 SLP180 T01061011
MWM,KMWM,WINDOM MUNI,17/35,43.91341166,-95.1094,2023-12-27T22:35:00Z,3.0,VFR,KMWM 272235Z AUTO 35003KT 10SM BKN070 M01/M04 A3005 RMK AO2
MWO,KMWO,MIDDLETOWN RGNL/HOOK FLD,08/26,39.53175,-84.39644444,2023-12-27T22:35:00Z,3.0,VFR,KMWO 272235Z AUTO 33003KT 10SM CLR 07/00 A2987 RMK AO2 T00710002
MXA,KMXA,MANILA MUNI,18/36,35.89444722,-90.15457055,,,,
MXO,KMXO,MONTICELLO RGNL,15/33,42.22036194,-91.16329833,,,,
MYAB,MYAB,CLARENCE A BAIN,09/27,24.28767777,-77.68443055,,,,
MYAF,MYAF,FRESH CREEK,09/27,24.69792777,-77.79567777,,,,
MYAK,MYAK,CONGO TOWN,10/28,24.15879166,-77.58999722,,,,
MYAM,MYAM,LEONARD M THOMPSON INTL,09/27,26.51012777,-77.08511666,,,,
MYAN,MYAN,SAN ANDROS,12/30,25.05389444,-78.04894166,,,,
MYAP,MYAP,SPRING POINT,13/31,22.44194027,-73.97068611,,,,
MYAS,MYAS,SANDY POINT,10/28,26.00036944,-77.39959166,,,,
MYAT,MYAT,TREASURE CAY,14/32,26.74534166,-77.39127222,,,,
MYBG,MYBG,GREAT HARBOUR CAY,13/31,25.73838333,-77.84028888,,,,
MYBS,MYBS,SOUTH BIMINI,10/28,25.69997777,-79.26513611,,,,
MYCA,MYCA,ARTHURS TOWN,14/32,24.63373888,-75.66610277,,,,
MYCB,MYCB,NEW BIGHT,09/27,24.31533888,-75.45246666,,,,
MYCI,MYCI,COLONEL HILL,09/27,22.75045,-74.14927777,,,,
MYEF,MYEF,EXUMA INTL,12/30,23.56245972,-75.87760138,,,,
MYEH,MYEH,NORTH ELEUTHERA,07/25,25.47563333,-76.68136666,,,,
MYEM,MYEM,GOVERNORS HARBOUR,15/33,25.28470972,-76.33100833,,,,
MYER,MYER,ROCK SOUND,09/27,24.89170277,-76.17777777,,,,
MYES,MYES,STANIEL CAY,17/35,24.16708333,-76.48280833,,,,
MYF,KMYF,MONTGOMERY-GIBBS EXEC,H1,32.81572222,-117.1395556,2023-12-27T21:53:00Z,3.0,VFR,KMYF 272153Z 32003KT 10SM CLR 19/12 A3011 RMK AO2 SLP195 T01890117
MYGF,MYGF,GRAND BAHAMA INTL,06/24,26.55868611,-78.69555277,,,,
MYIG,MYIG,MATTHEW TOWN,10/28,20.975,-73.66685277,,,,
MYJ,KMYJ,MEXICO MEML,18/36,39.15751138,-91.81826416,2023-12-27T22:35:00Z,6.0,IFR,KMYJ 272235Z AUTO 25006KT 1SM -SN OVC005 00/00 A2985 RMK AO2
MYK,,MAY CREEK,13/31,61.33616111,-142.6858861,,,,
MYL,KMYL,MC CALL MUNI,16/34,44.88874416,-116.1017519,2023-12-27T21:51:00Z,0.0,VFR,KMYL 272151Z AUTO 00000KT 10SM FEW080 M02/M02 A3012 RMK AO2 SLP230 T10221022
MYLD,MYLD,DEADMANS CAY,09/27,23.17899861,-75.09364305,,,,
MYLS,MYLS,STELLA MARIS,13/31,23.58304583,-75.26877777,,,,
MYMM,MYMM,MAYAGUANA,06/24,22.38379166,-73.03253611,,,,
MYNN,MYNN,LYNDEN PINDLING INTL,09/27,25.03911444,-77.46636769,,,,
MYR,KMYR,MYRTLE BEACH INTL,18/36,33.67974111,-78.92832138,2023-12-27T21:56:00Z,11.0,MVFR,KMYR 272156Z 29011KT 10SM BKN021 OVC026 18/16 A2978 RMK AO2 SLP085 T01780161
MYRP,MYRP,NEW PORT NELSON,09/27,23.68348333,-74.83617222,,,,
MYSM,MYSM,SAN SALVADOR INTL,10/28,24.06312777,-74.52365,,,,
MYU,PAMY,MEKORYUK,06/24,60.37238888,-166.2701944,,,,
MYV,KMYV,YUBA COUNTY,05/23,39.09777777,-121.5698333,2023-12-27T22:10:00Z,5.0,IFR,KMYV 272210Z AUTO 14005KT 1 1/4SM RA BR FEW016 BKN026 OVC036 12/10 A3006 RMK AO2 P0004 T01220100
MYZ,KMYZ,MARYSVILLE MUNI,H1,39.85642916,-96.6307125,2023-12-27T22:35:00Z,13.0,VFR,KMYZ 272235Z AUTO 34013KT 10SM SCT021 OVC038 00/M02 A3005 RMK AO2
MZH,KMZH,MOOSE LAKE CARLTON COUNTY,04/22,46.41861111,-92.80477777,2023-12-27T22:35:00Z,0.0,IFR,KMZH 272235Z AUTO 00000KT 7SM BKN009 OVC013 01/00 A3008 RMK AO2
MZJ,KMZJ,PINAL AIRPARK,12/30,32.50983333,-111.3253333,2023-12-27T22:35:00Z,5.0,VFR,KMZJ 272235Z AUTO 31005KT 10SM 15/M00 A3015 RMK AO2
MZZ,KMZZ,MARION MUNI - MCKINNEY FLD,04/22,40.48991666,-85.67977777,2023-12-27T22:35:00Z,3.0,VFR,KMZZ 272235Z AUTO 35003KT 10SM CLR 06/03 A2988 RMK AO2 T00560029
N03,,CORTLAND COUNTY/CHASE FLD,06/24,42.59264166,-76.21488277,2023-12-27T22:35:00Z,3.0,IFR,KN03 272235Z AUTO 06003KT 10SM -RA OVC009 08/08 A2989 RMK AO2
N05,,HACKETTSTOWN,05/23,40.82009916,-74.85516722,,,,
N06,,LAUREL,15/33,38.54218444,-75.59435166,,,,
N07,,LINCOLN PARK,01/19,40.94762805,-74.31451111,,,,
N08,,FLANAGAN FLD,03/21,35.55666666,-77.56055555,,,,
N12,,LAKEWOOD,06/24,40.06688888,-74.17755555,,,,
N13,,BLOOMSBURG MUNI,09/27,40.99765055,-76.43524636,,,,
N14,,FLYING W,01/19,39.93427777,-74.80722222,,,,
N15,,KINGSTON,H1,39.20266525,-117.0689344,,,,
N16,,CENTRE AIRPARK,06/24,40.81173111,-77.65721944,,,,
N17,,VAUGHN MUNI,09/27,34.60458027,-105.1918219,,,,
N18,,TINAK,05/23,7.13333333,171.9166667,,,,
N19,,AZTEC MUNI,08/26,36.83694927,-108.0286564,,,,
N20,,INE,08/26,7.01666666,171.4833333,,,,
N22,,SKY MANOR,08/26,34.71085277,-77.58498611,,,,
N23,,SIDNEY MUNI,07/25,42.30258333,-75.41597222,,,,
N24,,QUESTA MUNI NR 2,17/35,36.80030555,-105.5975,,,,
N25,,BLUE HERON,09/27,42.69729777,-74.19957416,,,,
N26,,DERBY AERODROME,05/23,35.13388888,-79.63,,,,
N27,,BRADFORD COUNTY,05/23,41.74,-76.44713888,,,,
N29,,MAGDALENA,02/20,34.09452958,-107.2969176,,,,
N30,,CHERRY RIDGE,18/36,41.51559166,-75.25155972,,,,
N35,,PUNXSUTAWNEY MUNI,06/24,40.96683666,-78.92990444,,,,
N36,,WOTJE,13/31,9.46666666,170.2333333,,,,
N38,,GRAND CANYON RGNL,11/29,41.72798938,-77.39543752,2023-12-27T22:35:00Z,7.0,MVFR,KN38 272235Z AUTO 17007KT 4SM -RA BKN032 BKN038 OVC050 08/08 A2987 RMK AO2
N40,,SKY MANOR,07/25,40.56588222,-74.97930805,,,,
N41,,WATERBURY,02/20,41.63343027,-73.04677388,,,,
N43,,BRADEN AIRPARK,18/36,40.74216666,-75.24294444,,,,
N45,,KOBELT,03/21,41.62416666,-74.14166666,,,,
N47,,POTTSTOWN MUNI,08/26,40.26041666,-75.67083333,,,,
N51,,SOLBERG/HUNTERDON,13/31,40.58274444,-74.73671666,,,,
N52,,JAARS-TOWNSEND,04/22,34.86381666,-80.74798333,,,,
N55,,JALUIT,03/21,5.90666666,169.6416667,,,,
N56,,GREAT VALLEY,06/24,42.20506388,-78.64725055,,,,
N57,,NEW GARDEN,06/24,39.8305125,-75.76975361,,,,
N58,,SAMSARG FLD,05/23,39.55979408,-119.2426565,,,,
N59,,ROSASCHI AIR PARK,07/25,38.83935694,-119.3382144,,,,
N61,,HINSHAW (GREENACRES),03/21,35.87374805,-79.52752222,,,,
N63,,MEADOW BROOK FLD,16/34,36.30152611,-80.14837916,,,,
N66,,ALBERT S NADER RGNL,06/24,42.52477777,-75.06447222,,,,
N68,,FRANKLIN COUNTY RGNL,06/24,39.97296169,-77.64325627,,,,
N69,,STORMVILLE,06/24,41.57697083,-73.73235138,,,,
N71,,DONEGAL SPRINGS AIRPARK,10/28,40.09220666,-76.57435527,,,,
N72,,WARWICK MUNI,08/26,41.28759361,-74.28709472,,,,
N74,,PENNS CAVE,07/25,40.88993611,-77.60313555,,,,
N79,,NORTHUMBERLAND COUNTY,08/26,40.83691666,-76.55244444,2023-12-27T22:35:00Z,7.0,VFR,KN79 272235Z AUTO 12007KT 080V160 9SM -RA FEW070 10/10 A2986 RMK AO2 P0003 T00990097
N81,,HAMMONTON MUNI,03/21,39.66747222,-74.75772222,,,,
N82,,WURTSBORO/SULLIVAN COUNTY,05/23,41.59790166,-74.45915916,,,,
N83,,DS BUTLER FARM AND AIRFIELD,01/19,36.19513611,-80.00531694,,,,
N85,,ALEXANDRIA,08/26,40.58757388,-75.01942055,,,,
N87,,TRENTON-ROBBINSVILLE,11/29,40.21394444,-74.60177777,,,,
N88,,KECKS,05/23,35.926525,-79.627525,,,,
N89,,JOSEPH Y RESNICK,04/22,41.72888583,-74.37682388,,,,
N92,,LANEYS,13/31,35.57430027,-81.11730111,,,,
N94,,CARLISLE,10/28,40.18791444,-77.17427361,,,,
N96,,BELLEFONTE,07/25,40.8855,-77.81622222,,,,
N97,,HIATT,09/27,35.83013666,-80.10754472,,,,
N98,,BOYNE CITY MUNI,09/27,45.20881344,-84.98988555,,,,
NC2,,TAYLORSVILLE,08/26,35.93083333,-81.19666666,,,,
NEW,KNEW,LAKEFRONT,18L/36R,30.04241666,-90.02825,2023-12-27T21:53:00Z,0.0,VFR,KNEW 272153Z 00000KT 10SM CLR 15/09 A2996 RMK AO2 SLP140 T01500089
NIN,,NINILCHIK,10/28,60.02023416,-151.5894186,,,,
NM2,,CUBA LANDING STRIP,06/24,35.95177222,-106.957525,,,,
NQA,KNQA,MILLINGTON/MEMPHIS,04/22,35.35663916,-89.87043027,2023-12-27T22:20:00Z,29.0,MVFR,ENQA 272220Z AUTO 09029KT 6000 -SN OVC019/// M00/M05 Q0995 W03/S5
NRN,KNRN,NORTON MUNI,08/26,39.85047222,-99.89469444,2023-12-27T22:35:00Z,12.0,MVFR,KNRN 272235Z AUTO 35012KT 5SM BR SCT027 OVC039 01/00 A3010 RMK AO2
NUL,PANU,NULATO,03/21,64.72933333,-158.0742222,,,,
NVD,KNVD,NEVADA MUNI,13/31,37.85247669,-94.30460775,2023-12-27T22:20:00Z,16.0,MVFR,ENVD 272220Z 28016KT 7000 -SN VV019 M04/M05 Q0997
NY0,,FULTON COUNTY,10/28,42.99819444,-74.32955472,,,,
NY1,,KLINE KILL,01/19,42.350085,-73.63706305,,,,
NYL,KNYL,YUMA MCAS/YUMA INTL,08/26,32.65657388,-114.6059872,,,,
O02,,NERVINO,08/26,39.81852777,-120.3528056,,,,
O03,,MORGANTOWN,10/28,40.15704138,-75.87048916,,,,
O05,,ROGERS FLD,16/34,40.28236111,-121.2411667,2023-12-27T22:35:00Z,0.0,IFR,KO05 272235Z AUTO 00000KT 4SM BR BKN008 OVC013 01/00 A3010 RMK A01
O08,,COLUSA COUNTY,13/31,39.179,-121.9933333,,,,
O09,,ROUND VALLEY,10/28,39.7905,-123.2663333,,,,
O13,,HADDOCK FLD,17/35,35.20075,-99.88105555,,,,
O14,,SKYROADS,17/35,34.89038888,-97.99819444,,,,
O15,,TURLOCK MUNI,12/30,37.48402777,-120.6973333,,,,
O16,,GARBERVILLE,18/36,40.08543972,-123.8141469,,,,
O18,,BUZZARDS ROOST,17/35,36.14398694,-95.41774861,,,,
O19,,KNEELAND,15/33,40.71895194,-123.9272169,,,,
O20,,KINGDON AIRPARK,12/30,38.09158638,-121.3593931,,,,
O21,,HOOPA,14/32,41.04147222,-123.6678056,,,,
O22,,COLUMBIA,17/35,38.03041666,-120.4145556,2023-12-27T22:35:00Z,4.0,VFR,KO22 272235Z AUTO 15004G10KT 10SM CLR 17/04 A3006 RMK A01
O24,,LEE VINING,15/33,37.95773863,-119.1058112,,,,
O26,,LONE PINE/DEATH VALLEY,H1,36.58869444,-118.0493889,,,,
O27,,OAKDALE,10/28,37.75634361,-120.8002083,,,,
O28,,ELLS FLD/WILLITS MUNI,16/34,39.45132888,-123.3723308,,,,
O29,,PITTSBURG LANDING,16/34,45.62948897,-116.4749747,,,,
O32,,REEDLEY MUNI,16/34,36.671,-119.4510278,2023-12-27T22:35:00Z,3.0,VFR,KO32 272235Z AUTO 27003KT 10SM CLR 18/10 A3009 RMK AO2 T01780098 $
O33,,SAMOA FLD,16/34,40.78086111,-124.2122778,,,,
O35,,HOLLIS MUNI,18/36,34.70530527,-99.90856472,,,,
O37,,HAIGH FLD,15/33,39.72038888,-122.1463611,,,,
O38,,GUNDYS,17R/35L,36.26676277,-95.78359638,,,,
O39,,RAVENDALE,17/35,40.80370277,-120.3662083,,,,
O41,,WATTS-WOODLAND,18/36,38.67387638,-121.8720772,,,,
O42,,WOODLAKE,07/25,36.39877777,-119.1068056,,,,
O43,,YERINGTON MUNI,02/20,39.00540194,-119.1565422,,,,
O44,,MC CASLIN,17/35,35.09229277,-97.33641777,,,,
O45,,HOOKER MUNI,17/35,36.85708305,-101.2270917,,,,
O46,,WEED,14/32,41.48080555,-122.4545278,,,,
O47,,PRAGUE MUNI,17/35,35.48077777,-96.71875,,,,
O48,,SALMOM BAR,14/32,45.8602625,-116.7978167,,,,
O52,,SUTTER COUNTY,17/35,39.12366666,-121.6053611,,,,
O53,,MEDFORD MUNI,17/35,36.79058416,-97.74899722,,,,
O54,,LONNIE POOL FLD/WEAVERVILLE,18/36,40.747225,-122.9223653,2023-12-27T22:35:00Z,0.0,MVFR,KO54 272235Z AUTO 00000KT 4SM BR BKN022 OVC033 07/06 A3002 RMK A01
O55,,SOUTHARD FLD,04/22,41.13954027,-121.12405,,,,
O57,,BRYANT FLD,16/34,38.26465363,-119.2227311,,,,
O59,,CEDARVILLE,02/20,41.55361111,-120.1656111,,,,
O60,,CLOVERDALE MUNI,14/32,38.77627777,-122.9926111,,,,
O61,,CAMERON PARK,13/31,38.684,-120.9875278,,,,
O62,,B & H USFS,04/22,45.72411666,-117.077375,,,,
O65,,CHRISTMAN AIRFIELD,17/35,36.11253666,-98.3086825,,,,
O68,,SLUICE CREEK,03/21,45.44757916,-116.5849694,,,,
O69,,PETALUMA MUNI,11/29,38.25779333,-122.6053236,2023-12-27T22:35:00Z,4.0,IFR,KO69 272235Z AUTO 11004KT 2 1/2SM BR BKN005 BKN017 BKN022 12/12 A3003 RMK A01
O74,,ELLIOTTS LANDING,15/33,40.52472222,-83.51166666,,,,
O79,,SIERRAVILLE DEARWATER,03/21,39.58166666,-120.3540278,,,,
O81,,TULELAKE MUNI,11/29,41.89063888,-121.3606667,,,,
O85,,BENTON FLD,16/34,40.57367972,-122.4073356,,,,
O86,,TRINITY CENTER,14/32,40.98275,-122.6937222,2023-12-27T22:35:00Z,0.0,IFR,KO86 272235Z AUTO 00000KT 2 1/2SM BR FEW005 OVC024 04/04 A3004 RMK A01
O88,,RIO VISTA MUNI,15/33,38.19338888,-121.7036389,,,,
O89,,FALL RIVER MILLS,02/20,41.01736111,-121.4349722,,,,
OAJ,KOAJ,ALBERT J ELLIS,05/23,34.82916666,-77.61213888,2023-12-27T22:46:00Z,3.0,MVFR,KOAJ 272246Z VRB03KT 6SM -RA BR SCT003 BKN012 OVC018 18/18 A2974 RMK AO2 P0001
OAK,KOAK,METRO OAKLAND INTL,10R/28L,37.72126138,-122.2211506,2023-12-27T21:53:00Z,15.0,MVFR,KOAK 272153Z 15015G29KT 9SM OVC029 15/11 A3003 RMK AO2 PK WND 13029/2145 RAE15 SLP169 P0000 T01500111
OAR,KOAR,MARINA MUNI,11/29,36.68152777,-121.7616667,2023-12-27T22:35:00Z,8.0,VFR,KOAR 272235Z AUTO 12008KT 10SM BKN040 OVC047 16/10 A3007 RMK AO2 PWINO
OBE,KOBE,OKEECHOBEE COUNTY,14/32,27.26657361,-80.85039111,2023-12-27T22:35:00Z,0.0,VFR,KOBE 272235Z AUTO 00000KT 10SM FEW120 20/13 A2991 RMK AO2
OBI,KOBI,WOODBINE MUNI,01/19,39.21913888,-74.79475,,,,
OBU,PAOB,KOBUK,09/27,66.91233333,-156.8973333,,,,
OCF,KOCF,OCALA INTL-JIM TAYLOR FLD,18/36,29.17187677,-82.22411463,2023-12-27T21:51:00Z,0.0,VFR,KOCF 272151Z 00000KT 10SM FEW120 17/12 A2994 RMK AO2 SLP140 T01670117 $
OCH,KOCH,NACOGDOCHES A L MANGHAM JR RGNL,18/36,31.57776388,-94.71011111,2023-12-27T21:56:00Z,7.0,VFR,KOCH 272156Z AUTO 29007KT 10SM CLR 13/01 A3001 RMK AO2 SLP166 T01330011
OCQ,KOCQ,OCONTO/J DOUGLAS BAKE MUNI,11/29,44.87405558,-87.9097705,2023-12-27T22:35:00Z,0.0,VFR,KOCQ 272235Z AUTO 00000KT 10SM CLR 00/M04 A3004 RMK AO1 T00001037
OCW,KOCW,WASHINGTON-WARREN,05/23,35.57047222,-77.04980555,2023-12-27T22:25:00Z,3.0,VFR,KOCW 272225Z AUTO 36003KT 10SM SCT012 OVC050 17/16 A2973 RMK AO2 T01680159
ODO,KODO,ODESSA-SCHLEMEYER FLD,11/29,31.92141516,-102.3871329,2023-12-27T21:53:00Z,9.0,VFR,KODO 272153Z AUTO 33009KT 10SM CLR 13/M01 A3010 RMK AO2 SLP181 T01331006
ODX,KODX,EVELYN SHARP FLD,13/31,41.62369444,-98.95186111,2023-12-27T22:20:00Z,7.0,MVFR,KODX 272220Z AUTO 35007KT 10SM OVC014 M01/M04 A3008 RMK AO2 T10111039
OEB,KOEB,BRANCH COUNTY MEML,16/34,41.93348888,-85.05230833,2023-12-27T22:35:00Z,5.0,LIFR,KOEB 272235Z AUTO 34005KT 4SM BR OVC003 04/03 A2990 RMK AO2 T00430033
OEL,KOEL,OAKLEY MUNI,16/34,39.11175,-100.81675,2023-12-27T22:35:00Z,12.0,IFR,KOEL 272235Z AUTO 01012G17KT 5SM BR OVC009 00/00 A3006 RMK AO1 T00011005
OEO,KOEO,L O SIMENSTAD MUNI,10/28,45.30934305,-92.6901228,2023-12-27T22:35:00Z,0.0,VFR,KOEO 272235Z AUTO 00000KT 10SM CLR 00/M01 A3011 RMK AO2 T10031015
OFK,KOFK,NORFOLK RGNL/KARL STEFAN MEML FLD,14/32,41.98546027,-97.43511388,2023-12-27T21:56:00Z,10.0,VFR,KOFK 272156Z AUTO 34010KT 10SM OVC040 M01/M05 A3007 RMK AO2 SLP201 T10061050
OFP,KOFP,HANOVER COUNTY MUNI,16/34,37.70894444,-77.43663888,2023-12-27T22:29:00Z,3.0,LIFR,KOFP 272229Z AUTO VRB03KT 5SM BR OVC004 15/15 A2976 RMK AO2 RAE22 P0000 T01500150
OGA,KOGA,SEARLE FLD,08/26,41.11947222,-101.7696944,2023-12-27T22:35:00Z,17.0,VFR,KOGA 272235Z AUTO 35017G23KT 10SM BKN040 OVC047 01/M04 A3010 RMK AO2 T00111038
OGB,KOGB,ORANGEBURG MUNI,17/35,33.4569178,-80.85940666,2023-12-27T21:53:00Z,6.0,VFR,KOGB 272153Z AUTO 25006KT 10SM CLR 17/12 A2982 RMK AO2 SLP095 T01720122
OGD,KOGD,OGDEN-HINCKLEY,03/21,41.19507036,-112.0121947,2023-12-27T21:53:00Z,0.0,VFR,KOGD 272153Z 00000KT 10SM CLR 04/M05 A3030 RMK AO2 SLP265 T00391050
OGG,PHOG,KAHULUI,05/23,20.89864861,-156.4304586,2023-12-27T22:00:00Z,4.0,VFR,GOGG 272200Z 24004KT CAVOK 22/18 Q1013
OGM,KOGM,ONTONAGON COUNTY - SCHUSTER FLD,17/35,46.84547027,-89.36709166,,,,
OGS,KOGS,OGDENSBURG INTL,09/27,44.68225,-75.46325,2023-12-27T22:35:00Z,5.0,LIFR,KOGS 272235Z AUTO 05005KT 2 1/2SM BR OVC003 04/04 A2993 RMK AO2
OIC,KOIC,LT WARREN EATON,01/19,42.56655555,-75.52411111,2023-12-27T22:35:00Z,0.0,MVFR,KOIC 272235Z AUTO 00000KT 10SM OVC018 08/08 A2994 RMK AO2 T00830078
OIN,KOIN,OBERLIN MUNI,12/30,39.83438444,-100.5398342,2023-12-27T22:35:00Z,11.0,MVFR,KOIN 272235Z AUTO 35011KT 10SM SCT008 BKN022 OVC050 01/01 A3012 RMK AO1 T00050005
OJA,KOJA,WEATHERFORD STAFFORD,17/35,35.54580555,-98.6685,2023-12-27T22:35:00Z,11.0,VFR,KOJA 272235Z AUTO 34011KT 10SM OVC038 05/M02 A3008 RMK AO2 T00511023
OJC,KOJC,JOHNSON COUNTY EXEC,18/36,38.84759777,-94.73758388,2023-12-27T21:53:00Z,12.0,MVFR,KOJC 272153Z 32012KT 10SM OVC010 01/M01 A2993 RMK AO2 SLP145 T00111006
OKB,KOKB,BOB MAXWELL MEML AIRFIELD,07/25,33.21797638,-117.3515075,2023-12-27T21:50:00Z,5.0,MVFR,OOKB 272150Z AUTO 19005KT 8000 NCD 22/14 Q1018 NOSIG
OKC,KOKC,WILL ROGERS WORLD,18/36,35.39307402,-97.60076172,2023-12-27T21:52:00Z,15.0,VFR,KOKC 272152Z 33015KT 10SM SCT035 04/M05 A3006 RMK AO2 SLP183 T00441050
OKH,KOKH,DELAURENTIS,07/25,48.25152777,-122.6736667,,,,
OKK,KOKK,KOKOMO MUNI,05/23,40.52766666,-86.05975,2023-12-27T21:56:00Z,4.0,VFR,KOKK 272156Z AUTO 33004KT 10SM SCT100 OVC110 07/03 A2989 RMK AO2 SLP128 T00670028
OKM,KOKM,OKMULGEE RGNL/PAUL AND BETTY ABBOTT FLD,18/36,35.66811111,-95.94852777,2023-12-27T22:35:00Z,7.0,VFR,KOKM 272235Z AUTO 32007G14KT 10SM SCT044 05/M05 A3005 RMK AO2 T00511050
OKS,KOKS,GARDEN COUNTY/KING RHILEY FLD,12/30,41.40191108,-102.3563516,,,,
OKV,KOKV,WINCHESTER RGNL,14/32,39.14352777,-78.14444444,2023-12-27T22:35:00Z,4.0,MVFR,KOKV 272235Z AUTO 36004KT 3SM DZ SCT004 BKN017 OVC027 08/08 A2981 RMK AO2
OKZ,KOKZ,KAOLIN FLD,13/31,32.96637472,-82.83748861,2023-12-27T22:35:00Z,4.0,VFR,KOKZ 272235Z AUTO 23004KT 10SM CLR 16/05 A2987 RMK AO2 T01580051
OLD,KOLD,DEWITT FLD/OLD TOWN MUNI,17W/35W,44.952335,-68.67449555,,,,
OLE,KOLE,CATTARAUGUS COUNTY-OLEAN,16/34,42.24119444,-78.37136111,2023-12-27T22:35:00Z,8.0,VFR,KOLE 272235Z AUTO 12008KT 10SM -RA SCT009 SCT047 OVC050 A2983 RMK AO2
OLF,KOLF,L M CLAYTON,11/29,48.0945,-105.5750556,2023-12-27T21:53:00Z,8.0,VFR,KOLF 272153Z AUTO 24008KT 10SM CLR 03/M04 A3017 RMK AO2 SLP249 T00331044
OLG,KOLG,SOLON SPRINGS MUNI,H1,46.31475083,-91.81637583,2023-12-27T22:35:00Z,0.0,VFR,KOLG 272235Z AUTO 00000KT 7SM SCT021 OVC040 00/00 A3009 RMK AO1
OLM,KOLM,OLYMPIA RGNL,08/26,46.96940444,-122.9025447,2023-12-27T21:54:00Z,0.0,VFR,KOLM 272154Z 00000KT 10SM -RA OVC070 11/07 A2979 RMK AO2 RAB36 SLP087 P0000 T01110067
OLS,KOLS,NOGALES INTL,H1,31.41772222,-110.8478889,2023-12-27T21:54:00Z,8.0,VFR,KOLS 272154Z AUTO 27008KT 10SM CLR 17/M11 A3012 RMK AO2 SLP178 T01721111 $
OLU,KOLU,COLUMBUS MUNI,02/20,41.44872222,-97.34094444,2023-12-27T21:56:00Z,10.0,VFR,KOLU 272156Z AUTO 33010KT 10SM OVC049 M01/M04 A3009 RMK AO2 SLP210 T10111039 FZRANO
OLV,KOLV,OLIVE BRANCH/TAYLOR FLD,18/36,34.97875,-89.78686111,2023-12-27T21:55:00Z,13.0,VFR,KOLV 272155Z 26013G21KT 10SM OVC045 09/M01 A2988
OLY,KOLY,OLNEY-NOBLE,04/22,38.72182722,-88.17643277,2023-12-27T22:35:00Z,5.0,VFR,KOLY 272235Z AUTO 08005KT 10SM OVC055 07/01 A2985 RMK AO2 T00670008
OLZ,KOLZ,OELWEIN MUNI,18/36,42.6809245,-91.97439538,2023-12-27T22:35:00Z,7.0,VFR,KOLZ 272235Z AUTO 02007KT 10SM OVC055 02/01 A3000 RMK A01
OMA,KOMA,EPPLEY AIRFIELD,18/36,41.30316666,-95.89405555,2023-12-27T21:52:00Z,13.0,VFR,KOMA 272152Z 35013KT 10SM SCT022 OVC040 01/M02 A3004 RMK AO2 SLP183 T00061022
OME,PAOM,NOME,03/21,64.512555,-165.4443939,,,,
OMH,KOMH,ORANGE COUNTY,08/26,38.24720277,-78.04562111,2023-12-27T22:35:00Z,0.0,LIFR,KOMH 272235Z AUTO 00000KT 4SM +RA BKN003 OVC010 10/10 A2980 RMK AO2 P0002
OMK,KOMK,OMAK,17/35,48.46441222,-119.5180514,2023-12-27T22:26:00Z,0.0,VFR,KOMK 272226Z AUTO 00000KT 6SM BR SCT003 BKN110 03/01 A3004 RMK AO2 T00280011
OMN,KOMN,ORMOND BEACH MUNI,17/35,29.30113888,-81.11380555,2023-12-27T21:50:00Z,5.0,VFR,KOMN 272150Z 27005KT 7SM CLR 18/12 A2992
ONA,KONA,WINONA MUNI-MAX CONRAD FLD,12/30,44.07960988,-91.71162988,2023-12-27T22:35:00Z,0.0,MVFR,KONA 272235Z AUTO 00000KT 10SM BKN030 01/M01 A3007 RMK AO2
ONL,KONL,THE O'NEILL MUNI-JOHN L BAKER FLD,04/22,42.46936111,-98.68777777,2023-12-27T22:35:00Z,3.0,VFR,KONL 272235Z AUTO 33003KT 10SM OVC055 M01/M03 A3009 RMK AO2 T10151030
ONM,KONM,SOCORRO MUNI,06/24,34.02247222,-106.9031389,2023-12-27T22:35:00Z,6.0,VFR,KONM 272235Z AUTO 36006KT 10SM CLR 10/M13 A3015 RMK AO2 T00981127
ONO,KONO,ONTARIO MUNI,15/33,44.01936111,-117.0130278,2023-12-27T21:53:00Z,5.0,VFR,KONO 272153Z AUTO 07005KT 10SM CLR 04/M02 A3023 RMK AO2 SLP255 T00391017
ONP,KONP,NEWPORT MUNI,16/34,44.58036111,-124.0579167,2023-12-27T22:35:00Z,11.0,VFR,KONP 272235Z AUTO 16011G20KT 7SM RA SCT036 BKN048 OVC085 12/10 A2978 RMK AO2 P0001
ONT,KONT,ONTARIO INTL,08L/26R,34.05601416,-117.6011875,2023-12-27T21:53:00Z,0.0,VFR,KONT 272153Z 00000KT 10SM BKN230 OVC260 19/03 A3011 RMK AO2 SLP190 T01940033 $
ONX,KONX,CURRITUCK COUNTY RGNL,05/23,36.39994111,-76.01542527,2023-12-27T22:25:00Z,6.0,IFR,KONX 272225Z AUTO 13006KT 10SM OVC005 16/16 A2973 RMK AO2 T01590155
ONY,KONY,OLNEY MUNI,04/22,33.35088888,-98.81916666,,,,
ONZ,KONZ,GROSSE ILE MUNI,17/35,42.09907861,-83.16146861,2023-12-27T22:35:00Z,5.0,LIFR,KONZ 272235Z AUTO 34005KT 4SM UP BKN004 BKN010 OVC046 08/05 A2984 RMK AO2 T00760050
OOA,KOOA,OSKALOOSA MUNI,13/31,41.22611111,-92.49383333,2023-12-27T22:35:00Z,9.0,MVFR,KOOA 272235Z AUTO 06009KT 5SM SCT006 SCT032 02/02 A2994 RMK AO2 P0001 T00230020
OOK,PAOO,TOKSOOK BAY,16/34,60.54133638,-165.0871839,2023-12-27T22:00:00Z,4.0,VFR,GOOK 272200Z 04004KT CAVOK 28/05 Q1012
OPF,KOPF,MIAMI-OPA LOCKA EXEC,09L/27R,25.90741666,-80.27822222,2023-12-27T21:53:00Z,5.0,VFR,KOPF 272153Z 30005KT 10SM CLR 23/15 A2992 RMK AO2 SLP134 T02330150 $
OPL,KOPL,ST LANDRY PARISH,06/24,30.55839972,-92.09937611,2023-12-27T22:35:00Z,3.0,VFR,KOPL 272235Z AUTO 23003KT 10SM CLR 16/05 A2996 RMK AO2 T01550054
OPN,KOPN,THOMASTON-UPSON COUNTY,12/30,32.95500255,-84.26408619,2023-12-27T22:35:00Z,5.0,VFR,KOPN 272235Z AUTO 25005KT 10SM CLR 15/00 A2990 RMK AO2
OQN,KOQN,BRANDYWINE RGNL,09/27,39.99011722,-75.58190194,2023-12-27T22:35:00Z,9.0,LIFR,KOQN 272235Z AUTO 08009G14KT 5SM -RA OVC003 09/09 A2988 RMK AO2 P0001
OQU,KOQU,QUONSET STATE,05/23,41.59713888,-71.41213888,2023-12-27T21:50:00Z,0.0,LIFR,KOQU 272150Z 00000KT 1/4SM FG VV002 10/08 A3005
OQW,KOQW,MAQUOKETA MUNI,15/33,42.05008333,-90.73880555,,,,
OR8,,DUG BAR USFS,15/33,45.80583333,-116.6886889,,,,
OR9,,LORD FLAT USFS,01/19,45.66646111,-116.6183583,,,,
ORB,KORB,ORR RGNL,13/31,48.01591666,-92.85605555,2023-12-27T22:33:00Z,0.0,MVFR,KORB 272233Z AUTO 00000KT 10SM OVC013 01/01 A3007 RMK AO2
ORD,KORD,CHICAGO O'HARE INTL,10L/28R,41.97694027,-87.90814972,2023-12-27T21:51:00Z,15.0,VFR,KORD 272151Z 02015KT 10SM FEW021 SCT065 BKN090 BKN170 BKN250 04/00 A2995 RMK AO2 SLP147 T00440000
ORE,KORE,ORANGE MUNI,01/19,42.5699975,-72.28849777,2023-12-27T22:40:00Z,0.0,LIFR,KORE 272240Z AUTO 00000KT 1/2SM FG SCT003 OVC060 07/06 A3003 RMK AO2 T00670061
ORF,KORF,NORFOLK INTL,14/32,36.89460416,-76.20122916,2023-12-27T22:34:00Z,5.0,MVFR,KORF 272234Z 13005KT 10SM SCT010 OVC017 16/14 A2976 RMK AO2 T01560139
ORG,KORG,ORANGE COUNTY,13/31,30.06845161,-93.80402022,2023-12-27T22:35:00Z,5.0,VFR,KORG 272235Z AUTO 32005KT 10SM CLR 18/M03 A3000 RMK AO2 T01831032
ORH,KORH,WORCESTER RGNL,15/33,42.26713888,-71.87561111,2023-12-27T21:54:00Z,3.0,VFR,KORH 272154Z 11003KT 10SM OVC070 11/06 A3003 RMK AO2 RAB31E48 SLP173 P0000 T01060056
ORI,,PORT LIONS,07/25,57.884925,-152.8475722,,,,
ORK,KORK,NORTH LITTLE ROCK MUNI,17/35,34.83313888,-92.25413888,2023-12-27T22:00:00Z,16.0,MVFR,RORK 272200Z AUTO 05016KT 8000 SCT005 SCT009 BKN011 19/18 Q1023
ORL,KORL,EXEC,13/31,28.54546166,-81.33293,2023-12-27T21:53:00Z,6.0,VFR,KORL 272153Z 29006KT 10SM CLR 20/09 A2993 RMK AO2 SLP140 T02000089
ORS,KORS,ORCAS ISLAND,16/34,48.70833722,-122.9105953,2023-12-27T22:00:00Z,10.0,MVFR,RORS 272200Z AUTO 09010KT 9999 -RA FEW013 SCT023 BKN029 21/19 Q1021
ORT,PAOR,NORTHWAY,05/23,62.96116666,-141.9280833,2023-12-27T22:00:00Z,5.0,VFR,RORT 272200Z AUTO 07005KT 010V130 9999 -RA SCT012 SCT025 BKN032 21/20 Q1021
OSA,KOSA,MOUNT PLEASANT RGNL,17/35,33.09688888,-94.96175,2023-12-27T21:50:00Z,2.0,VFR,OOSA 272150Z VRB02KT CAVOK 22/12 Q1017 NOSIG
OSC,KOSC,OSCODA/WURTSMITH,07/25,44.45152777,-83.39416666,2023-12-27T22:35:00Z,8.0,LIFR,KOSC 272235Z AUTO 34008KT 4SM RA OVC003 05/05 A2993 RMK AO2 P0002 T00520048
OSH,KOSH,WITTMAN RGNL,13/31,43.98437083,-88.5570425,2023-12-27T21:50:00Z,5.0,VFR,OOSH 272150Z AUTO 25005KT //// ////// 21/18 Q1017 RMK 1013
OSU,KOSU,OHIO STATE UNIVERSITY,H1,40.07951555,-83.07321277,2023-12-27T21:53:00Z,5.0,IFR,KOSU 272153Z 36005KT 6SM BR OVC007 08/06 A2985 RMK AO2 SLP109 T00830061
OSX,KOSX,KOSCIUSKO-ATTALA COUNTY,14/32,33.09025,-89.54202777,,,,
OTG,KOTG,WORTHINGTON MUNI,11/29,43.65505555,-95.57919444,2023-12-27T21:56:00Z,4.0,VFR,KOTG 272156Z AUTO 01004KT 10SM OVC065 M01/M04 A3006 RMK AO2 SLP200 T10061044 FZRANO
OTH,KOTH,SOUTHWEST OREGON RGNL,13/31,43.41694444,-124.2470278,2023-12-27T21:56:00Z,11.0,VFR,KOTH 272156Z 15011KT 10SM OVC037 13/11 A2979 RMK AO2 RAB01E12 SLP087 P0000 T01330111
OTM,KOTM,OTTUMWA RGNL,04/22,41.10722222,-92.44716666,2023-12-27T22:02:00Z,10.0,MVFR,ROTM 272202Z 07010KT 9999 -SHRA BKN030 BKN065 BKN120 21/14 A3023 RMK SHRAB02 SLP225
OTZ,PAOT,RALPH WIEN MEML,09/27,66.88480555,-162.5981389,,,,
OUL,PAOU,NELSON LAGOON,08/26,56.00753611,-161.1603672,,,,
OUN,KOUN,UNIVERSITY OF OKLAHOMA WESTHEIMER,18/36,35.24555555,-97.47213888,2023-12-27T22:45:00Z,16.0,VFR,KOUN 272245Z 30016G20KT 10SM CLR 04/M05 A3006
OVE,KOVE,OROVILLE MUNI,13/31,39.48780555,-121.622,2023-12-27T22:33:00Z,6.0,LIFR,KOVE 272233Z AUTO 09006KT 3/4SM RA BR BKN029 OVC036 12/10 A3009 RMK AO2 P0014 T01170100
OVL,KOVL,OLIVIA RGNL,11/29,44.77857194,-95.03277833,2023-12-27T22:35:00Z,4.0,VFR,KOVL 272235Z AUTO 27004KT 10SM OVC035 00/M01 A3007 RMK AO2
OVO,KOVO,NORTH VERNON,15/33,39.04533333,-85.60561111,,,,
OVS,KOVS,BOSCOBEL,07/25,43.16080666,-90.67397805,2023-12-27T21:53:00Z,4.0,VFR,KOVS 272153Z AUTO 03004KT 10SM OVC075 06/M01 A3001 RMK AO2 SLP170 T00561006
OWA,KOWA,OWATONNA DEGNER RGNL,05/23,44.1229518,-93.25882641,2023-12-27T22:33:00Z,3.0,VFR,KOWA 272233Z AUTO 03003KT 10SM CLR 01/M03 A3006 RMK AO2
OWB,KOWB,OWENSBORO/DAVIESS COUNTY RGNL,18/36,37.73883416,-87.16682855,2023-12-27T21:56:00Z,5.0,VFR,KOWB 272156Z 11005KT 10SM OVC090 09/01 A2982 RMK AO2 SLP102 T00940006
OWD,KOWD,NORWOOD MEML,17/35,42.19052777,-71.17294444,2023-12-27T21:53:00Z,3.0,IFR,KOWD 272153Z 17003KT 10SM OVC009 11/09 A3004 RMK AO2 SLP172 T01110089
OWI,KOWI,OTTAWA MUNI,13/31,38.53917425,-95.25318461,2023-12-27T22:30:00Z,9.0,MVFR,KOWI 272230Z AUTO 32009G14KT OVC015 02/00 A2997 RMK AO2
OWK,KOWK,CENTRAL MAINE/NORRIDGEWOCK,15/33,44.7155,-69.86647222,2023-12-27T22:20:00Z,4.0,VFR,LOWK 272220Z AUTO 29004KT 9999 FEW000 SCT001 M02/M02 Q1025
OWP,KOWP,WILLIAM R POGUE MUNI,17/35,36.17527777,-96.15183333,2023-12-27T22:35:00Z,9.0,VFR,KOWP 272235Z AUTO 30009G14KT 10SM SCT043 05/M04 A3006 RMK AO2 T00541040
OWX,KOWX,PUTNAM COUNTY,09/27,41.035595,-83.98189361,2023-12-27T22:35:00Z,9.0,MVFR,KOWX 272235Z AUTO 35009KT 10SM OVC021 08/05 A2987 RMK AO1
OXB,KOXB,OCEAN CITY MUNI,14/32,38.31044444,-75.12397222,2023-12-27T21:53:00Z,5.0,VFR,KOXB 272153Z AUTO 12005KT 10SM FEW031 OVC050 12/11 A2984 RMK AO2 SLP104 T01220111
OXC,KOXC,WATERBURY-OXFORD,18/36,41.47828055,-73.1351825,2023-12-27T21:51:00Z,5.0,MVFR,KOXC 272151Z 11005KT 3SM BR SCT003 SCT080 BKN100 07/07 A3000 RMK AO2 DZE51 SLP175 P0000 T00720067
OXD,KOXD,MIAMI UNIVERSITY,05/23,39.50225972,-84.78438138,2023-12-27T21:59:00Z,5.0,VFR,KOXD 272159Z AUTO 35005KT 10SM CLR 10/M00 A2985 RMK AO2
OXI,KOXI,STARKE COUNTY,18/36,41.32970083,-86.66460944,2023-12-27T22:35:00Z,7.0,VFR,KOXI 272235Z AUTO 34007KT 10SM SCT070 BKN080 OVC100 04/00 A2992 RMK AO1
OXR,KOXR,OXNARD,07/25,34.20080694,-119.2072264,2023-12-27T21:51:00Z,10.0,VFR,KOXR 272151Z 28010KT 10SM BKN250 16/12 A3013 RMK AO2 SLP201 T01610122 $
OXV,KOXV,KNOXVILLE MUNI,15/33,41.29909691,-93.11374277,2023-12-27T22:35:00Z,9.0,IFR,KOXV 272235Z AUTO 04009KT 5SM BR BKN005 BKN009 OVC013 02/01 A2994 RMK AO2
OYM,KOYM,ST MARYS MUNI,10/28,41.41247777,-78.50263138,2023-12-27T22:35:00Z,7.0,LIFR,KOYM 272235Z AUTO 12007KT 10SM BKN004 BKN033 OVC100 08/07 A2984 RMK AO2 PWINO
OZA,KOZA,OZONA MUNI,16/34,30.73519444,-101.2021944,2023-12-27T22:35:00Z,9.0,VFR,KOZA 272235Z AUTO 33009KT 10SM CLR 13/M01 A3011 RMK AO2
OZS,KOZS,CAMDENTON MEML-LAKE RGNL,15/33,37.9727225,-92.69045861,2023-12-27T22:35:00Z,6.0,IFR,KOZS 272235Z AUTO 30006KT 3SM -SN OVC007 00/00 A2987 RMK AO2 P0001
OZW,KOZW,LIVINGSTON COUNTY SPENCER J HARDY,13/31,42.62942777,-83.98219305,2023-12-27T22:35:00Z,5.0,LIFR,KOZW 272235Z AUTO 32005KT 1 1/4SM BR OVC003 05/05 A2988 RMK AO2 T00460046
P01,,ERIC MARCUS MUNI,12/30,32.45288888,-112.8614167,,,,
P03,,COCHISE COLLEGE,05/23,31.37131388,-109.6899528,,,,
P04,,BISBEE MUNI,02/20,31.36399027,-109.8831286,,,,
P08,,COOLIDGE MUNI,05/23,32.93602388,-111.4264728,2023-12-27T22:30:00Z,5.0,VFR,KP08 272230Z AUTO 29005KT 10SM CLR 16/01 A3014 RMK AO2
P10,,POLACCA,04/22,35.79161111,-110.4233889,,,,
P13,,SAN CARLOS APACHE,09/27,33.35313888,-110.6673611,,,,
P14,,HOLBROOK MUNI,03/21,34.94072222,-110.1385,,,,
P15,,BROKENSTRAW,09/27,41.83294027,-79.36067083,,,,
P17,,GREATER BREEZEWOOD RGNL,03/21,39.87426805,-78.29773333,,,,
P19,,STELLAR AIRPARK,17/35,33.29877111,-111.9157875,,,,
P20,,AVI SUQUILLA,02/20,34.14983333,-114.2678333,,,,
P23,,SELIGMAN,04/22,35.335075,-112.8864972,,,,
P29,,TOMBSTONE MUNI,06/24,31.6713125,-110.0215153,,,,
P33,,COCHISE COUNTY,03/21,32.24541666,-109.8946389,,,,
P34,,MIFFLINTOWN,08/26,40.59894444,-77.40566666,,,,
P45,,MOUNT PLEASANT/SCOTTDALE,06/24,40.10767266,-79.54307408,,,,
P52,,COTTONWOOD,14/32,34.73005611,-112.0351372,2023-12-27T22:35:00Z,0.0,VFR,KP52 272235Z AUTO 00000KT 10SM CLR 14/M14 A3016 RMK AO2
P91,,FLYING M AERODROME,08/26,40.73753055,-75.70541666,,,,
P96,,JERSEY SHORE,09/27,41.20644305,-77.22576527,,,,
PAE,KPAE,SEATTLE PAINE FLD INTL,16L/34R,47.90731805,-122.2820939,2023-12-27T21:53:00Z,6.0,VFR,KPAE 272153Z 12006KT 10SM FEW037 SCT070 12/03 A2977 RMK AO2 RAB35E45 SLP081 P0000 T01170028
PAH,KPAH,BARKLEY RGNL,05/23,37.06028833,-88.77295916,2023-12-27T21:53:00Z,3.0,VFR,KPAH 272153Z 25003KT 10SM OVC075 08/03 A2982 RMK AO2 SLP100 T00780033
PAK,PHPA,PORT ALLEN,09/27,21.89694444,-159.6031667,,,,
PAN,KPAN,PAYSON,H1,34.25683638,-111.3392558,2023-12-27T22:35:00Z,5.0,VFR,KPAN 272235Z AUTO 25005KT 10SM CLR 11/M10 A3020 RMK AO2 PWINO TSNO
PAO,KPAO,PALO ALTO,13/31,37.46111111,-122.1150556,2023-12-27T22:47:00Z,16.0,VFR,KPAO 272247Z 13016G20KT 10SM BKN035 16/11 A3004
PAQ,PAAQ,WARREN BUD WOODS PALMER MUNI,16/34,61.59491666,-149.0887222,,,,
PBF,KPBF,PINEBLUFF RGNL/GRIDER FLD,18/36,34.17451305,-91.93560422,2023-12-27T21:53:00Z,11.0,VFR,KPBF 272153Z AUTO 31011G20KT 10SM FEW049 BKN060 09/M02 A2996 RMK AO2 SLP145 T00891017
PBG,KPBG,PLATTSBURGH INTL,17/35,44.65094444,-73.46813888,2023-12-27T22:44:00Z,0.0,LIFR,KPBG 272244Z AUTO 00000KT 1/4SM FG VV004 04/04 A3000 RMK AO2 T00440044 $
PBH,KPBH,PRICE COUNTY,06/24,45.70883333,-90.4025,2023-12-27T22:35:00Z,0.0,VFR,KPBH 272235Z AUTO 00000KT 10SM CLR M01/M04 A3006 RMK AO2 T10111042
PBI,KPBI,PALM BEACH INTL,10R/28L,26.68316166,-80.09559194,2023-12-27T21:53:00Z,4.0,VFR,KPBI 272153Z 01004KT 10SM SCT110 BKN250 23/17 A2992 RMK AO2 SLP131 T02330167 $
PBV,PAPB,ST GEORGE,11/29,56.57736111,-169.6637222,,,,
PBX,KPBX,PIKE COUNTY/HATCHER FLD,09/27,37.56181144,-82.56643197,2023-12-27T22:35:00Z,0.0,LIFR,KPBX 272235Z AUTO 00000KT 1/4SM FG OVC002 07/07 A2985 RMK AO2 T00720072
PCD,KPCD,PERRYVILLE RGNL,02/20,37.86866666,-89.86213888,2023-12-27T22:35:00Z,0.0,VFR,KPCD 272235Z AUTO 00000KT 7SM -SN SCT023 BKN050 OVC065 01/00 A2988 RMK AO2 T00070004
PCM,KPCM,PLANT CITY,10/28,28.00016666,-82.16330555,2023-12-27T22:35:00Z,5.0,VFR,KPCM 272235Z AUTO 30005KT 10SM SCT120 20/12 A2998 RMK AO2
PCW,KPCW,ERIE-OTTAWA INTL,18/36,41.51627055,-82.86948666,2023-12-27T22:35:00Z,6.0,LIFR,KPCW 272235Z AUTO 33006KT 1SM BR OVC002 06/06 A2984 RMK AO2
PCZ,KPCZ,WAUPACA MUNI,13/31,44.33325,-89.01977777,2023-12-27T22:35:00Z,3.0,VFR,KPCZ 272235Z AUTO 35003KT 10SM CLR 02/M03 A3003 RMK AO2 T00231032
PDC,KPDC,PRAIRIE DU CHIEN MUNI,14/32,43.01928527,-91.12373277,2023-12-27T22:35:00Z,0.0,VFR,KPDC 272235Z AUTO 00000KT 10SM OVC065 04/00 A3001 RMK AO2 T00401004
PDK,KPDK,DEKALB-PEACHTREE,16/34,33.87600194,-84.30203055,2023-12-27T21:53:00Z,4.0,VFR,KPDK 272153Z 22004KT 10SM CLR 11/04 A2987 RMK AO2 SLP116 T01060044
PDT,KPDT,EASTERN OREGON RGNL AT PENDLETON,08/26,45.69509527,-118.8433686,2023-12-27T21:53:00Z,9.0,LIFR,KPDT 272153Z 32009KT 3SM BR OVC002 03/02 A3001 RMK AO2 SLP167 T00280017
PDX,KPDX,PORTLAND INTL,10R/28L,45.58870886,-122.5968694,2023-12-27T21:53:00Z,5.0,VFR,KPDX 272153Z 13005KT 10SM OVC065 09/03 A2982 RMK AO2 RAB41E53 SLP097 P0000 T00940028 $
PEA,KPEA,PELLA MUNI,16/34,41.40122222,-92.94586111,2023-12-27T22:35:00Z,7.0,IFR,KPEA 272235Z AUTO 05007KT 360V070 10SM -DZ OVC007 02/01 A2995 RMK AO2 T00170011
PEO,KPEO,PENN YAN,10/28,42.63708333,-77.05286111,2023-12-27T22:37:00Z,5.0,MVFR,KPEO 272237Z AUTO 17005KT 4SM RA BR FEW046 OVC060 10/09 A2987 RMK AO2 P0008 T01000089
PEQ,KPEQ,PECOS MUNI,09/27,31.38238888,-103.5107222,2023-12-27T22:35:00Z,0.0,VFR,KPEQ 272235Z AUTO 00000KT 10SM CLR 12/M03 A3013 RMK AO2 T01211030
PEV,PAPE,PERRYVILLE,02/20,55.90672361,-159.1608292,,,,
PEX,KPEX,PAYNESVILLE MUNI,11/29,45.37206352,-94.7447263,2023-12-27T22:36:00Z,0.0,MVFR,KPEX 272236Z AUTO 00000KT 7SM OVC012 M00/M01 A3007 RMK AO2
PEZ,KPEZ,PLEASANTON MUNI,16/34,28.95419444,-98.51997222,2023-12-27T22:35:00Z,7.0,VFR,KPEZ 272235Z AUTO 31007KT 10SM CLR 22/M03 A3002 RMK AO2 T02151035
PFC,KPFC,PACIFIC CITY STATE,14/32,45.19936111,-123.9618944,,,,
PG1,,GRIFFIN FLD,04/22,44.86772222,-68.97710555,,,,
PGA,KPGA,PAGE MUNI,07/25,36.92606944,-111.4483506,2023-12-27T21:53:00Z,5.0,VFR,KPGA 272153Z AUTO 35005KT 10SM CLR 06/M07 A3025 RMK AO2 SLP248 T00611072
PGD,KPGD,PUNTA GORDA,09/27,26.9185925,-81.99088611,2023-12-27T21:53:00Z,5.0,VFR,KPGD 272153Z 30005KT 10SM BKN120 22/12 A2994 RMK AO2 SLP138 T02220117
PGM,,PORT GRAHAM,12/30,59.348475,-151.8303222,,,,
PGR,KPGR,KIRK FLD,08/26,36.06380555,-90.50919444,,,,
PGV,KPGV,PITT-GREENVILLE,02/20,35.63569444,-77.38408333,2023-12-27T22:25:00Z,3.0,IFR,KPGV 272225Z AUTO 35003KT 10SM BKN008 OVC011 17/17 A2973 RMK AO2
PHD,KPHD,HARRY CLEVER FLD,15/33,40.47016666,-81.41994444,2023-12-27T22:24:00Z,5.0,IFR,KPHD 272224Z AUTO 31005KT 7SM OVC005 09/08 A2984 RMK AO2 T00890083
PHF,KPHF,NEWPORT NEWS/WILLIAMSBURG INTL,02/20,37.13188888,-76.49297222,2023-12-27T22:11:00Z,5.0,IFR,KPHF 272211Z 06005KT 4SM BR OVC005 14/14 A2977 RMK AO2 P0001 T01390139
PHG,KPHG,PHILLIPSBURG MUNI,13/31,39.73580555,-99.31711111,,,,
PHH,KPHH,ROBERT F SWINNIE,18/36,33.45169972,-79.52617666,,,,
PHK,KPHK,PALM BEACH COUNTY GLADES,18/36,26.78502777,-80.69336111,,,,
PHL,KPHL,PHILADELPHIA INTL,09R/27L,39.87208388,-75.24066305,2023-12-27T22:22:00Z,8.0,LIFR,KPHL 272222Z 07008KT 8SM -RA OVC004 10/09 A2990 RMK AO2 P0002 T01000094
PHN,KPHN,ST CLAIR COUNTY INTL,10/28,42.91095861,-82.52884972,2023-12-27T22:35:00Z,5.0,LIFR,KPHN 272235Z AUTO 02005KT 7SM OVC003 09/08 A2983 RMK AO2
PHO,PAPO,POINT HOPE,01/19,68.34877222,-166.7992611,2023-12-27T22:00:00Z,8.0,VFR,SPHO 272200Z 31008KT 280V350 9999 FEW030 SCT040TCU 20/09 Q1025 RMK TX23.2 BIRD HAZARD RWY 02/20 PP000
PHP,KPHP,PHILIP,05/23,44.04873063,-101.5988405,2023-12-27T22:04:00Z,7.0,VFR,KPHP 272204Z AUTO 27007KT 10SM SCT014 01/M04 A3015 RMK AO2 T00061044
PHT,KPHT,HENRY COUNTY,02/20,36.33594444,-88.38444444,,,,
PHX,KPHX,PHOENIX SKY HARBOR INTL,08/26,33.43427777,-112.0115833,2023-12-27T21:51:00Z,3.0,VFR,KPHX 272151Z 17003KT 10SM FEW180 BKN250 OVC300 18/M04 A3011 RMK AO2 SLP191 T01831039
PIA,KPIA,GENERAL DOWNING - PEORIA INTL,13/31,40.66419444,-89.69325,2023-12-27T21:54:00Z,10.0,VFR,KPIA 272154Z 05010KT 10SM OVC070 06/00 A2989 RMK AO2 SLP125 T00610000
PIB,KPIB,HATTIESBURG/LAUREL RGNL,18/36,31.46713888,-89.33705555,2023-12-27T21:56:00Z,4.0,VFR,KPIB 272156Z AUTO 21004KT 10SM CLR 14/07 A2993 RMK AO2 SLP133 T01390072 $
PIE,KPIE,ST PETE-CLEARWATER INTL,04/22,27.90863361,-82.68651,2023-12-27T21:53:00Z,8.0,VFR,KPIE 272153Z 31008KT 10SM FEW100 BKN120 17/16 A2997 RMK AO2 SLP147 T01720156
PIH,KPIH,POCATELLO RGNL,17/35,42.9097925,-112.5959189,2023-12-27T21:53:00Z,11.0,MVFR,KPIH 272153Z 03011KT 10SM OVC025 M01/M04 A3032 RMK AO2 SLP302 T10111044
PIL,KPIL,PORT ISABEL-CAMERON COUNTY,08/26,26.16619444,-97.34588888,2023-12-27T21:53:00Z,11.0,VFR,KPIL 272153Z AUTO 03011KT 10SM CLR 21/13 A2998 RMK AO2 SLP153 T02060128
PIM,KPIM,HARRIS COUNTY,09/27,32.84069444,-84.88244444,2023-12-27T22:35:00Z,0.0,VFR,KPIM 272235Z AUTO 00000KT 10SM CLR 11/05 A2990 RMK AO2 T01100050
PIR,KPIR,PIERRE RGNL,13/31,44.38269444,-100.2859722,2023-12-27T21:53:00Z,13.0,IFR,KPIR 272153Z AUTO 32013KT 10SM OVC006 01/01 A3010 RMK AO2 CIG 004V007 SLP210 T00110006
PIT,KPIT,PITTSBURGH INTL,14/32,40.49141666,-80.23269444,2023-12-27T21:51:00Z,0.0,MVFR,KPIT 272151Z COR 00000KT 10SM FEW008 BKN019 OVC027 12/10 A2980 RMK AO2 SLP097 T01220100 $
PIZ,PPIZ,POINT LAY LRRS,05/23,69.73288888,-163.0053333,2023-12-27T21:56:00Z,12.0,VFR,PPIZ 272156Z AUTO 09012KT 10SM CLR M22/M24 A2966 RMK AO2 SLP049 T12221244 FZRANO
PJC,KPJC,ZELIENOPLE MUNI,17/35,40.80197222,-80.16086111,2023-12-27T22:35:00Z,0.0,LIFR,KPJC 272235Z AUTO 00000KT 1/4SM FG VV002 07/07 A2981 RMK AO2
PJY,KPJY,PINCKNEYVILLE/DU QUOIN,18/36,37.97788416,-89.36044888,,,,
PKA,PAPK,NAPASKIAK,02/20,60.7029125,-161.7783075,,,,
PKB,KPKB,MID-OHIO VALLEY RGNL,10/28,39.34496194,-81.43929305,2023-12-27T21:53:00Z,4.0,LIFR,KPKB 272153Z 27004KT 5SM BR OVC004 09/08 A2984 RMK AO2 SLP106 T00890078
PKD,KPKD,PARK RAPIDS MUNI/KONSHOK FLD,18/36,46.9012038,-95.07310625,2023-12-27T22:00:00Z,5.0,IFR,KPKD 272200Z AUTO 02005KT 4SM BR OVC008 02/01 A3005 RMK AO2 T00170011
PKF,KPKF,PARK FALLS MUNI,18/36,45.95509063,-90.4244345,,,,
PKV,KPKV,CALHOUN COUNTY,05/23,28.65330555,-96.68272222,2023-12-27T22:35:00Z,5.0,VFR,KPKV 272235Z AUTO 01005KT 10SM CLR 21/M01 A3001 RMK AO2 T02091009
PLD,KPLD,PORTLAND MUNI,09/27,40.4515175,-84.99171777,,,,
PLK,KPLK,M GRAHAM CLARK DOWNTOWN,12/30,36.62592813,-93.22892288,,,,
PLN,KPLN,PELLSTON RGNL/EMMET COUNTY,05/23,45.57091666,-84.79672222,2023-12-27T21:54:00Z,5.0,LIFR,KPLN 272154Z AUTO 33005KT 4SM BR OVC003 03/03 A3000 RMK AO2 SLP166 T00330028
PLR,KPLR,ST CLAIR COUNTY,03/21,33.55883333,-86.24905555,2023-12-27T22:35:00Z,0.0,VFR,KPLR 272235Z AUTO 00000KT 10SM FEW048 SCT055 09/06 A2990 RMK A01
PLU,KPLU,PIERCE COUNTY - THUN FLD,17/35,47.10392,-122.2872003,2023-12-27T22:35:00Z,0.0,VFR,KPLU 272235Z AUTO 00000KT 7SM -RA BKN055 10/09 A2980 RMK AO2
PMB,KPMB,PEMBINA MUNI,15/33,48.94241666,-97.24066666,,,,
PMD,KPMD,PALMDALE USAF PLANT 42,07/25,34.62938888,-118.0845528,2023-12-27T22:00:00Z,3.0,VFR,RPMD 272200Z 02003KT 340V050 9999 FEW016 24/24 Q1013 RMK A2991
PMH,KPMH,GREATER PORTSMOUTH RGNL,18/36,38.84047166,-82.84730944,2023-12-27T22:35:00Z,0.0,VFR,KPMH 272235Z AUTO 00000KT 10SM OVC032 09/06 A2986 RMK AO2 T00870056
PMP,KPMP,POMPANO BEACH AIRPARK,10/28,26.24740055,-80.1112075,2023-12-27T21:53:00Z,6.0,VFR,KPMP 272153Z 28006KT 10SM CLR 24/11 A2992 RMK AO2 SLP134 T02390106
PMU,KPMU,PANOLA COUNTY,01/19,34.3635,-89.89288888,2023-12-27T22:35:00Z,6.0,VFR,KPMU 272235Z AUTO 29006G16KT 10SM BKN050 OVC055 10/01 A2991 RMK AO2
PMV,KPMV,PLATTSMOUTH MUNI/DOUGLAS V DUEY FLD,16/34,40.94836944,-95.91735416,2023-12-27T22:35:00Z,8.0,VFR,KPMV 272235Z AUTO 34008G14KT 10SM SCT015 OVC037 01/M02 A3004 RMK AO2 T00071016
PMZ,KPMZ,PLYMOUTH MUNI,03/21,35.81078027,-76.75837,2023-12-27T22:00:00Z,2.0,VFR,RPMZ 272200Z VRB02KT 9999 FEW016CB BKN090 25/24 Q1013 RMK A2991 CB NE-SE/NW
PNA,KPNA,RALPH WENZ FLD,11/29,42.79738888,-109.8110278,2023-12-27T22:35:00Z,3.0,VFR,KPNA 272235Z AUTO 09003KT 10SM CLR M05/M15 A3027 RMK AO2
PNC,KPNC,PONCA CITY RGNL,17/35,36.73195472,-97.09978222,2023-12-27T22:00:00Z,7.0,VFR,SPNC 272200Z 06007KT 9999 FEW040 BKN120 22/15 Q1021 RMK TX23.2 PP000
PNE,KPNE,NORTHEAST PHILADELPHIA,06/24,40.08193833,-75.01057777,2023-12-27T21:54:00Z,9.0,LIFR,KPNE 272154Z 07009KT 5SM -RA BR OVC003 09/08 A2994 RMK AO2 RAB06 SLP139 P0000 T00940083
PNI,PTPN,POHNPEI INTL,09/27,6.98508333,158.2098056,,,,
PNM,KPNM,PRINCETON MUNI,16/34,45.55986111,-93.60822222,2023-12-27T22:35:00Z,3.0,MVFR,KPNM 272235Z AUTO 25003KT 7SM BKN016 OVC025 01/M01 A3009 RMK AO2
PNN,KPNN,PRINCETON MUNI,06/24,45.20065972,-67.56439888,,,,
PNP,PAPN,PILOT POINT,07/25,57.58038055,-157.5719569,,,,
PNS,KPNS,PENSACOLA INTL,17/35,30.47341666,-87.18661111,2023-12-27T21:53:00Z,5.0,VFR,KPNS 272153Z 21005KT 10SM SCT100 14/04 A2995 RMK AO2 SLP144 T01440044
PNT,KPNT,PONTIAC MUNI,06/24,40.92444444,-88.62394444,2023-12-27T22:35:00Z,14.0,VFR,KPNT 272235Z AUTO 05014G18KT 10SM OVC100 05/02 A2991 RMK AO2 T00460023
PO1,,POPLAR MUNI,09/27,48.13441666,-105.1621389,2023-12-27T22:35:00Z,6.0,VFR,KPO1 272235Z AUTO 23006KT 10SM CLR 02/M03 A3017 RMK AO2
POC,KPOC,BRACKETT FLD,08R/26L,34.09166666,-117.7817778,2023-12-27T21:47:00Z,6.0,VFR,KPOC 272147Z 25006KT 7SM CLR 18/09 A3012
POF,KPOF,POPLAR BLUFF RGNL BUSINESS,18/36,36.77393527,-90.32485277,2023-12-27T21:53:00Z,3.0,VFR,KPOF 272153Z AUTO 31003KT 10SM SCT045 BKN055 BKN070 06/M02 A2987 RMK AO2 SLP119 T00561022
POH,KPOH,POCAHONTAS MUNI,12/30,42.74288888,-94.64736111,,,,
POU,KPOU,HUDSON VALLEY RGNL,15/33,41.626585,-73.88418861,2023-12-27T21:53:00Z,0.0,LIFR,KPOU 272153Z 00000KT 2SM -RA BR OVC003 08/08 A2997 RMK AO2 RAB47 SLP148 P0000 T00830078
POV,KPOV,PORTAGE COUNTY,09/27,41.21018333,-81.25162388,2023-12-27T22:35:00Z,5.0,LIFR,KPOV 272235Z AUTO 31005KT 4SM OVC003 07/06 A2982 RMK AO2 T00720061 PWINO
POY,KPOY,POWELL MUNI,13/31,44.86716666,-108.7934167,2023-12-27T22:35:00Z,14.0,VFR,KPOY 272235Z AUTO 13014KT 10SM CLR M01/M13 A3016 RMK AO2
PPA,KPPA,PERRY LEFORS FLD,17/35,35.613,-100.99625,2023-12-27T22:00:00Z,0.0,MVFR,MPPA 272200Z 00000KT 8000 DZ SCT015CB SCT080 28/26 Q1009 RERA
PPC,PAPR,PROSPECT CREEK,01/19,66.81405555,-150.6436111,,,,
PPF,KPPF,TRI-CITY,17/35,37.33081361,-95.506175,2023-12-27T21:52:00Z,15.0,VFR,KPPF 272152Z AUTO 32015G22KT 10SM SCT024 OVC040 03/M03 A3002 RMK AO2 SLP169 T00281028
PPG,NSTU,PAGO PAGO INTL,05/23,-14.33166222,-170.7115031,,,,
PPO,KPPO,LA PORTE MUNI,02/20,41.57246694,-86.73452777,2023-12-27T22:35:00Z,7.0,VFR,KPPO 272235Z AUTO 34007KT 10SM SCT090 04/01 A2993 RMK AO2 T00400005
PPQ,KPPQ,PITTSFIELD PENSTONE MUNI,13/31,39.63889008,-90.77855897,2023-12-27T22:35:00Z,3.0,LIFR,KPPQ 272235Z AUTO 03003KT 1 1/2SM OVC004 01/01 A2985 RMK AO2 P0001 T00050005
PQI,KPQI,PRESQUE ISLE INTL,10/28,46.68896388,-68.04479138,2023-12-27T21:56:00Z,0.0,VFR,KPQI 272156Z AUTO 00000KT 10SM OVC036 01/M05 A3012 RMK AO2 SLP234 T00111050
PQL,KPQL,TRENT LOTT INTL,17/35,30.46277194,-88.52922861,2023-12-27T21:53:00Z,3.0,VFR,KPQL 272153Z VRB03KT 10SM CLR 14/09 A2995 RMK AO2 SLP143 T01440089
PQN,KPQN,PIPESTONE MUNI,09/27,43.98213666,-96.3004075,,,,
PRB,KPRB,PASO ROBLES MUNI,13/31,35.67288888,-120.6270833,2023-12-27T22:07:00Z,9.0,MVFR,KPRB 272207Z AUTO 25009KT 10SM BKN027 15/10 A3012 RMK AO2 T01500100
PRC,KPRC,PRESCOTT RGNL - ERNEST A LOVE FLD,12/30,34.65483333,-112.4192222,2023-12-27T21:53:00Z,5.0,VFR,KPRC 272153Z AUTO 33005KT 10SM CLR 12/M08 A3018 RMK AO2 SLP200 T01171083
PRG,KPRG,EDGAR COUNTY,09/27,39.69966666,-87.67077777,2023-12-27T22:35:00Z,9.0,VFR,KPRG 272235Z AUTO 06009KT 10SM OVC100 05/02 A2986 RMK AO2 T00500020
PRN,KPRN,MAC CRENSHAW MEML,14/32,31.84569444,-86.61075,2023-12-27T21:58:00Z,4.0,VFR,KPRN 272158Z AUTO 21004KT CLR 12/03 A2990 RMK AO2 SLP075 T01220033
PRO,KPRO,PERRY MUNI,14/32,41.828,-94.15983333,2023-12-27T22:35:00Z,11.0,MVFR,KPRO 272235Z AUTO 36011KT 10SM -RA OVC014 02/00 A3000 RMK AO2 T00160001
PRS,KPRS,PRESIDIO LELY INTL,17/35,29.6342125,-104.3614944,2023-12-27T22:35:00Z,10.0,VFR,KPRS 272235Z AUTO 27010KT 10SM CLR 16/M08 A3013 RMK AO2 T01601077
PRX,KPRX,COX FLD,03/21,33.63661111,-95.45075,2023-12-27T22:04:00Z,11.0,VFR,KPRX 272204Z AUTO 31011KT 10SM FEW002 08/M03 A3004 RMK AO2
PRZ,KPRZ,PORTALES MUNI,08/26,34.14547222,-103.4103333,2023-12-27T22:30:00Z,1.0,VFR,EPRZ 272230Z VRB01KT CAVOK M02/M03 Q1023
PSB,KPSB,MID-STATE,06/24,40.88439138,-78.08734166,,,,
PSC,KPSC,TRI-CITIES,03L/21R,46.26468166,-119.1190239,2023-12-27T22:30:00Z,14.0,VFR,EPSC 272230Z 13014KT CAVOK 02/01 Q1014
PSE,TJPS,MERCEDITA,12/30,18.00878055,-66.56452083,,,,
PSF,KPSF,PITTSFIELD MUNI,08/26,42.42762011,-73.2908398,2023-12-27T21:54:00Z,3.0,VFR,KPSF 272154Z AUTO 03003KT 7SM FEW037 OVC050 08/07 A2998 RMK AO2 SLP149 T00780067
PSG,PAPG,PETERSBURG JAMES A JOHNSON,05/23,56.80147222,-132.9462222,,,,
PSK,KPSK,NEW RIVER VALLEY,06/24,37.13733638,-80.67847944,2023-12-27T22:00:00Z,0.0,LIFR,OPSK 272200Z 00000KT 1500 BR NSC 12/09 Q1018 TEMPO 1200 BR
PSM,KPSM,PORTSMOUTH INTL AT PEASE,16/34,43.07794444,-70.82327777,2023-12-27T22:24:00Z,4.0,MVFR,KPSM 272224Z 04004KT 10SM FEW005 BKN016 OVC120 07/06 A3005 RMK AO2A SLP179
PSN,KPSN,PALESTINE MUNI,18/36,31.77969444,-95.70630555,2023-12-27T22:35:00Z,10.0,VFR,KPSN 272235Z AUTO 33010KT 10SM CLR 11/M01 A3002 RMK AO2
PSO,KPSO,STEVENS FLD,01/19,37.28624861,-107.0560089,2023-12-27T22:00:00Z,8.0,MVFR,SPSO 272200Z 24008KT 9999 OVC030 25/19 Q1013 RMK BIRD HAZARD RWY 22/04 TX27.6 PP000
PSP,KPSP,PALM SPRINGS INTL,13L/31R,33.82966666,-116.5066944,2023-12-27T21:53:00Z,3.0,VFR,KPSP 272153Z VRB03KT 10SM CLR 19/06 A3014 RMK AO2 SLP206 T01940056
PSX,KPSX,PALACIOS MUNI,08/26,28.7275,-96.25094444,2023-12-27T21:53:00Z,9.0,VFR,KPSX 272153Z AUTO 34009KT 10SM CLR 20/02 A3000 RMK AO2 SLP158 T02000017 $
PTB,KPTB,TRI CITIES EXEC/DINWIDDIE COUNTY,05/23,37.18430138,-77.50617444,2023-12-27T22:35:00Z,0.0,MVFR,KPTB 272235Z AUTO 00000KT 10SM BKN016 OVC050 16/16 A2975 RMK AO2 T01610155
PTD,KPTD,POTSDAM MUNI/DAMON FLD,06/24,44.67666666,-74.94844444,2023-12-27T22:35:00Z,6.0,LIFR,KPTD 272235Z AUTO 05006KT 3SM BR OVC003 04/04 A2995 RMK AO2
PTH,PAPH,PORT HEIDEN,14/32,56.95910111,-158.6333619,,,,
PTK,KPTK,OAKLAND COUNTY INTL,18/36,42.66563619,-83.42050563,2023-12-27T22:39:00Z,8.0,LIFR,KPTK 272239Z 32008KT 1SM R09R/P6000FT BR OVC002 06/06 A2986 RMK AO2 TWR VIS 2 T00610056
PTN,KPTN,HARRY P WILLIAMS MEML,06/24,29.70954638,-91.33897861,2023-12-27T22:30:00Z,5.0,VFR,YPTN 272230Z AUTO 33005KT 9999 // NCD 30/24 Q1013 RF00.0/000.0
PTS,KPTS,ATKINSON MUNI,17/35,37.45005555,-94.73122222,2023-12-27T22:35:00Z,6.0,MVFR,KPTS 272235Z AUTO 31006KT 10SM OVC020 02/M02 A2997 RMK AO2 T00151016 PWINO
PTT,KPTT,PRATT RGNL,17/35,37.70252777,-98.747,2023-12-27T22:35:00Z,12.0,MVFR,KPTT 272235Z AUTO 34012KT 10SM OVC021 01/M03 A3007 RMK AO2 T00101030
PTU,PAPM,PLATINUM,14/32,59.01783055,-161.8271917,2023-12-27T22:00:00Z,2.0,VFR,SPTU 272200Z VRB02KT 9999 FEW020 32/25 Q1007 RMK TX34.8 BIRD HAZARD RWY 01/19 PP000
PTV,KPTV,PORTERVILLE MUNI,12/30,36.02958333,-119.0627222,2023-12-27T21:56:00Z,5.0,VFR,KPTV 272156Z AUTO 28005KT 10SM CLR 18/08 A3009 RMK AO2 SLP191 T01780083
PTW,KPTW,HERITAGE FLD,10/28,40.23955555,-75.55672222,2023-12-27T21:54:00Z,5.0,LIFR,KPTW 272154Z AUTO VRB05KT 5SM -RA BR OVC004 08/08 A2993 RMK AO2 RAB12 SLP133 P0000 T00830083
PUB,KPUB,PUEBLO MEML,08R/26L,38.2899475,-104.4980281,2023-12-27T21:53:00Z,7.0,VFR,KPUB 272153Z 19007KT 10SM BKN100 08/M07 A3011 RMK AO2 SLP192 T00831067
PUC,KPUC,CARBON COUNTY RGNL/BUCK DAVIS FLD,15/33,39.61388888,-110.7516111,2023-12-27T21:53:00Z,0.0,VFR,KPUC 272153Z AUTO 00000KT 10SM CLR 02/M11 A3024 RMK AO2 SLP294 T00221106
PUJ,KPUJ,PAULDING NORTHWEST ATLANTA,13/31,33.91204305,-84.94061944,2023-12-27T22:35:00Z,0.0,VFR,KPUJ 272235Z AUTO 00000KT 10SM CLR 10/03 A2987 RMK AO2
PUW,KPUW,PULLMAN/MOSCOW RGNL,05/23,46.74169138,-117.1116192,2023-12-27T21:53:00Z,15.0,VFR,KPUW 272153Z AUTO 10015KT 10SM FEW120 03/M01 A3003 RMK AO2 SLP186 T00331011
PVB,KPVB,PLATTEVILLE MUNI,07/25,42.68935722,-90.44439111,2023-12-27T22:35:00Z,6.0,VFR,KPVB 272235Z AUTO 04006KT 10SM BKN070 03/M01 A2999 RMK AO1 T00251006
PVC,KPVC,PROVINCETOWN MUNI,07/25,42.07227777,-70.22072222,2023-12-27T22:44:00Z,3.0,LIFR,KPVC 272244Z AUTO 08003KT 1/4SM FG OVC002 08/08 A3006 RMK AO2
PVD,KPVD,RHODE ISLAND TF GREEN INTL,05/23,41.72233333,-71.42772222,2023-12-27T22:00:00Z,6.0,VFR,RPVD 272200Z 34006KT 9000 VCSH SCT015 OVC070 26/24 Q1013 RMK A2991 VCSH W-NW
PVE,KPVE,BEECH RIVER RGNL,01/19,35.65636169,-88.19535227,2023-12-27T22:35:00Z,11.0,VFR,KPVE 272235Z AUTO 25011KT 10SM SCT047 SCT055 OVC070 11/02 A2984 RMK A01
PVF,KPVF,PLACERVILLE,05/23,38.7242275,-120.7533092,2023-12-27T22:35:00Z,10.0,VFR,KPVF 272235Z AUTO 21010G16KT 160V250 10SM BKN090 14/01 A3010 RMK AO1
PVG,KPVG,HAMPTON ROADS EXEC,10/28,36.7807648,-76.45128036,2023-12-27T22:43:00Z,4.0,IFR,KPVG 272243Z AUTO 11004KT 8SM BKN005 OVC008 16/16 A2977 RMK AO2 P0001
PVJ,KPVJ,PAULS VALLEY MUNI,17/35,34.70956327,-97.22334583,2023-12-27T22:35:00Z,9.0,VFR,KPVJ 272235Z AUTO 32009G19KT 10SM CLR 05/M05 A3007 RMK AO2 T00521050
PVU,KPVU,PROVO MUNI,18/36,40.21916666,-111.7233611,2023-12-27T21:56:00Z,4.0,VFR,KPVU 272156Z 27004KT 10SM CLR 03/M05 A3029 RMK AO2 SLP277 T00281050
PVW,KPVW,HALE COUNTY,13/31,34.16814722,-101.7173361,2023-12-27T22:35:00Z,10.0,VFR,KPVW 272235Z AUTO 36010KT 10SM SCT055 11/M03 A3006 RMK AO2 T01051027
PWA,KPWA,WILEY POST,17R/35L,35.53416388,-97.64705277,2023-12-27T22:30:00Z,3.0,MVFR,EPWA 272230Z 17003KT 8000 NSC M02/M03 Q1021 NOSIG
PWC,KPWC,PINE RIVER RGNL,16/34,46.72478777,-94.38169972,,,,
PWD,KPWD,SHER-WOOD,12/30,48.79051555,-104.5237383,2023-12-27T22:35:00Z,6.0,VFR,KPWD 272235Z AUTO 14006KT 10SM CLR 02/M06 A3014 RMK AO2
PWG,KPWG,MC GREGOR EXEC,17/35,31.48491666,-97.31652777,2023-12-27T21:56:00Z,10.0,VFR,KPWG 272156Z AUTO 33010KT 10SM CLR 13/02 A3005 RMK AO2 SLP176 T01330017
PWK,KPWK,CHICAGO EXEC,12/30,42.11427944,-87.90154083,2023-12-27T21:52:00Z,10.0,VFR,KPWK 272152Z 03010KT 360V070 10SM OVC075 04/00 A2998 RMK AO2 SLP159 T00440000 $
PWM,KPWM,PORTLAND INTL JETPORT,11/29,43.6456435,-70.30861636,2023-12-27T21:51:00Z,4.0,LIFR,KPWM 272151Z 05004KT 3SM BR BKN004 OVC009 06/06 A3007 RMK AO2 SLP184 T00610061
PWT,KPWT,BREMERTON NTL,02/20,47.49025,-122.7648056,2023-12-27T21:56:00Z,4.0,VFR,KPWT 272156Z AUTO VRB04KT 10SM -RA SCT060 09/08 A2978 RMK AO2 RAB19 SLP088 P0000 T00940078
PXE,KPXE,PERRY-HOUSTON COUNTY,18/36,32.51058083,-83.76734583,2023-12-27T22:35:00Z,3.0,VFR,KPXE 272235Z AUTO 25003KT 10SM CLR 15/05 A2990 RMK AO2 T01530046
PXK,PAXK,PAXSON,13/31,63.02458,-145.5005508,,,,
PYG,KPYG,PAGELAND,06/24,34.74213888,-80.34519444,,,,
PYM,KPYM,PLYMOUTH MUNI,15/33,41.9086175,-70.727685,2023-12-27T21:52:00Z,0.0,LIFR,KPYM 272152Z AUTO 00000KT 3/4SM BR VV003 09/08 A3004 RMK AO2 SLP175 T00940083
PYN,KPYN,PIEDMONT MUNI,03/21,37.1261375,-90.71352861,,,,
PYP,KPYP,CENTRE-PIEDMONT-CHEROKEE COUNTY RGNL,07/25,34.08991666,-85.61008333,,,,
PYX,KPYX,PERRYTON OCHILTREE COUNTY,17/35,36.41291777,-100.7515764,2023-12-27T22:35:00Z,7.0,MVFR,KPYX 272235Z AUTO 35007KT 10SM OVC028 01/M04 A3006 RMK AO2 T00061036
PZQ,KPZQ,PRESQUE ISLE COUNTY,09/27,45.40708333,-83.81286111,2023-12-27T22:35:00Z,5.0,LIFR,KPZQ 272235Z AUTO 34005KT 1 1/4SM BR OVC002 04/04 A2997 RMK AO2 T00370037
R03,,ALKALI LAKE STATE,18/36,43.08737277,-119.9760733,,,,
R33,,WAKONDA BEACH STATE,16/34,44.38456388,-124.0851194,,,,
R47,,RUHES,09/27,41.10310638,-84.05188861,,,,
R49,,FERRY COUNTY,H2,48.71820583,-118.6564714,,,,
RAC,KRAC,BATTEN INTL,04/22,42.76118027,-87.81390944,2023-12-27T21:53:00Z,10.0,VFR,KRAC 272153Z AUTO 01010KT 10SM CLR 04/M01 A3000 RMK AO2 SLP164 T00391006
RAL,KRAL,RIVERSIDE MUNI,09/27,33.95188888,-117.4451111,2023-12-27T21:53:00Z,0.0,VFR,KRAL 272153Z 00000KT 10SM CLR 19/07 A3011 RMK AO2 SLP186 T01940072
RAP,KRAP,RAPID CITY RGNL,14/32,44.04533333,-103.0573611,2023-12-27T21:52:00Z,11.0,VFR,KRAP 272152Z 34011KT 10SM CLR 03/M07 A3014 RMK AO2 SLP230 T00331067
RAS,KRAS,MUSTANG BEACH,12/30,27.81183333,-97.08875,2023-12-27T22:35:00Z,4.0,VFR,KRAS 272235Z AUTO 12004KT 10SM CLR 18/11 A3002 RMK AO2
RAW,KRAW,WARSAW MUNI,18/36,38.34784722,-93.3453875,2023-12-27T22:35:00Z,8.0,MVFR,KRAW 272235Z AUTO 33008KT 4SM -SN SCT012 BKN026 OVC046 00/00 A2990 RMK AO2
RBD,KRBD,DALLAS EXEC,17/35,32.68130555,-96.86877777,2023-12-27T21:53:00Z,9.0,VFR,KRBD 272153Z 31009KT 10SM CLR 10/M01 A3005 RMK AO2 SLP175 T01001006
RBE,KRBE,ROCK COUNTY,02/20,42.57112577,-99.56952019,,,,
RBG,KRBG,ROSEBURG RGNL,16/34,43.23933527,-123.3558525,2023-12-27T21:53:00Z,5.0,VFR,KRBG 272153Z AUTO 17005KT 10SM SCT050 BKN055 OVC070 15/07 A2982 RMK AO2 RAE24 SLP099 P0001 T01500072 $
RBL,KRBL,RED BLUFF MUNI,15/33,40.15030555,-122.2521944,2023-12-27T22:37:00Z,11.0,IFR,KRBL 272237Z AUTO 15011G20KT 1 1/2SM -RA BR BKN009 OVC014 11/09 A3006 RMK AO2 CIG 005V012 P0007 T01060089
RBO,KRBO,NUECES COUNTY,13/31,27.77813888,-97.69011111,2023-12-27T22:35:00Z,6.0,VFR,KRBO 272235Z AUTO 35006KT 10SM CLR 22/04 A3000 RMK AO2 T02200038
RBW,KRBW,LOWCOUNTRY RGNL,17/35,32.921,-80.64061111,2023-12-27T22:35:00Z,4.0,VFR,KRBW 272235Z AUTO 26004KT 10SM CLR 15/11 A2985 RMK AO2
RBY,PARY,RUBY,03/21,64.72722222,-155.4698889,,,,
RC0,,ROCK CREEK,07/25,46.72714916,-113.6575933,,,,
RCE,KRCE,CLARENCE E PAGE MUNI,17R/35L,35.48808333,-97.82355555,2023-12-27T22:35:00Z,12.0,VFR,KRCE 272235Z AUTO 33012KT 10SM 04/M04 RMK AO2 TSNO
RCK,KRCK,H H COFFIELD RGNL,17/35,30.63137638,-96.9894875,2023-12-27T22:30:00Z,4.0,VFR,LRCK 272230Z 36004KT CAVOK 04/01 Q1027 NOSIG
RCM,KRCM,SKYHAVEN,14/32,38.78417111,-93.80285416,2023-12-27T22:35:00Z,14.0,IFR,KRCM 272235Z AUTO 31014G23KT 10SM BKN009 OVC016 02/00 A2991 RMK AO2
RCP,KRCP,ROOKS COUNTY RGNL,18/36,39.34658333,-99.30463888,,,,
RCR,KRCR,FULTON COUNTY,11/29,41.06554752,-86.18170288,2023-12-27T22:35:00Z,7.0,VFR,KRCR 272235Z AUTO 31007KT 10SM OVC100 06/03 A2990 RMK AO2
RCT,KRCT,NARTRON FLD,17/35,43.90001638,-85.51671722,2023-12-27T22:00:00Z,2.0,VFR,LRCT 272200Z 31002KT 9000 FEW040 M00/M00 Q1028 BLU BLU
RCV,KRCV,ASTRONAUT KENT ROMINGER,03/21,37.7137838,-106.3520185,2023-12-27T22:35:00Z,3.0,VFR,KRCV 272235Z AUTO 11003KT 10SM CLR 00/M11 A3015 RMK AO2 T10031108
RCX,KRCX,RUSK COUNTY,01/19,45.49658563,-91.00018744,2023-12-27T22:35:00Z,4.0,VFR,KRCX 272235Z AUTO 02004KT 10SM OVC040 01/M02 A3009 RMK AO2 P0001 T00051022
RCZ,KRCZ,RICHMOND COUNTY,14/32,34.89130333,-79.75959777,2023-12-27T22:30:00Z,5.0,MVFR,KRCZ 272230Z AUTO 27005KT 10SM BKN024 BKN030 16/14 A2978 RMK AO2 T01630140
RDD,KRDD,REDDING RGNL,12/30,40.50897222,-122.2933889,2023-12-27T22:46:00Z,6.0,IFR,KRDD 272246Z 36006KT 1 1/2SM RA BR BKN016 BKN021 OVC026 11/09 A3005 RMK AO2 P0014 T01060089
RDG,KRDG,READING RGNL/CARL A SPAATZ FLD,18/36,40.37849861,-75.96524722,2023-12-27T21:54:00Z,5.0,IFR,KRDG 272154Z 07005KT 4SM RA BR OVC007 11/09 A2989 RMK AO2 RAB2058 CIG 006V011 SLP129 P0004 T01060089
RDK,KRDK,RED OAK MUNI,13/31,41.01083333,-95.25886111,2023-12-27T22:35:00Z,13.0,MVFR,KRDK 272235Z AUTO 34013G20KT 10SM OVC027 02/00 A3001 RMK AO2
RDM,KRDM,ROBERTS FLD,11/29,44.25406888,-121.1499714,2023-12-27T21:56:00Z,7.0,VFR,KRDM 272156Z 15007KT 10SM -RA BKN050 OVC060 09/01 A2992 RMK AO2 RAB31 SLP138 P0000 T00940006
RDU,KRDU,RALEIGH-DURHAM INTL,14/32,35.87763888,-78.78747222,2023-12-27T21:51:00Z,3.0,LIFR,KRDU 272151Z 28003KT 3/4SM -DZ BR BKN004 OVC020 17/16 A2975 RMK SFC VIS 2 SLP071 P0001 T01720156
RDV,,RED DEVIL,10/28,61.78805555,-157.35025,,,,
RED,KRED,RED LODGE,16/34,45.18483333,-109.2577097,,,,
REG,KREG,LOUISIANA RGNL,17/35,30.17136638,-90.94039305,2023-12-27T22:35:00Z,,VFR,KREG 272235Z AUTO 10SM CLR 16/08 A2995 RMK AO2 T01630083
REI,KREI,REDLANDS MUNI,08/26,34.08525,-117.1463889,,,,
REO,KREO,ROME STATE,03/21,42.57766,-117.88543,2023-12-27T21:52:00Z,0.0,VFR,KREO 272152Z AUTO 00000KT 00/M01 A3008 RMK AO1 SLP207 T00001006
RFD,KRFD,CHICAGO/ROCKFORD INTL,07/25,42.19536111,-89.09722222,2023-12-27T21:54:00Z,8.0,VFR,KRFD 272154Z 05008KT 10SM BKN090 BKN170 04/M01 A2997 RMK AO2 SLP156 T00441011
RFG,KRFG,ROOKE FLD,14/32,28.29581666,-97.32597194,,,,
RFI,KRFI,RUSK COUNTY,12/30,32.14172277,-94.85172805,2023-12-27T22:35:00Z,6.0,VFR,KRFI 272235Z AUTO 29006KT 10SM CLR 12/M01 A3004 RMK AO2 T01241006
RGA,KRGA,CENTRAL KENTUCKY RGNL,18/36,37.63153302,-84.33244041,2023-12-27T22:35:00Z,3.0,VFR,KRGA 272235Z AUTO 01003KT 10SM BKN031 07/04 A2987 RMK AO2
RGK,KRGK,RED WING RGNL,09/27,44.58936111,-92.48497222,2023-12-27T22:35:00Z,0.0,VFR,KRGK 272235Z AUTO 00000KT 10SM CLR 02/M04 A3007 RMK AO2
RHI,KRHI,RHINELANDER/ONEIDA COUNTY,15/33,45.63090055,-89.46662777,2023-12-27T21:53:00Z,3.0,VFR,KRHI 272153Z AUTO 34003KT 10SM CLR 01/M05 A3004 RMK AO2 SLP192 T00111050 $
RHP,KRHP,WESTERN CAROLINA RGNL,08/26,35.19522972,-83.86303861,2023-12-27T22:31:00Z,0.0,VFR,KRHP 272231Z AUTO 00000KT 10SM CLR 09/07 A2985 RMK AO2 T00910074
RHV,KRHV,REID-HILLVIEW OF SANTA CLARA COUNTY,13L/31R,37.33286111,-121.8198056,2023-12-27T22:47:00Z,11.0,VFR,"KRHV 272247Z 14011KT 10SM SCT035 BKN055 17/09 A3005 RMK PAEW TWYS Y, Z UNTIL 1600L"
RIC,KRIC,RICHMOND INTL,16/34,37.50518111,-77.31973861,2023-12-27T21:54:00Z,5.0,IFR,KRIC 272154Z 14005KT 7SM OVC006 16/14 A2976 RMK AO2 SLP081 T01560144
RID,KRID,RICHMOND MUNI,06/24,39.75608333,-84.84269444,,,,
RIF,KRIF,RICHFIELD MUNI,01/19,38.73411111,-112.1015833,,,,
RIL,KRIL,RIFLE GARFIELD COUNTY,08/26,39.52660666,-107.7279869,2023-12-27T21:53:00Z,0.0,VFR,KRIL 272153Z AUTO 00000KT 10SM CLR 03/M12 A3027 RMK AO2 SLP284 T00281117
RIR,KRIR,FLABOB,06/24,33.9887875,-117.4099097,,,,
RIU,KRIU,RANCHO MURIETA,04/22,38.48677777,-121.1027778,,,,
RIV,KRIV,MARCH ARB,14/32,33.88194333,-117.2590169,2023-12-27T21:55:00Z,0.0,VFR,KRIV 272155Z AUTO 00000KT 10SM CLR 20/05 A3011 RMK AO2 SLP193 T01960049
RIW,KRIW,CENTRAL WYOMING RGNL,01/19,43.06425,-108.4598333,2023-12-27T21:53:00Z,3.0,VFR,KRIW 272153Z AUTO 07003KT 10SM CLR M03/M11 A3022 RMK AO2 SLP293 T10331111
RJD,KRJD,GOODEN AIRPARK,12/30,38.97011333,-75.86632444,,,,
RK1,,KAVIK STRIP,08/26,69.67677638,-146.9000458,,,,
RKD,KRKD,KNOX COUNTY RGNL,03/21,44.06014222,-69.09966972,2023-12-27T21:56:00Z,6.0,LIFR,KRKD 272156Z AUTO 03006KT 1/2SM FG OVC002 04/04 A3008 RMK AO2 RAE47 SLP186 P0000 T00440044
RKP,KRKP,ARANSAS COUNTY,18/36,28.08622222,-97.04369444,2023-12-27T21:53:00Z,4.0,VFR,KRKP 272153Z AUTO VRB04KT 9SM CLR 22/04 A2999 RMK AO2 SLP158 T02170039 $
RKR,KRKR,ROBERT S KERR,18/36,35.02163888,-94.62125,2023-12-27T22:35:00Z,5.0,VFR,KRKR 272235Z AUTO 32005KT 10SM OVC046 05/M04 A3004 RMK AO2
RKS,KRKS,SOUTHWEST WYOMING RGNL,09/27,41.59422222,-109.0651944,2023-12-27T21:54:00Z,3.0,VFR,KRKS 272154Z AUTO 36003KT 10SM CLR M03/M08 A3026 RMK AO2 SLP314 T10331078
RKW,KRKW,ROCKWOOD MUNI,04/22,35.92233333,-84.68977777,,,,
RLD,KRLD,RICHLAND,01/19,46.30563944,-119.3041894,2023-12-27T22:35:00Z,3.0,VFR,KRLD 272235Z AUTO 08003KT 10SM -RA OVC075 06/05 A3005 RMK AO2 P0001 T00630047
RME,KRME,GRIFFISS INTL,15/33,43.23379944,-75.40702583,2023-12-27T22:18:00Z,7.0,VFR,KRME 272218Z 11007KT 10SM -RA SCT025 OVC060 08/07 A2994 RMK AO2 RAB12 P0000 T00830072
RMG,KRMG,RICHARD B RUSSELL RGNL - J H TOWERS FLD,01/19,34.35077777,-85.15866666,2023-12-27T22:00:00Z,7.0,VFR,VRMG 272200Z 04007KT 9000 -RA SCT016TCU OVC090 27/25 Q1009 TEMPO 4000 TSRA
RMN,KRMN,STAFFORD RGNL,15/33,38.39811111,-77.45547222,2023-12-27T22:35:00Z,6.0,VFR,KRMN 272235Z AUTO 08006KT 7SM RA SCT005 BKN065 OVC080 12/12 A2976 RMK AO2 P0009 T01230123
RMP,PFMP,RAMPART,11/29,65.5079,-150.1408333,,,,
RMY,KRMY,BROOKS FLD,10/28,42.25119316,-84.9554443,2023-12-27T22:35:00Z,0.0,IFR,KRMY 272235Z AUTO 00000KT 10SM OVC006 05/03 A2989 RMK AO2 T00460033
RNC,KRNC,WARREN COUNTY MEML,05/23,35.69869888,-85.84382027,2023-12-27T22:30:00Z,3.0,VFR,KRNC 272230Z AUTO 24003KT 10SM CLR 10/M01 A2983 RMK A01
RNH,KRNH,NEW RICHMOND RGNL,04/22,45.14777777,-92.53916666,2023-12-27T22:35:00Z,0.0,VFR,KRNH 272235Z AUTO 00000KT 10SM CLR 00/M04 A3009 RMK AO2 T10021037
RNM,KRNM,RAMONA,09/27,33.03916666,-116.91525,2023-12-27T21:53:00Z,0.0,VFR,KRNM 272153Z 00000KT 10SM CLR 19/08 A3011 RMK AO2 SLP192 T01940078
RNO,KRNO,RENO/TAHOE INTL,08/26,39.49911111,-119.7681111,2023-12-27T21:55:00Z,5.0,VFR,KRNO 272155Z 27005KT 10SM FEW120 BKN200 17/M10 A2999 RMK AO2 SLP134 T01671100
RNP,KRNP,OWOSSO COMMUNITY,18/36,42.99297222,-84.1385,2023-12-27T22:35:00Z,5.0,LIFR,KRNP 272235Z AUTO 32005KT 10SM OVC004 06/04 A2990 RMK AO2 T00550043
RNT,KRNT,RENTON MUNI,16/34,47.49313888,-122.21575,2023-12-27T21:53:00Z,9.0,VFR,KRNT 272153Z 13009G18KT 10SM OVC090 13/02 A2976 RMK AO2 SLP083 T01330017
RNV,KRNV,CLEVELAND MUNI,18/36,33.76252777,-90.75794444,,,,
ROA,KROA,ROANOKE/BLACKSBURG RGNL (WOODRUM FLD),16/34,37.32547222,-79.97541666,2023-12-27T21:54:00Z,3.0,VFR,KROA 272154Z VRB03KT 10SM FEW016 BKN032 14/11 A2980 RMK AO2 SLP087 T01440111
ROC,KROC,FREDERICK DOUGLASS/GREATER ROCHESTER INTL,04/22,43.11914361,-77.67186888,2023-12-27T22:00:00Z,11.0,MVFR,MROC 272200Z 24011KT 9999 BKN020 24/21 A2998 NOSIG
ROG,KROG,ROGERS EXEC - CARTER FLD,02/20,36.37241666,-94.10697222,2023-12-27T21:58:00Z,11.0,MVFR,KROG 272158Z 30011KT 10SM OVC021 01/M03 A2996 RMK AO2 SLP152 T00111028
ROR,PTRO,PALAU INTL,09/27,7.36730555,134.54425,,,,
ROS,KROS,RUSH CITY RGNL,16/34,45.69715416,-92.95217555,2023-12-27T22:35:00Z,0.0,VFR,KROS 272235Z AUTO 00000KT 10SM SCT034 00/M03 A3008 RMK AO2 T00001026
ROW,KROW,ROSWELL AIR CENTER,03/21,33.2998775,-104.5294031,2023-12-27T21:51:00Z,5.0,VFR,KROW 272151Z 19005KT 10SM CLR 14/M05 A3008 RMK AO2 SLP170 T01391050
ROX,KROX,ROSEAU MUNI/RUDY BILLBERG FLD,16/34,48.85625,-95.69694444,2023-12-27T22:35:00Z,0.0,LIFR,KROX 272235Z AUTO 00000KT 3/4SM BR OVC003 02/02 A3012 RMK AO2
RPB,KRPB,BELLEVILLE MUNI,18/36,39.81775972,-97.65958638,,,,
RPD,KRPD,RICE LAKE RGNL/CARL'S FLD,01/19,45.42011111,-91.77333333,2023-12-27T22:35:00Z,0.0,VFR,KRPD 272235Z AUTO 00000KT 10SM BKN034 01/M03 A3009 RMK AO2 T00061034
RPH,KRPH,GRAHAM MUNI,03/21,33.11072222,-98.55477777,2023-12-27T22:35:00Z,9.0,VFR,KRPH 272235Z AUTO 33009KT 7SM BKN043 09/M01 A3008 RMK AO2 T00921008
RPJ,KRPJ,ROCHELLE MUNI/KORITZ FLD,07/25,41.89263888,-89.07961111,2023-12-27T22:35:00Z,12.0,VFR,KRPJ 272235Z AUTO 05012KT 10SM CLR 03/M01 A2995 RMK AO2 T00301007 TSNO
RPX,KRPX,ROUNDUP,16/34,46.475,-108.5434167,2023-12-27T21:55:00Z,8.0,VFR,KRPX 272155Z AUTO 16008KT 07/M08 A3004 RMK Roundup 
RQB,KRQB,ROBEN-HOOD,14/32,43.72263888,-85.50405555,2023-12-27T22:35:00Z,8.0,MVFR,KRQB 272235Z AUTO 35008KT 10SM OVC013 04/01 A2994 RMK AO2 T00380006
RQE,KRQE,WINDOW ROCK,03/21,35.65205555,-109.0673889,2023-12-27T21:53:00Z,9.0,VFR,KRQE 272153Z AUTO 34009KT 10SM CLR 09/M18 A3017 RMK AO2 SLP203 T00891183
RQO,KRQO,EL RENO RGNL,17/35,35.47272222,-98.00575,2023-12-27T22:35:00Z,13.0,VFR,KRQO 272235Z AUTO 34013KT OVC042 04/M03 A3009 RMK AO2 PWINO T00421029
RRL,KRRL,MERRILL MUNI,07/25,45.19891666,-89.71286111,2023-12-27T22:35:00Z,5.0,VFR,KRRL 272235Z AUTO 03005KT 10SM SCT036 01/M04 A3004 RMK AO2 T00051044 TSNO
RRQ,KRRQ,ROCK RAPIDS MUNI,16/34,43.45222111,-96.17977694,,,,
RRT,KRRT,WARROAD INTL MEML,04/22,48.94147222,-95.34847222,2023-12-27T22:35:00Z,0.0,IFR,KRRT 272235Z AUTO 00000KT 1SM BR 00/M02 A3013 RMK AO2
RSH,PARS,RUSSIAN MISSION,18/36,61.77489027,-161.3193987,,,,
RSL,KRSL,RUSSELL MUNI,03/21,38.87136358,-98.81160372,2023-12-27T21:53:00Z,10.0,MVFR,KRSL 272153Z AUTO 33010KT 10SM OVC025 00/M04 A3006 RMK AO2 SLP200 T00001044 $
RSN,KRSN,RUSTON RGNL,18/36,32.51322472,-92.58844472,,,,
RST,KRST,ROCHESTER INTL,13/31,43.90827777,-92.50002777,2023-12-27T22:33:00Z,5.0,VFR,KRST 272233Z 36005KT 10SM SCT024 01/M03 A3003 RMK AO2 T00061028
RSV,KRSV,CRAWFORD COUNTY,17/35,39.01602777,-87.64977777,2023-12-27T22:30:00Z,3.0,VFR,LRSV 272230Z 20003KT CAVOK 02/M02 Q1024
RSW,KRSW,SOUTHWEST FLORIDA INTL,06/24,26.53616388,-81.755155,2023-12-27T21:53:00Z,6.0,VFR,KRSW 272153Z COR 29006KT 10SM SCT100 22/15 A2992 RMK AO2 SLP130 T02170150
RTN,KRTN,RATON MUNI/CREWS FLD,07/25,36.74243916,-104.5017264,2023-12-27T21:53:00Z,17.0,VFR,KRTN 272153Z AUTO 04017G26KT 10SM CLR 05/M09 A3008 RMK AO2 PK WND 04027/2143 SLP183 T00501089
RTS,KRTS,RENO/STEAD,08/26,39.66817694,-119.8764396,2023-12-27T22:35:00Z,12.0,VFR,KRTS 272235Z AUTO 25012G26KT 210V290 10SM CLR 15/M16 A3004 RMK AO2
RUE,KRUE,RUSSELLVILLE RGNL,07/25,35.25928305,-93.09262222,2023-12-27T21:53:00Z,11.0,VFR,KRUE 272153Z AUTO 29011KT 10SM OVC046 05/M06 A2997 RMK AO2 SLP148 T00501056
RUG,KRUG,RUGBY MUNI,12/30,48.39036111,-100.0242778,2023-12-27T22:35:00Z,4.0,VFR,KRUG 272235Z AUTO 30004KT 10SM CLR M00/M06 A3015 RMK AO2
RUQ,KRUQ,MID-CAROLINA RGNL,02/20,35.64588333,-80.52029166,2023-12-27T22:30:00Z,0.0,VFR,KRUQ 272230Z AUTO 00000KT 10SM CLR 13/12 A2978 RMK AO2 T01270120
RUT,KRUT,RUTLAND/SOUTHERN VERMONT RGNL,13/31,43.52973027,-72.94962611,2023-12-27T22:47:00Z,5.0,MVFR,KRUT 272247Z AUTO 12005KT 3SM BR FEW027 OVC060 08/08 A3000 RMK AO2 $
RVF,KRVF,RUBY VALLEY FLD,07/25,45.53541666,-112.3022778,2023-12-27T22:35:00Z,8.0,VFR,KRVF 272235Z AUTO 17008KT 10SM CLR M01/M07 A3022 RMK AO2
RVJ,KRVJ,SWINTON SMITH FLD AT REIDSVILLE MUNI,11/29,32.05948722,-82.15357666,2023-12-27T22:35:00Z,0.0,VFR,KRVJ 272235Z AUTO 00000KT 10SM CLR 15/09 A2989 RMK AO2 T01540086
RVL,KRVL,MIFFLIN COUNTY,06/24,40.67738888,-77.62683333,2023-12-27T22:35:00Z,0.0,IFR,KRVL 272235Z AUTO 00000KT 1 1/4SM -RA FEW002 OVC018 09/09 A2989 RMK AO2
RVN,KRVN,HAWKINS COUNTY,07/25,36.45757916,-82.88503416,,,,
RVR,TJRV,JOSE APONTE DE LA TORRE,07/25,18.24511111,-65.64342361,,,,
RVS,KRVS,TULSA RIVERSIDE,01R/19L,36.03958388,-95.98459527,2023-12-27T21:53:00Z,5.0,VFR,KRVS 272153Z 32005KT 10SM CLR 06/M05 A3003 RMK AO2 SLP177 T00611050
RWF,KRWF,REDWOOD FALLS MUNI,05/23,44.54688888,-95.082,2023-12-27T21:53:00Z,3.0,VFR,KRWF 272153Z AUTO 28003KT 10SM BKN043 OVC070 01/M03 A3007 RMK AO2 SLP194 T00061033
RWI,KRWI,ROCKY MOUNT/WILSON RGNL,04/22,35.85625277,-77.89193333,2023-12-27T22:30:00Z,25.0,VFR,URWI 272230Z AUTO 28013G19MPS 9999 // ///023/// 04/01 Q1010
RWL,KRWL,RAWLINS MUNI/HARVEY FLD,04/22,41.80572222,-107.2003333,2023-12-27T21:53:00Z,9.0,VFR,KRWL 272153Z AUTO 24009KT 10SM CLR M03/M11 A3024 RMK AO2 SLP282 T10281111
RWN,KRWN,ARENS FLD,09/27,41.09226305,-86.61287111,,,,
RWV,KRWV,CALDWELL MUNI,15/33,30.51547427,-96.70408577,2023-12-27T22:35:00Z,10.0,VFR,KRWV 272235Z AUTO 34010KT 10SM CLR 15/01 A3004 RMK AO2 T01460011
RXE,KRXE,REXBURG-MADISON COUNTY,17/35,43.83391666,-111.8051111,2023-12-27T21:53:00Z,5.0,MVFR,KRXE 272153Z AUTO 02005KT 10SM OVC018 M03/M08 A3033 RMK AO2 SLP323 T10331078
RYN,KRYN,RYAN FLD,06R/24L,32.14221111,-111.1745792,,,,
RYV,KRYV,WATERTOWN MUNI,05/23,43.16963888,-88.72322222,2023-12-27T22:35:00Z,5.0,VFR,KRYV 272235Z AUTO 03005KT 10SM SCT090 02/M02 A3000 RMK AO2 T00171016
RYW,KRYW,LAGO VISTA TX/RUSTY ALLEN,15/33,30.49858333,-97.96947222,2023-12-27T22:35:00Z,6.0,VFR,KRYW 272235Z AUTO 33006KT 10SM CLR 15/M01 A3003 RMK AO2 T01451006
RYY,KRYY,COBB COUNTY INTL/MCCOLLUM FLD,09/27,34.01316666,-84.59702777,2023-12-27T21:50:00Z,0.0,VFR,KRYY 272150Z 00000KT 10SM CLR 12/06 A2988 RMK AO2 SLP115 T01170056 $
RZL,KRZL,JASPER COUNTY,18/36,40.94782366,-87.18264808,2023-12-27T22:35:00Z,12.0,VFR,KRZL 272235Z AUTO 02012KT 10SM OVC090 04/02 A2993 RMK AO2
RZN,KRZN,BURNETT COUNTY,14/32,45.82346388,-92.37369305,2023-12-27T22:35:00Z,0.0,VFR,KRZN 272235Z AUTO 00000KT 10SM CLR 00/M01 A3009 RMK AO2 T00001013
RZR,KRZR,CLEVELAND RGNL JETPORT,03/21,35.21233638,-84.79919888,2023-12-27T22:35:00Z,4.0,VFR,KRZR 272235Z AUTO 18004KT 10SM BKN070 11/09 A2983 RMK A01
RZT,KRZT,ROSS COUNTY,05/23,39.44041666,-83.02305555,2023-12-27T22:35:00Z,3.0,IFR,KRZT 272235Z AUTO 31003KT 10SM OVC007 06/06 A2986 RMK AO2 PWINO
S00,,OPHEIM,16/34,48.86669166,-106.4172542,,,,
S01,,CONRAD,15/33,48.16827777,-111.9764444,,,,
S03,,ASHLAND MUNI/SUMNER PARKER FLD,12/30,42.19027777,-122.6606389,,,,
S04,,CONDON USFS,13/31,47.53882583,-113.7203683,,,,
S05,,BANDON STATE,16/34,43.08647222,-124.4078611,,,,
S09,,HOT SPRINGS,06/24,47.61243722,-114.6134628,,,,
S10,,LAKE CHELAN,02/20,47.86601027,-119.9427017,,,,
S12,,ALBANY MUNI,16/34,44.63781527,-123.0594489,2023-12-27T22:35:00Z,4.0,VFR,KS12 272235Z AUTO VRB04KT 6SM -RA BR SCT050 BKN060 09/09 A2983 RMK AO2
S16,,COPALIS STATE,14/32,47.14485972,-124.1892514,,,,
S17,,TWIN LAKES,06/24,33.64569138,-81.86705638,,,,
S18,,FORKS,04/22,47.93771833,-124.3959206,,,,
S19,,MC CORMICK COUNTY,18/36,33.90809694,-82.26693,,,,
S20,,GOLDENDALE,07/25,45.83207388,-120.8452747,,,,
S21,,SUNRIVER,18/36,43.8763125,-121.4530514,2023-12-27T22:35:00Z,12.0,MVFR,KS21 272235Z AUTO 20012G17KT 10SM BKN028 OVC033 05/02 A2995 RMK AO2
S23,,IONE MUNI,H1,48.70843888,-117.4131306,,,,
S24,,SANDUSKY COUNTY RGNL,06/24,41.29575,-83.03722222,2023-12-27T22:35:00Z,0.0,LIFR,KS24 272235Z AUTO 00000KT 5SM BR OVC004 08/08 A2985 RMK AO2
S25,,WATFORD CITY MUNI,12/30,47.79299916,-103.2493522,2023-12-27T22:35:00Z,0.0,VFR,KS25 272235Z AUTO 00000KT 10SM CLR 01/M05 A3018 RMK AO2
S27,,KALISPELL CITY,13/31,48.17856944,-114.3037408,,,,
S28,,INTL PEACE GARDEN,11/29,48.99730555,-100.0436944,,,,
S30,,LEBANON STATE,16/34,44.53113888,-122.9297222,,,,
S31,,LOPEZ ISLAND,16/34,48.48391666,-122.9376667,,,,
S32,,COOPERSTOWN MUNI,13/31,47.42277361,-98.10587138,,,,
S33,,MADRAS MUNI,16/34,44.67016333,-121.1551492,2023-12-27T22:35:00Z,6.0,LIFR,KS33 272235Z AUTO 30006KT 5SM BR OVC003 01/00 A2995 RMK AO2
S34,,PLAINS,13/31,47.47355583,-114.9070814,2023-12-27T22:35:00Z,8.0,VFR,KS34 272235Z AUTO 14008KT 10SM SCT075 OVC095 M01/M04 A3016 RMK AO2
S35,,OKANOGAN LEGION,04/22,48.36191805,-119.56756,,,,
S36,,NORMAN GRIER FLD,15/33,47.33709666,-122.1035364,,,,
S37,,SMOKETOWN,10/28,40.04159305,-76.20189583,,,,
S39,,PRINEVILLE,11/29,44.28785444,-120.9054975,2023-12-27T22:35:00Z,10.0,VFR,KS39 272235Z AUTO 10010KT 10SM SCT060 BKN090 BKN110 08/M00 A2993 RMK AO2
S40,,PROSSER,08/26,46.21336111,-119.7955556,,,,
S42,,SPRINGER MUNI,01/19,36.33152222,-104.6178514,,,,
S43,,HARVEY FLD,15R/33L,47.90486802,-122.1027436,,,,
S45,,SILETZ BAY STATE,17/35,44.87677777,-124.0285556,,,,
S48,,COUNTRY SQUIRE AIRPARK,07/25,45.35444444,-122.2680556,,,,
S49,,MILLER MEML AIRPARK,10/28,43.96377166,-117.2593425,,,,
S50,,AUBURN MUNI,16/34,47.327625,-122.226655,,,,
S51,,ANDY MC BETH,11/29,41.51202777,-123.9956667,,,,
S52,,METHOW VALLEY STATE,13/31,48.42494833,-120.1458856,2023-12-27T22:35:00Z,0.0,MVFR,KS52 272235Z AUTO 00000KT 4SM -SN BR SCT035 BKN050 OVC110 01/00 A3005 RMK AO2 T00051001
S59,,LIBBY,15/33,48.28383333,-115.4902222,,,,
S64,,STANFORD/BIGGERSTAFF FLD,07/25,47.14686305,-110.2300456,,,,
S66,,HOMEDALE MUNI,13/31,43.61463888,-116.9213611,,,,
S68,,OROFINO MUNI,08/26,46.49202111,-116.2753994,,,,
S69,,LINCOLN,04/22,46.9547025,-112.6502169,,,,
S70,,OTHELLO MUNI,07/25,46.7942175,-119.0801089,,,,
S71,,EDGAR G OBIE,08/26,48.59211111,-109.2506111,2023-12-27T22:45:00Z,0.0,VFR,KS71 272245Z AUTO 00000KT 10SM 03/M04 A3013 
S72,,JACK A BUELL,10/28,47.32581111,-116.5766778,,,,
S73,,KAMIAH MUNI,14/32,46.21977777,-116.0138056,,,,
S75,,PAYETTE MUNI,13/31,44.09397361,-116.9031056,,,,
S77,,MAGEE,01/19,47.84155833,-116.2519944,,,,
S78,,EMMETT MUNI,10/28,43.85265,-116.5390694,,,,
S79,,GREEN SEA,09/27,34.18555555,-79.0205875,,,,
S81,,INDIAN CREEK USFS,04/22,44.76113888,-115.1073611,,,,
S82,,KOOSKIA MUNI,14/32,46.13267138,-115.9787525,,,,
S83,,SHOSHONE COUNTY,07/25,47.54726111,-116.1890639,,,,
S84,,COTTONWOOD MUNI,07/25,46.03876972,-116.3315347,,,,
S85,,BIG SKY FLD,08/26,48.15355972,-104.5040556,2023-12-27T22:40:00Z,3.0,VFR,KS85 272240Z AUTO 25003KT 10SM CLR 02/M03 A3016 RMK A01 Culbertson 
S87,,WEISER MUNI,12/30,44.20466666,-116.9605278,,,,
S88,,SKYKOMISH STATE,06/24,47.71093555,-121.3390564,,,,
S89,,CRAIGMONT MUNI,07/25,46.24772222,-116.4793611,,,,
S90,,ELK CITY,14/35,45.82268583,-115.4398497,,,,
S92,,FISH LAKE /USFS/,05/23,46.33019527,-115.0631742,,,,
S93,,CLE ELUM MUNI,07/25,47.19424275,-120.8840354,,,,
S94,,PORT OF WHITMAN BUSINESS AIR CENTER,08/26,46.85870722,-117.4140811,,,,
S95,,MARTIN FLD,05/23,46.04693916,-118.4171778,,,,
S97,,ANDERSON FLD,07/25,48.10472861,-119.7199156,,,,
SAA,KSAA,SHIVELY FLD,05/23,41.44352777,-106.8275278,2023-12-27T22:35:00Z,0.0,VFR,KSAA 272235Z AUTO 00000KT 10SM CLR M03/M10 A3026 RMK AO2
SAC,KSAC,SACRAMENTO EXEC,02/20,38.51286111,-121.4933003,2023-12-27T21:50:00Z,3.0,VFR,MSAC 272150Z 22003KT CAVOK 32/24 Q1008 A2979
SAD,KSAD,SAFFORD RGNL,12/30,32.85334111,-109.6350819,2023-12-27T21:51:00Z,3.0,VFR,KSAD 272151Z AUTO VRB03KT 10SM CLR 13/M10 A3014 RMK AO2 SLP197 T01281100
SAF,KSAF,SANTA FE RGNL,15/33,35.61711111,-106.0894167,2023-12-27T21:53:00Z,9.0,VFR,KSAF 272153Z 24009KT 10SM CLR 06/M09 A3013 RMK AO2 SLP193 T00611094
SAN,KSAN,SAN DIEGO INTL,09/27,32.73356277,-117.1896633,2023-12-27T21:51:00Z,6.0,VFR,KSAN 272151Z 30006KT 10SM BKN250 18/13 A3013 RMK AO2 SLP201 T01780128 $
SAR,KSAR,SPARTA COMMUNITY-HUNTER FLD,09/27,38.14886361,-89.69850388,2023-12-27T22:35:00Z,4.0,LIFR,KSAR 272235Z AUTO 26004KT 4SM -SN BKN004 OVC025 00/00 A2988 RMK AO2 P0001 T00030003
SAS,KSAS,SALTON SEA,07/25,33.24119444,-115.9525833,,,,
SAT,KSAT,SAN ANTONIO INTL,13L/31R,29.53395833,-98.46905694,2023-12-27T21:51:00Z,9.0,VFR,KSAT 272151Z 31009KT 10SM FEW250 19/M01 A3000 RMK AO2 SLP149 T01941006
SAV,KSAV,SAVANNAH/HILTON HEAD INTL,10/28,32.12758333,-81.20213888,2023-12-27T21:53:00Z,5.0,VFR,KSAV 272153Z 26005KT 10SM BKN190 OVC220 18/10 A2986 RMK AO2 SLP109 T01780100
SAW,KSAW,MARQUETTE/SAWYER RGNL,01/19,46.34915833,-87.39637166,2023-12-27T22:47:00Z,6.0,MVFR,KSAW 272247Z 03006KT 10SM BKN029 02/M01 A3004
SAZ,KSAZ,STAPLES MUNI,14/32,46.38087944,-94.80660166,2023-12-27T22:35:00Z,3.0,VFR,KSAZ 272235Z AUTO 36003KT 10SM 03/02 A3005 RMK AO2
SBA,KSBA,SANTA BARBARA MUNI,15R/33L,34.42619166,-119.8414928,2023-12-27T21:53:00Z,9.0,VFR,KSBA 272153Z 26009KT 10SM FEW020 SCT045 17/11 A3015 RMK AO2 SLP208 T01670106
SBD,KSBD,SAN BERNARDINO INTL,06/24,34.09536111,-117.2348889,2023-12-27T21:51:00Z,0.0,VFR,KSBD 272151Z 00000KT 10SM BKN180 20/02 A3012
SBM,KSBM,SHEBOYGAN COUNTY MEML,13/31,43.76977777,-87.85172222,2023-12-27T21:53:00Z,5.0,VFR,KSBM 272153Z AUTO 02005KT 10SM CLR 02/M02 A3001 RMK AO2 SLP170 T00221022
SBN,KSBN,SOUTH BEND INTL,09L/27R,41.70822388,-86.3173375,2023-12-27T21:54:00Z,9.0,VFR,KSBN 272154Z 35009KT 10SM CLR 07/01 A2992 RMK AO2 SLP138 T00670011
SBO,KSBO,EAST GEORGIA RGNL,14/32,32.60913888,-82.36994444,2023-12-27T22:35:00Z,4.0,VFR,KSBO 272235Z AUTO 25004KT 10SM CLR 16/07 A2989 RMK AO2
SBP,KSBP,SAN LUIS COUNTY RGNL,07/25,35.2372725,-120.6426028,2023-12-27T21:56:00Z,6.0,VFR,KSBP 272156Z 18006KT 10SM FEW032 18/09 A3014
SBS,KSBS,STEAMBOAT SPRINGS/BOB ADAMS FLD,14/32,40.51626083,-106.8663017,2023-12-27T22:35:00Z,0.0,VFR,KSBS 272235Z AUTO 00000KT 10SM CLR M07/M13 A3026 RMK AO1 T10661130
SBU,KSBU,BLUE EARTH MUNI,03/21,43.59536111,-94.09286111,,,,
SBX,KSBX,SHELBY,05/23,48.54069444,-111.87125,2023-12-27T22:35:00Z,9.0,VFR,KSBX 272235Z AUTO 15009G16KT 10SM CLR 07/M07 A3005 RMK AO2
SBY,KSBY,SALISBURY-OCEAN CITY WICOMICO RGNL,14/32,38.34018944,-75.50947805,2023-12-27T22:40:00Z,8.0,MVFR,KSBY 272240Z 11008KT 5SM -RA BR FEW008 BKN018 OVC037 14/14 A2980 RMK AO2 RAB13 P0001 T01440139
SCA,KSCA,SIDNEY MUNI,05/23,40.24127777,-84.14786111,,,,
SCB,KSCB,SCRIBNER STATE,17/35,41.61033333,-96.62986111,2023-12-27T22:30:00Z,5.0,VFR,YSCB 272230Z AUTO 27005KT 230V320 9999 // NCD 21/15 Q1012 RF00.0/000.0
SCC,PASC,DEADHORSE,06/24,70.19475411,-148.4651649,2023-12-27T22:30:00Z,12.0,VFR,USCC 272230Z 23006MPS 9999 SCT033CB M02/M06 Q0997 R27/490545 NOSIG RMK QFE728
SCD,KSCD,MERKEL FLD SYLACAUGA MUNI,09/27,33.17183333,-86.30552777,2023-12-27T22:35:00Z,4.0,VFR,KSCD 272235Z AUTO 21004KT 10SM BKN090 OVC110 11/04 A2990 RMK AO2 T01070040
SCH,KSCH,SCHENECTADY COUNTY,10/28,42.85271833,-73.92956444,2023-12-27T21:47:00Z,0.0,IFR,KSCH 272147Z 00000KT 5SM BR OVC005 08/08 A3000
SCK,KSCK,STOCKTON METRO,11R/29L,37.89441027,-121.23874,2023-12-27T21:55:00Z,13.0,VFR,KSCK 272155Z 14013KT 10SM FEW075 SCT085 18/08 A3002 RMK AO2 SLP166 T01780083
SCM,PACM,SCAMMON BAY,10/28,61.84454166,-165.57375,2023-12-27T22:30:00Z,14.0,MVFR,USCM 272230Z 22007MPS 9999 -SHSN BKN018CB M01/M04 Q0998 R18/950244 NOSIG RMK QFE712
SCR,KSCR,SILER CITY MUNI,04/22,35.7042745,-79.50429758,2023-12-27T22:25:00Z,0.0,MVFR,KSCR 272225Z AUTO 00000KT 10SM SCT006 BKN013 OVC026 15/15 A2978 RMK AO2 T01500150
SCX,KSCX,SCOTT MUNI,05/23,36.45569194,-84.58575,2023-12-27T22:35:00Z,3.0,VFR,KSCX 272235Z AUTO 36003KT 10SM CLR 08/05 A2982 RMK A01
SDA,KSDA,SHENANDOAH MUNI,12/30,40.75158722,-95.41362416,2023-12-27T22:35:00Z,13.0,MVFR,KSDA 272235Z AUTO 34013G20KT 10SM FEW016 OVC028 01/00 A3000 RMK AO2
SDC,KSDC,WILLIAMSON/SODUS,10/28,43.2345975,-77.11946388,2023-12-27T22:35:00Z,5.0,VFR,KSDC 272235Z AUTO 12005KT 10SM -RA SCT008 OVC039 10/09 A2987 RMK AO2 P0002
SDF,KSDF,LOUISVILLE MUHAMMAD ALI INTL,11/29,38.174085,-85.73649361,2023-12-27T22:20:00Z,6.0,VFR,ESDF 272220Z AUTO 10006KT 9999 OVC086/// M02/M03 Q1013
SDL,KSDL,SCOTTSDALE,03/21,33.62288888,-111.9105278,2023-12-27T21:53:00Z,3.0,VFR,KSDL 272153Z VRB03KT 10SM CLR 17/M02 A3014 RMK AO2 SLP199 T01721017
SDM,KSDM,BROWN FLD MUNI,08R/26L,32.57227777,-116.9801667,2023-12-27T21:53:00Z,0.0,VFR,KSDM 272153Z 00000KT 7SM CLR 18/12 A3010 RMK AO2 SLP192 T01830122
SDP,PASD,SAND POINT,14/32,55.31369527,-160.5214247,,,,
SDY,KSDY,SIDNEY-RICHLAND RGNL,11/29,47.70686111,-104.1925556,2023-12-27T21:56:00Z,8.0,VFR,KSDY 272156Z AUTO 21008KT 10SM CLR 03/M06 A3017 RMK AO2 SLP253 T00331056
SEA,KSEA,SEATTLE-TACOMA INTL,16L/34R,47.44988888,-122.3117778,2023-12-27T21:53:00Z,12.0,VFR,KSEA 272153Z 13012KT 10SM OVC080 12/01 A2977 RMK AO2 SLP086 T01220011
SEE,KSEE,GILLESPIE FLD,17/35,32.82622222,-116.9724444,2023-12-27T21:47:00Z,0.0,VFR,KSEE 272147Z 00000KT 10SM SKC 20/09 A3011
SEF,KSEF,SEBRING RGNL,01/19,27.45638888,-81.34238888,2023-12-27T22:35:00Z,5.0,VFR,KSEF 272235Z AUTO 34005KT 10SM SCT120 21/08 A2994 RMK AO2 T02050081
SEG,KSEG,PENN VALLEY,17/35,40.82123472,-76.86417222,2023-12-27T22:33:00Z,3.0,MVFR,KSEG 272233Z AUTO 27003KT 3SM RA BR OVC014 10/08 A2988 RMK AO2 P0004 T01000083
SEM,KSEM,CRAIG FLD,15/33,32.34394666,-86.98780555,2023-12-27T22:40:00Z,5.0,VFR,KSEM 272240Z AUTO 18005KT 10SM CLR 11/06 A2991 RMK AO2
SEP,KSEP,STEPHENVILLE CLARK RGNL,14/32,32.21533333,-98.17766666,2023-12-27T22:35:00Z,10.0,VFR,KSEP 272235Z AUTO 33010KT 10SM CLR 10/00 A3010 RMK AO2 T01031005
SER,KSER,FREEMAN MUNI,09U/27U,38.92425644,-85.90972058,,,,
SET,KSET,ST CHARLES COUNTY RGNL/SMARTT FLD,18/36,38.92969444,-90.42997222,2023-12-27T22:37:00Z,7.0,IFR,KSET 272237Z AUTO 23007KT 1 3/4SM -SN BR FEW007 BKN013 OVC018 01/00 A2985 RMK AO2 P0001 T00110000
SEZ,KSEZ,SEDONA,03/21,34.84858916,-111.7884475,2023-12-27T22:35:00Z,4.0,VFR,KSEZ 272235Z AUTO 19004KT 10SM CLR 12/M10 A3018 RMK AO2
SFB,KSFB,ORLANDO SANFORD INTL,09R/27L,28.77717805,-81.23491388,2023-12-27T21:53:00Z,5.0,VFR,KSFB 272153Z 34005KT 10SM CLR 20/08 A2992 RMK AO2 SLP133 T02000078
SFF,KSFF,FELTS FLD,04R/22L,47.68294055,-117.3224261,2023-12-27T21:53:00Z,0.0,VFR,KSFF 272153Z 00000KT 10SM CLR 04/01 A3003 RMK AO2 SLP181 T00390006
SFM,KSFM,SANFORD SEACOAST RGNL,14/32,43.39380555,-70.708,2023-12-27T22:31:00Z,0.0,LIFR,KSFM 272231Z AUTO 00000KT 1/4SM FG OVC003 06/06 A3007 RMK AO2
SFO,KSFO,SAN FRANCISCO INTL,01R/19L,37.61880555,-122.3754167,2023-12-27T22:31:00Z,13.0,IFR,KSFO 272231Z 14013G21KT 2 1/2SM -RA FEW004 OVC018 15/12 A3002 RMK AO2 P0001 T01500117
SFQ,KSFQ,SUFFOLK EXEC,07/25,36.68288844,-76.59962316,2023-12-27T22:35:00Z,0.0,MVFR,KSFQ 272235Z AUTO 00000KT 10SM OVC011 17/17 A2977 RMK AO2 T01670165
SFY,KSFY,TRI-TOWNSHIP,13/31,42.04583333,-90.10794444,,,,
SFZ,KSFZ,NORTH CENTRAL STATE,05/23,41.92075,-71.49141666,2023-12-27T22:38:00Z,3.0,LIFR,KSFZ 272238Z AUTO 10003KT 1/2SM -RA FG OVC002 09/09 A3004 RMK AO2 P0000 $
SGF,KSGF,SPRINGFIELD-BRANSON NTL,14/32,37.24566138,-93.38862694,2023-12-27T22:39:00Z,13.0,IFR,KSGF 272239Z 27013G22KT 1 3/4SM -SN BR BKN009 OVC012 01/M01 A2989 RMK AO2 P0001 T00061006
SGH,KSGH,SPRINGFIELD/BECKLEY MUNI,15/33,39.84027777,-83.84016666,2023-12-27T21:56:00Z,4.0,VFR,KSGH 272156Z AUTO 02004KT 10SM CLR 07/03 A2986 RMK AO2 SLP117 T00670033
SGJ,KSGJ,NORTHEAST FLORIDA RGNL,06/24,29.95925027,-81.33972916,2023-12-27T22:20:00Z,3.0,VFR,ESGJ 272220Z 12003KT CAVOK M04/M05 Q1011
SGR,KSGR,SUGAR LAND RGNL,17/35,29.62224861,-95.65653416,2023-12-27T21:53:00Z,9.0,VFR,KSGR 272153Z 32009KT 10SM CLR 18/02 A3000 RMK AO2 SLP161 T01830017
SGS,KSGS,SOUTH ST PAUL MUNI/RICHARD E FLEMING FLD,16/34,44.85713888,-93.03286111,2023-12-27T22:35:00Z,0.0,VFR,KSGS 272235Z AUTO 00000KT 10SM CLR 02/M05 A3007 RMK AO2 T00171046
SGT,KSGT,STUTTGART MUNI CARL HUMPHREY FLD,18/36,34.59947852,-91.57500027,2023-12-27T22:20:00Z,10.0,VFR,ESGT 272220Z AUTO 12010KT 9999 OVC088/// M02/M07 Q1011
SGU,KSGU,ST GEORGE RGNL,01/19,37.03637805,-113.5103028,2023-12-27T21:56:00Z,0.0,VFR,KSGU 272156Z AUTO 00000KT 10SM CLR 09/M08 A3022 RMK AO2 SLP240 T00891078
SGY,PAGY,SKAGWAY,02/20,59.4602,-135.3168597,,,,
SHD,KSHD,SHENANDOAH VALLEY RGNL,05/23,38.26383333,-78.89644444,2023-12-27T22:35:00Z,0.0,IFR,KSHD 272235Z AUTO 00000KT 7SM BKN006 OVC013 10/10 A2981 RMK AO2 T01000100
SHG,PAGH,SHUNGNAK,10/28,66.88808333,-157.1624167,,,,
SHH,PASH,SHISHMAREF,05/23,66.24958333,-166.0893611,2023-12-27T22:30:00Z,6.0,MVFR,USHH 272230Z 15003MPS 9000 -SHSN BKN015CB M06/M07 Q0994 R06/450533 TEMPO 2000 SHSN BKN005CB
SHL,KSHL,SHELDON RGNL,15/33,43.20838888,-95.83341666,2023-12-27T22:35:00Z,7.0,VFR,KSHL 272235Z AUTO 36007KT 10SM OVC035 00/M02 A3004 RMK AO2
SHN,KSHN,SANDERSON FLD,05/23,47.23355555,-123.1475556,2023-12-27T21:53:00Z,0.0,VFR,KSHN 272153Z AUTO 00000KT 10SM OVC060 09/08 A2976 RMK AO2 SLP079 T00940078
SHR,KSHR,SHERIDAN COUNTY,06/24,44.76919444,-106.9802778,2023-12-27T21:53:00Z,3.0,VFR,KSHR 272153Z AUTO 28003KT 10SM CLR 09/M05 A3016 RMK AO2 SLP235 T00891050
SHV,KSHV,SHREVEPORT RGNL,06/24,32.44651527,-93.82604,2023-12-27T21:56:00Z,9.0,VFR,KSHV 272156Z 31009KT 10SM FEW050 13/01 A3000 RMK SLPNO
SHX,PAHX,SHAGELUK,16/34,62.69230555,-159.5692222,,,,
SIF,KSIF,ROCKINGHAM COUNTY NC SHILOH,13/31,36.43721638,-79.85100972,2023-12-27T22:30:00Z,0.0,MVFR,KSIF 272230Z AUTO 00000KT 10SM OVC013 13/13 A2979 RMK AO2 T01330130
SIG,TJIG,FERNANDO LUIS RIBAS DOMINICCI,09/27,18.45677777,-66.09847222,,,,
SIK,KSIK,SIKESTON MEML MUNI,03/21,36.89888888,-89.56175,2023-12-27T22:35:00Z,0.0,VFR,KSIK 272235Z AUTO 00000KT 10SM BKN040 BKN060 04/01 A2988 RMK AO2
SIT,PASI,SITKA ROCKY GUTIERREZ,11/29,57.04683436,-135.3610687,,,,
SIV,KSIV,SULLIVAN COUNTY,18/36,39.1147125,-87.44832916,,,,
SIY,KSIY,SISKIYOU COUNTY,17/35,41.78144444,-122.4681111,2023-12-27T21:53:00Z,14.0,VFR,KSIY 272153Z AUTO 17014KT 10SM BKN070 OVC090 08/03 A2997 RMK AO2 RAE40 SLP157 P0001 T00830033
SJC,KSJC,NORMAN Y MINETA SAN JOSE INTL,12R/30L,37.36299472,-121.9286206,2023-12-27T21:53:00Z,13.0,VFR,KSJC 272153Z 15013KT 10SM FEW030 BKN045 OVC100 18/09 A3004 RMK AO2 SLP173 T01780094
SJN,KSJN,ST JOHNS INDUSTRIAL AIR PARK,14/32,34.51855555,-109.37875,,,,
SJS,KSJS,BIG SANDY RGNL,03/21,37.75101972,-82.63668638,2023-12-27T22:35:00Z,0.0,IFR,KSJS 272235Z AUTO 00000KT 10SM OVC009 08/08 A2985 RMK AO2 T00810081
SJT,KSJT,SAN ANGELO RGNL/MATHIS FLD,03/21,31.35774833,-100.4963042,2023-12-27T21:51:00Z,6.0,VFR,KSJT 272151Z 32006KT 10SM CLR 13/00 A3008 RMK AO2 SLP190 T01280000
SJU,TJSJ,LUIS MUNOZ MARIN INTL,10/28,18.43939916,-66.00213333,,,,
SJX,KSJX,BEAVER ISLAND,05/23,45.69222222,-85.56661111,2023-12-27T22:35:00Z,6.0,MVFR,KSJX 272235Z AUTO 32006KT 10SM OVC013 04/02 A3000 RMK AO2 T00400023
SKF,KSKF,KELLY FLD,16/34,29.38423333,-98.58111666,2023-12-27T21:55:00Z,8.0,VFR,KSKF 272155Z 35008KT 10SM FEW250 21/M01 A2997 RMK AO2A SLP148 T02071012 $
SKI,KSKI,SAC CITY MUNI,18/36,42.37905555,-94.97961111,,,,
SKW,PASW,SKWENTNA,10/28,61.9661125,-151.1953903,,,,
SKX,KSKX,TAOS RGNL,13/31,36.45169444,-105.6730833,2023-12-27T21:56:00Z,9.0,VFR,KSKX 272156Z AUTO 33009KT 10SM CLR 05/M09 A3012 RMK AO2 SLP230 T00501089
SLB,KSLB,STORM LAKE MUNI,13/31,42.59723488,-95.24066555,2023-12-27T22:35:00Z,8.0,VFR,KSLB 272235Z AUTO 03008KT 10SM CLR M00/M02 A3004 RMK AO2
SLC,KSLC,SALT LAKE CITY INTL,17/35,40.78839333,-111.9777733,2023-12-27T21:54:00Z,0.0,VFR,KSLC 272154Z 00000KT 10SM SCT090 BKN200 06/M04 A3030 RMK AO2 SLP264 T00561039
SLE,KSLE,MCNARY FLD,H1,44.90952777,-123.0025,2023-12-27T21:56:00Z,4.0,VFR,KSLE 272156Z 11004KT 10SM OVC060 08/06 A2981 RMK AO2 RAB26E35 SLP094 P0000 T00830056
SLG,KSLG,SMITH FLD,18/36,36.19186111,-94.49,2023-12-27T21:56:00Z,13.0,MVFR,KSLG 272156Z AUTO 29013KT 10SM BKN030 OVC050 03/M03 A2997 RMK AO2 SLP154 T00331028
SLH,KSLH,CHEBOYGAN COUNTY,17/35,45.65373777,-84.51929777,2023-12-27T22:35:00Z,6.0,LIFR,KSLH 272235Z AUTO 32006KT 2SM BR OVC003 04/04 A2997 RMK AO2
SLK,KSLK,ADIRONDACK RGNL,05/23,44.38530805,-74.20618138,2023-12-27T22:00:00Z,4.0,VFR,OSLK 272200Z 01004KT CAVOK 13/09 Q1019
SLN,KSLN,SALINA RGNL,H5,38.79061111,-97.65222222,2023-12-27T21:53:00Z,15.0,VFR,KSLN 272153Z 33015KT 10SM FEW031 01/M05 A3007 RMK AO2 SLP196 T00061050 $
SLO,KSLO,SALEM-LECKRONE,18/36,38.64287222,-88.96418527,2023-12-27T22:35:00Z,11.0,MVFR,KSLO 272235Z AUTO 26011KT 5SM -RA SCT012 SCT018 OVC034 05/03 A2983 RMK AO2 T00450031
SLQ,PASL,SLEETMUTE,15/33,61.70050944,-157.1658497,,,,
SLR,KSLR,SULPHUR SPRINGS MUNI,01/19,33.15983333,-95.62113888,2023-12-27T22:35:00Z,10.0,VFR,KSLR 272235Z AUTO 30010KT 10SM CLR 09/M01 A3006 RMK AO2 T00911014
SMD,KSMD,SMITH FLD,05/23,41.14336111,-85.15277777,2023-12-27T22:20:00Z,3.0,VFR,LSMD 272220Z AUTO 13003KT 070V170 9999NDV NCD 01/M02 Q1021 RMK
SME,KSME,LAKE CUMBERLAND RGNL,05/23,37.05358333,-84.61563888,2023-12-27T22:20:00Z,0.0,VFR,LSME 272220Z AUTO 00000KT 9999NDV NCD M01/M03 Q1021 RMK
SMF,KSMF,SACRAMENTO INTL,17R/35L,38.69544444,-121.5907778,2023-12-27T22:46:00Z,3.0,IFR,KSMF 272246Z 09003KT 2SM -RA BR BKN007 OVC035 13/11 A3005 RMK AO2 TWR VIS 2 1/2 RAE06B38 P0001 T01330111
SMK,PAMK,ST MICHAEL,02/20,63.49005555,-162.1103889,2023-12-27T22:20:00Z,8.0,MVFR,ESMK 272220Z AUTO 13008KT 9999 BKN012/// OVC051/// 03/02 Q1012
SMN,KSMN,LEMHI COUNTY,17/35,45.12327777,-113.8814444,2023-12-27T21:56:00Z,0.0,VFR,KSMN 272156Z AUTO 00000KT 10SM SCT026 M04/M08 A3031 RMK AO2 SLP949 T10391083 FZRANO
SMO,KSMO,SANTA MONICA MUNI,H1,34.01582194,-118.4513061,2023-12-27T21:51:00Z,5.0,VFR,KSMO 272151Z 22005KT 10SM CLR 16/12 A3013 RMK AO2 SLP200 T01610122
SMQ,KSMQ,SOMERSET,12/30,40.62598063,-74.67003161,2023-12-27T22:20:00Z,0.0,VFR,ESMQ 272220Z AUTO 00000KT 9999 NCD M05/M05 Q1015
SMS,KSMS,SUMTER,05/23,33.99502555,-80.36132888,2023-12-27T22:35:00Z,4.0,MVFR,KSMS 272235Z AUTO 26004KT 10SM SCT015 BKN022 15/14 A2983 RMK AO2
SMU,PASP,SHEEP MOUNTAIN,05/23,61.81128055,-147.5090514,,,,
SMX,KSMX,SANTA MARIA PUB/CAPT G ALLAN HANCOCK FLD,02/20,34.89994444,-120.4580833,2023-12-27T22:20:00Z,4.0,VFR,ESMX 272220Z AUTO 10004KT 040V120 9999 OVC088/// M03/M04 Q1012
SNA,KSNA,JOHN WAYNE/ORANGE COUNTY,02R/20L,33.67566194,-117.8682331,2023-12-27T21:53:00Z,5.0,MVFR,KSNA 272153Z 23005KT 5SM HZ FEW021 BKN250 18/12 A3011 RMK AO2 SLP197 T01830122 $
SNC,KSNC,CHESTER,17/35,41.38370944,-72.50578722,2023-12-27T22:35:00Z,0.0,LIFR,KSNC 272235Z AUTO 00000KT 3SM -RA OVC001 09/09 A3000 RMK AO2
SNH,KSNH,SAVANNAH-HARDIN COUNTY,01/19,35.17024638,-88.21672611,2023-12-27T22:30:00Z,9.0,VFR,KSNH 272230Z AUTO 26009G18KT 10SM SCT045 OVC050 12/03 A2983 RMK A01
SNK,KSNK,WINSTON FLD,17/35,32.69338888,-100.9504722,2023-12-27T22:20:00Z,0.0,VFR,ESNK 272220Z AUTO 00000KT 9999 NCD M15/M17 Q1008
SNL,KSNL,SHAWNEE RGNL,17/35,35.35730555,-96.94283333,2023-12-27T22:35:00Z,10.0,VFR,KSNL 272235Z AUTO 33010G14KT 10SM CLR 05/M08 A3007 RMK AO2 T00521079
SNP,PASN,ST PAUL ISLAND,18/36,57.16630555,-170.2225556,,,,
SNS,KSNS,SALINAS MUNI,08/26,36.66241083,-121.6071536,2023-12-27T22:20:00Z,5.0,VFR,ESNS 272220Z AUTO 26005KT 9999 NCD M11/M11 Q1004
SNY,KSNY,SIDNEY MUNI/LLOYD W CARR FLD,03/21,41.09976083,-102.9849931,2023-12-27T21:53:00Z,14.0,VFR,KSNY 272153Z AUTO 35014KT 10SM CLR 03/M07 A3010 RMK AO2 PK WND 34028/2101 SLP208 T00331067
SOA,KSOA,SONORA MUNI,18/36,30.58569444,-100.6485556,2023-12-27T22:35:00Z,5.0,VFR,KSOA 272235Z AUTO 32005G12KT 10SM CLR 13/M00 A3012 RMK AO2
SOP,KSOP,MOORE COUNTY,05/23,35.2374225,-79.38903361,2023-12-27T21:56:00Z,4.0,MVFR,KSOP 272156Z AUTO 26004KT 10SM OVC018 17/16 A2978 RMK AO2 SLP086 T01670156
SOV,PASO,SELDOVIA,16/34,59.44390555,-151.7050417,,,,
SOW,KSOW,SHOW LOW RGNL,07/25,34.26547166,-110.0056625,2023-12-27T22:35:00Z,6.0,VFR,KSOW 272235Z AUTO 01006KT 10SM CLR 05/M15 A3023 RMK AO2
SPA,KSPA,SPARTANBURG DOWNTOWN MEML/SIMPSON FLD,05/23,34.91641666,-81.95577777,2023-12-27T22:35:00Z,6.0,VFR,KSPA 272235Z AUTO 23006KT 10SM CLR 13/10 A2980 RMK AO2
SPB,KSPB,SCAPPOOSE,15/33,45.77102777,-122.8618333,2023-12-27T21:53:00Z,0.0,MVFR,KSPB 272153Z AUTO 00000KT 5SM -RA BR OVC060 09/07 A2982 RMK AO2 RAE22B39 SLP098 P0003 T00890067
SPF,KSPF,BLACK HILLS-CLYDE ICE FLD,04/22,44.48105555,-103.786,2023-12-27T22:35:00Z,6.0,VFR,KSPF 272235Z AUTO 26006KT 10SM CLR 01/M07 A3017 RMK AO2
SPG,KSPG,ALBERT WHITTED,07/25,27.76511416,-82.62693972,2023-12-27T21:53:00Z,7.0,VFR,KSPG 272153Z 32007KT 10SM BKN120 17/12 A2994 RMK AO2 SLP139 T01720117
SPH,KSPH,SPRINGHILL,18/36,32.98372222,-93.40916666,,,,
SPI,KSPI,ABRAHAM LINCOLN CAPITAL,04/22,39.84461361,-89.67754666,2023-12-27T21:52:00Z,13.0,VFR,KSPI 272152Z 07013KT 9SM -RA BKN050 OVC060 06/02 A2984 RMK AO2 SLP109 P0000 T00560017
SPK,KSPK,SPANISH FORK MUNI/WOODHOUSE FLD,12/30,40.14502777,-111.6676944,2023-12-27T22:35:00Z,7.0,VFR,KSPK 272235Z AUTO 31007KT CLR 03/M05 A3029 RMK AO2 PWINO
SPS,KSPS,SHEPPARD AFB/WICHITA FALLS MUNI,18/36,33.98880055,-98.4919025,2023-12-27T21:52:00Z,15.0,VFR,KSPS 272152Z AUTO 34015G20KT 10SM SCT044 09/M01 A3008 RMK AO2 SLP188 T00941006
SPW,KSPW,SPENCER MUNI,12/30,43.16565194,-95.20279305,2023-12-27T21:53:00Z,7.0,VFR,KSPW 272153Z AUTO 02007KT 10SM BKN031 02/M03 A3004 RMK AO2 SLP189 T00221033
SPZ,KSPZ,SILVER SPRINGS,06/24,39.40305555,-119.2511944,,,,
SQI,KSQI,WHITESIDE COUNTY/JOS H BITTORF FLD,18/36,41.74283333,-89.67627777,2023-12-27T21:56:00Z,8.0,VFR,KSQI 272156Z AUTO 05008KT 10SM CLR 04/01 A2994 RMK AO2 SLP007 T00390006 PNO $
SQL,KSQL,SAN CARLOS,12/30,37.51186111,-122.2495311,2023-12-27T21:47:00Z,152.0,VFR,KSQL 272147Z 150152G25KT 10SM BKN035 16/11 A3003
SRB,KSRB,UPPER CUMBERLAND RGNL,04/22,36.05673777,-85.53010611,2023-12-27T22:35:00Z,0.0,VFR,KSRB 272235Z AUTO 00000KT 10SM OVC065 09/03 A2984 RMK AO2
SRC,KSRC,SEARCY MUNI,01/19,35.21060972,-91.73753944,2023-12-27T21:56:00Z,8.0,VFR,KSRC 272156Z AUTO 28008G15KT 240V300 10SM BKN055 07/M03 A2995 RMK AO2 SLP143 T00671028
SRE,KSRE,SEMINOLE MUNI,16/34,35.27445938,-96.67537891,2023-12-27T22:35:00Z,6.0,VFR,KSRE 272235Z AUTO 33006G13KT 10SM CLR 05/M08 A3005 RMK AO2
SRQ,KSRQ,SARASOTA/BRADENTON INTL,14/32,27.39544444,-82.55438888,2023-12-27T21:53:00Z,7.0,VFR,KSRQ 272153Z 32007KT 10SM BKN120 19/13 A2995 RMK AO2 SLP140 T01890128 $
SRR,KSRR,SIERRA BLANCA RGNL,06/24,33.46094444,-105.5301389,2023-12-27T22:30:00Z,10.0,MVFR,USRR 272230Z 15005MPS 120V180 9000 -SHSN SCT007 BKN018CB M02/M03 Q0998 R07/450235 NOSIG RMK OBST OBSC QFE744
SRV,,STONY RIVER 2,18/36,61.78975,-156.5885278,,,,
SSF,KSSF,STINSON MUNI,09/27,29.33698138,-98.47104444,2023-12-27T21:53:00Z,4.0,VFR,KSSF 272153Z VRB04KT 10SM CLR 21/M02 A2998 RMK AO2 SLP151 T02111017
SSI,KSSI,ST SIMONS ISLAND,04/22,31.15196638,-81.39105972,2023-12-27T22:35:00Z,6.0,VFR,KSSI 272235Z AUTO 25006KT 10SM CLR 17/10 A2989 RMK AO2
SSQ,KSSQ,SHELL LAKE MUNI,14/32,45.73138138,-91.92066222,,,,
STC,KSTC,ST CLOUD RGNL,13/31,45.54622222,-94.05938888,2023-12-27T22:39:00Z,5.0,IFR,KSTC 272239Z 19005KT 2SM -SN BR BKN007 OVC015 01/M01 A3007 RMK AO2 P0000 T00061006
STE,KSTE,STEVENS POINT MUNI,03/21,44.54513555,-89.53028444,2023-12-27T22:35:00Z,3.0,VFR,KSTE 272235Z AUTO 02003KT 10SM CLR 03/M03 A3004 RMK AO2 T00251032
STF,KSTF,GEORGE M BRYAN,18/36,33.43311111,-88.84861111,2023-12-27T22:35:00Z,6.0,VFR,KSTF 272235Z AUTO VRB06G12KT 10SM BKN060 BKN070 13/02 A2987 RMK AO2
STJ,KSTJ,ROSECRANS MEML,13/31,39.77194444,-94.90970555,2023-12-27T21:53:00Z,15.0,MVFR,KSTJ 272153Z 34015KT 10SM OVC016 02/00 A2996 RMK AO2 SLP152 T00220000
STK,KSTK,STERLING MUNI,04/22,40.61429805,-103.2642611,2023-12-27T22:35:00Z,19.0,VFR,KSTK 272235Z AUTO 33019G23KT 10SM CLR 05/M06 A3012 RMK AO2
STL,KSTL,ST LOUIS LAMBERT INTL,11/29,38.74869822,-90.37002572,2023-12-27T22:25:00Z,7.0,LIFR,KSTL 272225Z 25007KT 1 1/4SM -SN BR OVC004 02/M01 A2985 RMK AO2 P0001 T00171006
STP,KSTP,ST PAUL DOWNTOWN HOLMAN FLD,09/27,44.9346225,-93.06034244,2023-12-27T21:53:00Z,3.0,VFR,KSTP 272153Z 02003KT 10SM CLR 03/M04 A3008 RMK AO2 SLP191 T00281039
STS,KSTS,CHARLES M SCHULZ - SONOMA COUNTY,14/32,38.50969444,-122.8128889,2023-12-27T21:53:00Z,5.0,IFR,KSTS 272153Z 16005KT 1 1/4SM RA BR BKN007 BKN011 OVC017 13/13 A3001 RMK AO2 SLP156 P0021 T01330128
STT,TIST,CYRIL E KING,10/28,18.33730555,-64.97333333,,,,
STX,TISX,HENRY E ROHLSEN,10/28,17.70150444,-64.80194291,,,,
SUA,KSUA,WITHAM FLD,16/34,27.18169916,-80.22129333,,,,
SUD,KSUD,STROUD MUNI,18/36,35.78958333,-96.65566666,,,,
SUE,KSUE,DOOR COUNTY CHERRYLAND,10/28,44.84366666,-87.42152777,2023-12-27T21:56:00Z,7.0,VFR,KSUE 272156Z AUTO 01007KT 10SM CLR 02/M02 A3003 RMK AO2 SLP178 T00221022 FZRANO
SUN,KSUN,FRIEDMAN MEML,13/31,43.50378055,-114.2955583,2023-12-27T21:55:00Z,0.0,VFR,KSUN 272155Z 00000KT 10SM BKN120 M01/M04 A3029
SUO,KSUO,ROSEBUD SIOUX TRIBAL,16/34,43.25845722,-100.8594936,,,,
SUS,KSUS,SPIRIT OF ST LOUIS,08L/26R,38.66211111,-90.65205555,2023-12-27T21:54:00Z,5.0,IFR,KSUS 272154Z 23005KT 2SM -SN BR BKN008 BKN020 OVC038 01/01 A2985 RMK AO2 SLP114 P0002 T00060006
SUT,KSUT,CAPE FEAR RGNL JETPORT/HOWIE FRANKLIN FLD,05/23,33.93081555,-78.07336361,2023-12-27T22:25:00Z,7.0,VFR,KSUT 272225Z AUTO 28007KT 10SM SCT032 20/17 A2975 RMK AO2 T01950165
SUW,KSUW,RICHARD I BONG,14/32,46.68968408,-92.09464197,2023-12-27T22:35:00Z,0.0,MVFR,KSUW 272235Z AUTO 00000KT 10SM OVC020 01/00 A3010 RMK AO2 T00100001
SUX,KSUX,SIOUX GATEWAY/BRIG GENERAL BUD DAY FLD,13/31,42.40130944,-96.38441805,2023-12-27T21:52:00Z,9.0,VFR,KSUX 272152Z 35009KT 10SM CLR 01/M03 A3007 RMK AO2 SLP198 T00061028
SUZ,KSUZ,SALINE COUNTY RGNL,02/20,34.59038888,-92.47944444,2023-12-27T22:35:00Z,8.0,VFR,KSUZ 272235Z AUTO 32008G15KT 10SM CLR 06/M04 A2998 RMK A01
SVA,PASA,SAVOONGA,05/23,63.68627777,-170.4931667,,,,
SVC,KSVC,GRANT COUNTY,03/21,32.63654694,-108.156385,2023-12-27T22:35:00Z,6.0,VFR,KSVC 272235Z AUTO 18006KT 10SM CLR 11/M15 A3015 RMK AO2 T01081148
SVE,KSVE,SUSANVILLE MUNI,07/25,40.37569444,-120.5726944,2023-12-27T22:35:00Z,12.0,VFR,KSVE 272235Z AUTO 24012G18KT 030V040 9SM -RA FEW031 SCT046 OVC060 08/00 A3006 RMK AO2
SVH,KSVH,STATESVILLE RGNL,10/28,35.765,-80.95388888,2023-12-27T22:25:00Z,0.0,VFR,KSVH 272225Z AUTO 00000KT 10SM CLR 13/13 A2979 RMK AO2 T01320125
SVS,PFSV,STEVENS VILLAGE,05/23,66.01716666,-149.0543611,,,,
SWD,PAWD,SEWARD,16/34,60.12988586,-149.4166294,,,,
SWF,KSWF,NEW YORK STEWART INTL,H1,41.50411111,-74.10483333,2023-12-27T21:45:00Z,4.0,IFR,KSWF 272145Z VRB04KT 2 1/2SM -DZ BR BKN008 OVC040 08/08 A2997
SWI,KSWI,SHERMAN MUNI,16/34,33.62413888,-96.58613888,,,,
SWO,KSWO,STILLWATER RGNL,17/35,36.16138944,-97.08589333,2023-12-27T21:53:00Z,10.0,VFR,KSWO 272153Z 32010G19KT 10SM FEW039 04/M05 A3006 RMK AO2 SLP181 T00441050
SWT,KSWT,SEWARD MUNI,04/22,40.86472222,-97.10922222,,,,
SWW,KSWW,AVENGER FLD,17/35,32.46736111,-100.4665556,,,,
SXK,KSXK,SIOUX COUNTY RGNL,17/35,42.9858275,-96.16140027,2023-12-27T22:35:00Z,5.0,VFR,KSXK 272235Z AUTO 35005KT 10SM OVC070 M01/M02 A3005 RMK AO2
SXL,KSXL,SUMMERSVILLE,04/22,38.23163888,-80.87080555,,,,
SXP,,NUNAM IQUA,02/20,62.52041638,-164.8476458,,,,
SXQ,PASX,SOLDOTNA,07/25,60.47513888,-151.0396389,,,,
SXU,KSXU,SANTA ROSA ROUTE 66,01/19,34.93567208,-104.6425638,2023-12-27T22:35:00Z,4.0,VFR,KSXU 272235Z AUTO 13004KT 10SM CLR 10/M07 A3009 RMK AO2 T00951070
SYF,KSYF,CHEYENNE COUNTY MUNI,14/32,39.75916666,-101.7946658,2023-12-27T22:35:00Z,12.0,IFR,KSYF 272235Z AUTO 34012G20KT 1 3/4SM OVC021 00/M02 A3011 RMK AO2 T00031020 PWINO
SYI,KSYI,BOMAR FLD/SHELBYVILLE MUNI,18/36,35.5594,-86.44247194,2023-12-27T22:30:00Z,5.0,VFR,KSYI 272230Z AUTO 16005KT 10SM CLR 10/02 A2982 RMK A01
SYM,KSYM,MOREHEAD-ROWAN COUNTY CLYDE A THOMAS RGNL,02/20,38.215,-83.58761111,2023-12-27T22:35:00Z,4.0,VFR,KSYM 272235Z AUTO 25004KT 10SM SCT027 07/06 A2987 RMK AO2
SYN,KSYN,STANTON AIRFIELD,18/36,44.47552161,-93.01632005,2023-12-27T22:35:00Z,0.0,VFR,KSYN 272235Z AUTO 00000KT 10SM CLR 01/M02 A3007 RMK AO2 T00091025
SYR,KSYR,SYRACUSE HANCOCK INTL,10/28,43.11118111,-76.10632027,2023-12-27T21:54:00Z,6.0,VFR,KSYR 272154Z 06006KT 7SM -RA BKN055 OVC070 08/08 A2990 RMK AO2 SLP123 P0003 T00780078
SYV,KSYV,SYLVESTER,01/19,31.55715472,-83.89403638,,,,
SZP,KSZP,SANTA PAULA,H1,34.34701761,-119.0616166,,,,
SZT,KSZT,SANDPOINT,02/20,48.29952777,-116.5601389,2023-12-27T22:30:00Z,10.0,VFR,KSZT 272230Z AUTO 04010KT 10SM CLR 02/M02 A3008 RMK AO2
SZY,KSZY,ROBERT SIBLEY,17/35,35.20294444,-88.49836111,2023-12-27T22:35:00Z,6.0,VFR,KSZY 272235Z AUTO VRB06G12KT 10SM OVC055 11/M00 A2985 RMK A01
T00,,CHAMBERS COUNTY,17/35,29.76981477,-94.66348708,,,,
T03,,TUBA CITY,15/33,36.09263888,-111.3830833,,,,
T05,,CHARLES R JOHNSON,12/30,26.56015555,-97.43925,,,,
T11,PTYA,YAP INTL,07/25,9.49891111,138.0824842,,,,
T12,,KIRBYVILLE,13/31,30.646565,-93.91490333,,,,
T13,,DALLAS SOUTH PORT,17/35,32.47738333,-96.68541666,,,,
T14,,ROCKIN M,18/36,32.95249583,-96.09589305,,,,
T15,,MARLIN,17/35,31.34066666,-96.85202777,,,,
T16,,RESERVE,07/25,33.69433888,-108.849975,,,,
T19,,DUVAL-FREER,14/32,27.88869444,-98.59995833,,,,
T20,,ROGER M DREYER MEML,15/33,29.52912361,-97.46430277,2023-12-27T22:35:00Z,7.0,VFR,KT20 272235Z AUTO 36007KT 10SM CLR 19/00 A3002 RMK AO2 T01860001
T23,,ALBANY MUNI,17/35,32.72138888,-99.26758333,,,,
T24,,PINELAND MUNI,17/35,31.23352194,-93.98185555,,,,
T25,,AERO ESTATES,H1,32.08175,-95.45250277,,,,
T26,,FLYING V RANCH,14/32,29.10827777,-96.39877777,,,,
T28,,CAIN,18/36,33.35449444,-97.43905833,,,,
T29,,FLYING H RANCH,18/36,33.63042638,-96.94097083,,,,
T30,,MC KINLEY FLD,13/31,28.82225,-99.10902777,,,,
T31,,AERO COUNTRY,17/35,33.20845,-96.74194111,,,,
T32,,SUDDEN STOP,17/35,33.57149777,-96.90722472,,,,
T35,,CAMERON MUNI AIRPARK,16/34,30.87900277,-96.9722125,2023-12-27T22:35:00Z,10.0,VFR,KT35 272235Z AUTO 32010KT 10SM CLR 15/03 A3005 RMK AO2 T01450026
T36,,PAUL PITTMAN MEML,18/36,31.14601111,-90.168145,,,,
T37,,GOLDTHWAITE MUNI,01/19,31.42906666,-98.60835555,,,,
T38,,BAR V K,18/36,33.37625,-97.24347222,,,,
T39,,ARCHER CITY MUNI,17/35,33.58232611,-98.61866805,,,,
T41,,LA PORTE MUNI,05/23,29.66925,-95.06419444,2023-12-27T22:35:00Z,7.0,VFR,KT41 272235Z AUTO 30007KT 10SM CLR 18/00 A3000 RMK AO2 T01780000
T42,,RUTH,13/31,40.21147222,-123.2976944,,,,
T45,,PANHANDLE-CARSON COUNTY,17/35,35.36169444,-101.3650833,,,,
T48,,POETRY FLYING RANCH,13/31,32.86812222,-96.21914166,,,,
T50,,MENARD COUNTY,15/33,30.93247222,-99.80922777,,,,
T51,,DAN JONES INTL,17/35,30.04277527,-95.66722305,,,,
T54,,LANE AIRPARK,13/31,29.52333055,-95.77975833,,,,
T55,,DIMMITT MUNI,01/19,34.56673555,-102.3226947,,,,
T56,,EAGLE'S NEST ESTATES,17/35,32.51281222,-96.9267768,,,,
T58,,IRONHEAD,18/36,33.3317825,-97.23029388,,,,
T59,,WHEELER MUNI,17/35,35.45108333,-100.1999167,,,,
T60,,STONEWALL COUNTY,17/35,33.17034027,-100.197275,,,,
T67,,HICKS AIRFIELD,14/32,32.93123666,-97.41168583,,,,
T69,,ALFRED C 'BUBBA' THOMAS,03/21,28.03856686,-97.54250125,,,,
T71,,CUERO MUNI,14/32,29.08358805,-97.26693416,,,,
T73,,KIRK AIR BASE,11W/29W,34.67431694,-80.68229083,,,,
T74,,TAYLOR MUNI,17/35,30.57263888,-97.44319444,2023-12-27T22:35:00Z,10.0,VFR,KT74 272235Z AUTO 34010KT 10SM CLR 15/02 A3004 RMK AO2 T01530015
T76,,RHOME MEADOWS,13/31,33.14928666,-97.496135,,,,
T78,,LIBERTY MUNI,16/34,30.07780555,-94.69855555,2023-12-27T22:35:00Z,6.0,VFR,KT78 272235Z AUTO 31006G12KT 10SM CLR 17/M03 A2999 RMK AO2
T79,,SKYWAY MANOR,17/35,29.55568333,-95.32709166,,,,
T80,,BISHOP'S LANDING,17/35,33.37652083,-96.72893611,,,,
T82,,GILLESPIE COUNTY,14/32,30.24325,-98.90919444,2023-12-27T22:35:00Z,11.0,VFR,KT82 272235Z AUTO 34011G15KT 10SM CLR 15/M03 A3003 RMK AO2 T01471029
T85,,YOAKUM MUNI,13/31,29.31316666,-97.13841666,,,,
T87,,FLYING C,17/35,33.34222222,-97.27,,,,
T88,,COLORADO CITY,17/35,32.46842833,-100.9211222,,,,
T89,,LAJITAS INTL,07/25,29.27712527,-103.6857947,2023-12-27T22:35:00Z,12.0,VFR,KT89 272235Z AUTO 25012KT 10SM CLR 17/M14 A3008 RMK A01
T90,,CHAMBERS COUNTY/WINNIE STOWELL,17/35,29.81891388,-94.43106666,,,,
T92,,MASON COUNTY,18/36,30.73219302,-99.18400597,,,,
T93,,FOLLETT/LIPSCOMB COUNTY,17/35,36.44080555,-100.1238056,,,,
T94,,TWIN-OAKS,12/30,29.57018694,-98.46838916,,,,
T96,,SOUTHWEST LUBBOCK,02/20,33.39571944,-102.0093444,,,,
TAD,KTAD,PERRY STOKES,03/21,37.25922361,-104.3408614,2023-12-27T21:54:00Z,10.0,VFR,KTAD 272154Z AUTO 05010KT 10SM OVC100 05/M08 A3013 RMK AO2 SLP199 T00501078
TAL,PATA,RALPH M CALHOUN MEML,07/25,65.17438888,-152.1081111,,,,
TAN,KTAN,TAUNTON MUNI - KING FLD,04/22,41.87446738,-71.0163165,2023-12-27T21:50:00Z,2.0,VFR,LTAN 272150Z VRB02KT CAVOK 04/01 Q1025 NOSIG
TAZ,KTAZ,TAYLORVILLE MUNI,18/36,39.5325855,-89.33070691,2023-12-27T22:20:00Z,0.0,VFR,LTAZ 272220Z 00000KT CAVOK 00/M01 Q1026 RMK RWY29 20003KT
TBN,KTBN,WAYNESVILLE-ST ROBERT RGNL FORNEY FLD,15/33,37.74163888,-92.14072222,2023-12-27T22:30:00Z,7.0,MVFR,KTBN 272230Z AUTO 23007KT 9SM -SN BKN016 BKN024 BKN038 OVC049 02/00 A2981 RMK AO2 SNE26SNB30 CIG 016V023 SLP105
TBR,KTBR,STATESBORO-BULLOCH COUNTY,14/32,32.48275,-81.73694444,2023-12-27T22:35:00Z,0.0,VFR,KTBR 272235Z AUTO 00000KT 10SM CLR 16/09 A2987 RMK AO2 T01570088
TCC,KTCC,TUCUMCARI MUNI,03/21,35.18277805,-103.6031944,2023-12-27T22:30:00Z,1.0,VFR,VTCC 272230Z VRB01KT 9000 FEW040 19/17 Q1019 NOSIG
TCL,KTCL,TUSCALOOSA NTL,12/30,33.22062888,-87.61140388,2023-12-27T21:53:00Z,4.0,VFR,KTCL 272153Z 19004KT 10SM CLR 13/03 A2989 RMK AO2 SLP122 T01280033
TCS,KTCS,TRUTH OR CONSEQUENCES MUNI,15/33,33.23536111,-107.2698889,2023-12-27T21:53:00Z,4.0,VFR,KTCS 272153Z AUTO 14004KT 10SM CLR 10/M12 A3012 RMK AO2 SLP182 T01001117
TCT,PPCT,TAKOTNA,04/22,62.99294444,-156.0297222,2023-12-27T21:50:00Z,7.0,VFR,LTCT 272150Z 24007KT CAVOK 03/M01 Q1021
TCY,KTCY,TRACY MUNI,12/30,37.68889527,-121.4415747,2023-12-27T22:35:00Z,10.0,VFR,KTCY 272235Z AUTO 14010KT 9SM OVC070 14/11 A3003 RMK A01
TDF,KTDF,RALEIGH RGNL AT PERSON COUNTY,06/24,36.28461111,-78.98463888,2023-12-27T22:25:00Z,3.0,LIFR,KTDF 272225Z AUTO 30003KT 7SM BKN004 OVC019 A2978 RMK AO2
TDO,KTDO,ED CARLSON MEML FLD/SOUTH LEWIS COUNTY,06/24,46.47716916,-122.8064758,,,,
TDW,KTDW,TRADEWIND,H1,35.16988888,-101.8258611,,,,
TDZ,KTDZ,TOLEDO EXEC,04/22,41.56494444,-83.48222222,2023-12-27T22:41:00Z,6.0,IFR,KTDZ 272241Z AUTO 32006KT 10SM OVC009 08/07 A2987 RMK AO2 CIG 006V012 T00830067
TEB,KTEB,TETERBORO,01/19,40.85011111,-74.06083333,2023-12-27T21:55:00Z,7.0,VFR,ETEB 272155Z AUTO 17007KT 9999 CLR 05/M01 A3002 RMK AO2 SLP187 T00481006 $
TEL,KTEL,PERRY COUNTY MUNI,13/31,38.01886111,-86.69241666,,,,
TER,PATE,TELLER,08/26,65.24038888,-166.3393889,,,,
TEW,KTEW,MASON JEWETT FLD,10/28,42.56576777,-84.42320611,2023-12-27T22:35:00Z,6.0,LIFR,KTEW 272235Z AUTO 36006KT 10SM OVC004 05/04 A2989 RMK AO2 T00470040
TEX,KTEX,TELLURIDE RGNL,09/27,37.95380555,-107.90875,2023-12-27T22:35:00Z,10.0,VFR,KTEX 272235Z AUTO 29010G16KT 10SM CLR 01/M23 A3019 RMK AO2
TFFG,TFFG,GRAND CASE,12/30,18.10055555,-63.04888888,,,,
TFP,KTFP,MCCAMPBELL-PORTER,13/31,27.91303166,-97.21148722,,,,
TGC,KTGC,GIBSON COUNTY,01/19,35.93245472,-88.84894027,,,,
TGI,KTGI,TANGIER ISLAND,02/20,37.82586527,-75.9976625,,,,
THA,KTHA,TULLAHOMA RGNL/WM NORTHERN FLD,18/36,35.38012527,-86.24677833,2023-12-27T22:35:00Z,5.0,VFR,KTHA 272235Z AUTO 18005KT 10SM CLR 09/01 A2983 RMK A01
THM,KTHM,THOMPSON FALLS,08/26,47.57349777,-115.2806561,2023-12-27T21:55:00Z,13.0,VFR,KTHM 272155Z AUTO 06013G19KT 10SM M01/M04 A3015 RMK Thompson Falls 
THV,KTHV,YORK,17/35,39.917,-76.87302777,,,,
TIF,KTIF,THOMAS COUNTY,11/29,41.96270833,-100.5703056,2023-12-27T22:35:00Z,11.0,MVFR,KTIF 272235Z AUTO 34011G14KT 10SM OVC011 M01/M03 A3010 RMK AO2 T10071031
TIP,KTIP,RANTOUL NTL AVN CNTR-FRANK ELLIOTT FLD,09/27,40.29355555,-88.14238888,2023-12-27T22:35:00Z,15.0,VFR,KTIP 272235Z AUTO 05015G19KT 10SM OVC100 04/02 A2987 RMK AO2 T00420023
TIW,KTIW,TACOMA NARROWS,17/35,47.26794444,-122.5781111,2023-12-27T21:53:00Z,4.0,VFR,KTIW 272153Z 28004KT 10SM OVC075 10/07 A2978 RMK AO2 SLP084 T01000072
TIX,KTIX,SPACE COAST RGNL,18/36,28.51480555,-80.79922222,2023-12-27T21:50:00Z,6.0,VFR,KTIX 272150Z 30006KT 7SM BKN120 23/10 A2992
TKA,PATK,TALKEETNA,01/19,62.32137194,-150.0927183,2023-12-27T22:00:00Z,6.0,VFR,DTKA 272200Z 10006KT 9999 FEW020 08/06 Q1025 NOSIG
TKC,KTKC,TRACY MUNI,17/35,44.24923944,-95.60722916,2023-12-27T22:35:00Z,0.0,MVFR,KTKC 272235Z AUTO 00000KT 10SM BKN017 OVC035 M00/M01 A3006 RMK AO2
TKI,KTKI,MCKINNEY NTL,18/36,33.17706527,-96.58876666,2023-12-27T21:53:00Z,13.0,VFR,KTKI 272153Z 32013G18KT 10SM CLR 09/M02 A3005 RMK AO2 SLP185 T00941022
TKK,PTKK,CHUUK INTL,04/22,7.46189083,151.8430172,2023-12-27T21:51:00Z,5.0,VFR,PTKK 272151Z VRB05KT 15SM FEW014 SCT280 28/26 A2990 RMK SLP128 T02820259
TKO,KTKO,MANKATO,09/27,39.80279,-98.22116194,,,,
TKV,KTKV,TOMAHAWK RGNL,09/27,45.46936111,-89.80488888,2023-12-27T22:35:00Z,0.0,VFR,KTKV 272235Z AUTO 00000KT 10SM CLR 00/M04 A3006 RMK AO2 T00001045 PWINO
TKX,KTKX,KENNETT MEML,18/36,36.22586194,-90.03664111,2023-12-27T22:35:00Z,5.0,VFR,KTKX 272235Z AUTO 28005KT 10SM BKN060 OVC070 06/01 A2989 RMK AO2
TLH,KTLH,TALLAHASSEE INTL,09/27,30.39675416,-84.35086888,2023-12-27T21:53:00Z,4.0,VFR,KTLH 272153Z 25004KT 10SM FEW080 BKN250 17/07 A2994 RMK AO2 SLP136 T01720067
TLR,KTLR,MEFFORD FLD,13/31,36.15658333,-119.3265556,,,,
TLT,PALT,TULUKSAK,15/33,61.08772777,-160.9233528,,,,
TMA,KTMA,HENRY TIFT MYERS,16/34,31.42955555,-83.48922222,2023-12-27T22:35:00Z,3.0,VFR,KTMA 272235Z AUTO 24003KT 10SM OVC180 15/07 A2993 RMK AO2 T01510068
TMB,KTMB,MIAMI EXEC,13/31,25.64756372,-80.43322461,2023-12-27T22:30:00Z,1.0,MVFR,DTMB 272230Z 18001KT 5000 NSC 11/11 Q1028
TME,KTME,HOUSTON EXEC,18/36,29.80502777,-95.89788888,2023-12-27T22:35:00Z,7.0,VFR,KTME 272235Z AUTO 34007KT 10SM CLR 17/01 A3003 RMK AO2
TMK,KTMK,TILLAMOOK,01/19,45.41825,-123.8143889,2023-12-27T22:35:00Z,7.0,VFR,KTMK 272235Z AUTO 16007KT 9SM -RA FEW038 SCT050 BKN060 12/12 A2977 RMK AO2
TMT,KTMT,AUSTIN,01/19,39.46794333,-117.1974539,2023-12-27T22:35:00Z,0.0,VFR,KTMT 272235Z AUTO 00000KT 10SM SCT100 SCT120 07/00 A3009 RMK AO2 T00661002
TNCE,TNCE,F D ROOSEVELT,06/24,17.49236194,-62.97497333,,,,
TNCM,TNCM,PRINCESS JULIANA INTL,10/28,18.04092777,-63.10895833,,,,
TNI,PGWT,FRANCISCO MANGLONA BORJA/TINIAN INTL,08/26,14.99923055,145.6193508,,,,
TNP,KTNP,TWENTYNINE PALMS,08/26,34.13158333,-115.9458056,,,,
TNT,KTNT,DADE-COLLIER TRAINING AND TRANSITION,09/27,25.86180555,-80.897,2023-12-27T22:20:00Z,14.0,VFR,ETNT 272220Z AUTO 22014G25KT //// // ////// 08/06 Q1003 ///
TNU,KTNU,NEWTON MUNI-EARL JOHNSON FLD,14/32,41.67443,-93.02172833,2023-12-27T22:35:00Z,9.0,IFR,KTNU 272235Z AUTO 05009KT 7SM BKN008 BKN013 02/02 A2996 RMK A01
TNW,PAFL,TIN CREEK,13/31,62.53212222,-153.6127889,2023-12-27T22:20:00Z,13.0,VFR,ETNW 272220Z 20013KT 9999 SCT190 OVC260 08/03 Q1007 BLU+
TOA,KTOA,ZAMPERINI FLD,11R/29L,33.80338286,-118.3396076,2023-12-27T21:52:00Z,9.0,VFR,KTOA 272152Z 27009KT 7SM SCT014 BKN047 BKN140 18/13 A3012
TOB,KTOB,DODGE CENTER,04/22,44.01799563,-92.83162005,2023-12-27T22:35:00Z,4.0,VFR,KTOB 272235Z AUTO 35004KT 10SM OVC033 00/M01 A3005 RMK AO2
TOC,KTOC,TOCCOA RG LETOURNEAU FLD,09/27,34.59281166,-83.29637166,2023-12-27T22:35:00Z,5.0,VFR,KTOC 272235Z AUTO 21005KT 10SM CLR 13/09 A2984 RMK AO2 T01280093
TOG,PATG,TOGIAK,10/28,59.05355555,-160.3967778,,,,
TOI,KTOI,TROY MUNI AT N KENNETH CAMPBELL FLD,07/25,31.86,-86.01388888,2023-12-27T21:53:00Z,0.0,VFR,KTOI 272153Z AUTO 00000KT 10SM CLR 16/03 A2992 RMK AO2 SLP129 T01610028
TOL,KTOL,EUGENE F KRANZ TOLEDO EXPRESS,07/25,41.58681666,-83.80782666,2023-12-27T21:52:00Z,5.0,MVFR,KTOL 272152Z 33005KT 10SM OVC013 09/06 A2986 RMK AO2 SLP114 T00890056
TOP,KTOP,PHILIP BILLARD MUNI,18/36,39.068823,-95.62237591,2023-12-27T21:53:00Z,12.0,MVFR,KTOP 272153Z 32012G18KT 10SM OVC018 02/M01 A3000 RMK AO2 SLP164 T00221011
TOR,KTOR,TORRINGTON MUNI,10/28,42.06442138,-104.1526794,2023-12-27T21:53:00Z,19.0,VFR,KTOR 272153Z AUTO 34019G27KT 10SM CLR 06/M08 A3014 RMK AO2 PK WND 33028/2127 SLP215 T00611078
TPA,KTPA,TAMPA INTL,01R/19L,27.97547222,-82.53325,2023-12-27T21:53:00Z,8.0,VFR,KTPA 272153Z 31008G23KT 10SM FEW055 BKN120 OVC180 17/11 A2997 RMK AO2 SLP147 T01720111
TPF,KTPF,PETER O KNIGHT,04/22,27.91544444,-82.44938888,2023-12-27T22:35:00Z,3.0,VFR,KTPF 272235Z AUTO 33003KT 10SM SCT120 18/12 A2997 RMK AO2
TPH,KTPH,TONOPAH,H1,38.05989361,-117.0866008,2023-12-27T22:00:00Z,3.0,VFR,VTPH 272200Z VRB03KT 9999 FEW030 24/17 Q1014 NOSIG
TPL,KTPL,DRAUGHON-MILLER CENTRAL TEXAS RGNL,03/21,31.15190041,-97.40766294,2023-12-27T21:51:00Z,12.0,VFR,KTPL 272151Z AUTO 30012G17KT 10SM CLR 14/01 A3004 RMK AO2 SLP170 T01440011
TQE,KTQE,TEKAMAH MUNI,15/33,41.76353705,-96.177939,2023-12-27T22:36:00Z,9.0,VFR,KTQE 272236Z AUTO 34009KT 10SM SCT023 SCT030 01/M03 A3007 RMK AO2 T00061028
TQH,KTQH,TAHLEQUAH MUNI,17/35,35.93027777,-95.00452777,2023-12-27T22:35:00Z,9.0,VFR,KTQH 272235Z AUTO 30009KT 10SM BKN042 04/M03 A3002 RMK AO2
TQK,KTQK,SCOTT CITY MUNI,17/35,38.47502305,-100.8844389,2023-12-27T22:35:00Z,17.0,MVFR,KTQK 272235Z AUTO 35017KT 10SM OVC019 02/M01 A3008 RMK AO2 T00191006
TQPF,TQPF,CLAYTON J LLOYD INTL,10/28,18.2048,-63.05385277,,,,
TRI,KTRI,TRI-CITIES,05/23,36.47520777,-82.40741527,2023-12-27T22:22:00Z,0.0,VFR,KTRI 272222Z 00000KT 10SM FEW018 SCT026 BKN250 10/07 A2984 RMK AO2 T01000072
TRK,KTRK,TRUCKEE-TAHOE,02/20,39.32005555,-120.1395833,2023-12-27T21:49:00Z,19.0,VFR,KTRK 272149Z 19019G26KT 10SM SCT150 12/M12 A3006 RMK LIGHT TO MOD TURBULENCE
TRL,KTRL,TERRELL MUNI,18/36,32.70849444,-96.26709444,2023-12-27T21:53:00Z,11.0,VFR,KTRL 272153Z AUTO 33011G19KT 10SM -RA CLR 10/M03 A3006 RMK AO2 SLP179 P0000 T01001028
TRM,KTRM,JACQUELINE COCHRAN RGNL,12/30,33.62667055,-116.1596544,2023-12-27T21:52:00Z,0.0,VFR,KTRM 272152Z AUTO 00000KT 10SM CLR 19/08 A3012 RMK AO2 SLP198 T01890078
TRX,KTRX,TRENTON MUNI,18/36,40.08352777,-93.59063888,,,,
TSG,,TANACROSS,06/24,63.3740638,-143.3289898,2023-12-27T22:00:00Z,4.0,VFR,VTSG 272200Z 02004KT 340V050 9999 FEW030 24/23 Q1012 NOSIG
TSO,KTSO,CARROLL COUNTY-TOLSON,07/25,40.56166666,-81.07808333,,,,
TSP,KTSP,TEHACHAPI MUNI,11/29,35.13499444,-118.4393,2023-12-27T22:35:00Z,12.0,VFR,KTSP 272235Z AUTO 09012KT 10SM CLR 15/02 A3014 RMK AO2
TT01,,PAGAN AIRSTRIP,11/29,18.12444444,145.7686111,,,,
TT02,,ULITHI,09/27,10.01991944,139.78975,,,,
TTA,KTTA,RALEIGH EXEC JETPORT AT SANFORD-LEE COUNTY,03/21,35.58243944,-79.10133777,2023-12-27T22:30:00Z,5.0,MVFR,KTTA 272230Z AUTO 27005KT 10SM OVC022 16/16 A2978 RMK AO2 T01620162
TTD,KTTD,PORTLAND-TROUTDALE,07/25,45.54936111,-122.40125,2023-12-27T22:00:00Z,1.0,VFR,DTTD 272200Z AUTO VRB01KT NCD 11/06 Q1027
TTF,KTTF,CUSTER,03/21,41.93988888,-83.43466666,2023-12-27T22:35:00Z,5.0,IFR,KTTF 272235Z AUTO 32005KT 10SM OVC007 07/07 A2984 RMK AO2 T00720065
TTK,PTSA,KOSRAE,05/23,5.35697222,162.9583889,2023-12-27T22:00:00Z,0.0,MVFR,DTTK 272200Z 00000KT 6000 NSC 10/09 Q1027
TTN,KTTN,TRENTON MERCER,H3,40.27669444,-74.81347222,2023-12-27T22:00:00Z,5.0,MVFR,DTTN 272200Z 24005KT 8000 NSC 06/04 Q1027
TTW,PATW,CANTWELL,04/22,63.39120472,-148.9556164,,,,
TUL,KTUL,TULSA INTL,08/26,36.19839361,-95.88810555,2023-12-27T22:00:00Z,0.0,MVFR,VTUL 272200Z 00000KT 8000 NSC 13/13 Q1019 NOSIG
TUP,KTUP,TUPELO RGNL,18/36,34.269,-88.76988888,2023-12-27T21:53:00Z,11.0,VFR,KTUP 272153Z 26011G17KT 10SM SCT055 BKN065 14/02 A2987 RMK AO2 SLP114 T01440022 $
TUPJ,TUPJ,TERRANCE B LETTSOME INTL,07/25,18.44555555,-64.54166666,,,,
TUS,KTUS,TUCSON INTL,03/21,32.11606916,-110.9410139,2023-12-27T21:53:00Z,3.0,VFR,KTUS 272153Z 03003KT 10SM CLR 16/M07 A3014 RMK AO2 SLP192 T01611067 $
TVB,KTVB,CABOOL MEML,03/21,37.13244444,-92.08397222,,,,
TVC,KTVC,CHERRY CAPITAL,18/36,44.74157861,-85.58187,2023-12-27T21:53:00Z,5.0,MVFR,KTVC 272153Z 36005KT 10SM OVC019 05/01 A2997 RMK AO2 SLP155 T00500011
TVF,KTVF,THIEF RIVER FALLS RGNL,04/22,48.06567722,-96.18499527,2023-12-27T22:46:00Z,7.0,LIFR,KTVF 272246Z AUTO 01007KT 2SM BR OVC003 01/01 A3013 RMK AO2 FZRANO
TVI,KTVI,THOMASVILLE RGNL,14/32,30.90147222,-83.88144444,2023-12-27T22:35:00Z,0.0,VFR,KTVI 272235Z AUTO 00000KT 10SM CLR 14/07 A2992 RMK AO2
TVK,KTVK,CENTERVILLE MUNI,16/34,40.68442888,-92.90099388,2023-12-27T22:35:00Z,7.0,IFR,KTVK 272235Z AUTO 01007KT 2SM -RA BR OVC006 01/01 A2992 RMK AO2
TVL,KTVL,LAKE TAHOE,18/36,38.89388888,-119.9953333,2023-12-27T21:53:00Z,21.0,VFR,KTVL 272153Z AUTO 20021G40KT 10SM CLR 11/M16 A3001 RMK AO2 PK WND 21042/2128 SLP139 T01061161
TVR,KTVR,VICKSBURG TALLULAH RGNL,18/36,32.35161111,-91.02768872,2023-12-27T21:53:00Z,4.0,VFR,KTVR 272153Z AUTO 28004G18KT 10SM CLR 16/01 A2992 RMK AO2 SLP138 T01560006
TVY,KTVY,BOLINDER FLD-TOOELE VALLEY,17/35,40.61255333,-112.3507775,2023-12-27T22:35:00Z,3.0,VFR,KTVY 272235Z AUTO 01003KT 10SM CLR 02/M03 A3032 RMK AO2
TWF,KTWF,JOSLIN FLD/MAGIC VALLEY RGNL,12/30,42.48180916,-114.4877361,2023-12-27T21:53:00Z,6.0,VFR,KTWF 272153Z 08006KT 10SM CLR 01/M03 A3024 RMK AO2 SLP255 T00061028
TWM,KTWM,RICHARD B HELGESON,15/33,47.04913888,-91.74522222,2023-12-27T22:35:00Z,0.0,MVFR,KTWM 272235Z AUTO 00000KT 10SM OVC016 00/00 A3009 RMK AO2
TWT,KTWT,STURGIS MUNI,01/19,37.54177777,-87.95436111,2023-12-27T22:35:00Z,5.0,VFR,KTWT 272235Z AUTO 10005KT 10SM OVC055 08/03 A2982 RMK AO2
TX0,,SHANK N BANK,09/27,28.74007166,-96.46818888,,,,
TX2,,CHASE FLD INDUSTRIAL,13/31,28.36244444,-97.66191666,,,,
TXK,KTXK,TEXARKANA RGNL-WEBB FLD,13/31,33.45371638,-93.99103055,2023-12-27T21:53:00Z,14.0,VFR,KTXK 272153Z 30014G21KT 10SM CLR 08/M03 A3001 RMK AO2 SLP163 T00781028
TXKF,TXKF,L F WADE INTL,12/30,32.36402777,-64.67869444,,,,
TXW,KTXW,MID VALLEY,14/32,26.1787075,-97.97400638,2023-12-27T22:35:00Z,5.0,VFR,KTXW 272235Z AUTO 35005KT 10SM CLR 22/10 A2999 RMK AO2 T02210103
TYL,KTYL,TAYLOR,03/21,34.45273222,-110.1150347,2023-12-27T22:35:00Z,7.0,VFR,KTYL 272235Z AUTO 03007KT 10SM CLR 05/M12 A3024 RMK AO2
TYQ,KTYQ,INDIANAPOLIS EXEC,18/36,40.02861083,-86.25140472,2023-12-27T22:35:00Z,5.0,VFR,KTYQ 272235Z AUTO 01005KT 10SM OVC100 05/03 A2989 RMK AO2 T00510025
TYR,KTYR,TYLER POUNDS RGNL,04/22,32.35354722,-95.40297777,2023-12-27T21:53:00Z,11.0,VFR,KTYR 272153Z 30011KT 10SM CLR 11/M01 A3003 RMK AO2 SLP166 T01111011
TYS,KTYS,MC GHEE TYSON,05R/23L,35.81109111,-83.99406722,2023-12-27T21:53:00Z,5.0,VFR,KTYS 272153Z COR 28005KT 10SM FEW020 SCT100 12/07 A2983 RMK AO2 SLP100 T01170067
TZR,KTZR,BOLTON FLD,04/22,39.90116666,-83.13691666,2023-12-27T22:47:00Z,5.0,IFR,KTZR 272247Z 33005KT 10SM OVC007 07/06 A2985
TZT,KTZT,BELLE PLAINE MUNI,18/36,41.87877777,-92.28452777,,,,
TZV,KTZV,TOMPKINSVILLE/MONROE COUNTY,04/22,36.72902777,-85.65238888,,,,
U00,,LEADORE,16/34,44.67311111,-113.3524444,,,,
U01,,AMERICAN FALLS,03/21,42.79731666,-112.8251867,,,,
U02,,MCCARLEY FLD,01/19,43.20924888,-112.3495853,,,,
U03,,BUHL MUNI,09/27,42.59738888,-114.8006389,,,,
U05,,RIDDICK FLD,16/34,46.31735308,-113.3051506,,,,
U06,,COKEVILLE MUNI,15/33,42.04577083,-110.9660206,,,,
U07,,BULLFROG BASIN,01/19,37.54582361,-110.7131992,,,,
U08,,PERKINS FLD,13/31,36.56811111,-114.4433333,,,,
U10,,PRESTON,04/22,42.10693611,-111.9125697,,,,
U12,,STANFORD FLD,04/22,43.95016666,-111.6846944,,,,
U13,,JUNCTION,17/35,38.24997833,-112.2254806,,,,
U14,,NEPHI MUNI,17/35,39.73658333,-111.8700556,,,,
U30,,TEMPLE BAR,18/36,36.02044444,-114.3349167,,,,
U34,,GREEN RIVER MUNI,13/31,38.96168861,-110.2272878,,,,
U36,,ABERDEEN MUNI,07/25,42.92109722,-112.8809083,,,,
U37,,MIDWAY,02/20,43.45361111,-112.80725,,,,
U41,,DUBOIS MUNI,16/34,44.16236111,-112.2206667,,,,
U42,,SOUTH VALLEY RGNL,16/34,40.61954666,-111.9928892,2023-12-27T22:35:00Z,9.0,VFR,KU42 272235Z AUTO 32009KT 10SM CLR 03/M04 A3031 RMK AO1 T00301041
U45,,GRAHAM USFS,18/36,43.95517833,-115.2725911,,,,
U46,,BIG SOUTHERN BUTTE,01/19,43.43258333,-113.0554444,,,,
U48,,COXS WELL,07/25,43.21775,-113.2275556,,,,
U51,,BANCROFT MUNI,07/25,42.72075166,-111.8674564,,,,
U52,,BEAVER MUNI,13/31,38.23058333,-112.6754167,2023-12-27T22:35:00Z,0.0,VFR,KU52 272235Z AUTO 00000KT 10SM CLR 04/M07 A3024 RMK AO2
U53,,HENRYS LAKE,06/24,44.63475,-111.3426944,,,,
U54,,BERNARD USFS,17/35,44.97963666,-114.7348136,,,,
U55,,PANGUITCH MUNI,18/36,37.84522222,-112.3919444,,,,
U56,,RIGBY,01/19,43.642725,-111.9291625,,,,
U58,,DOWNEY/HYDE MEML/,17/35,42.42423333,-112.1095556,,,,
U60,,BIG CREEK,01/19,45.13324305,-115.3217789,,,,
U61,,TWIN BRIDGES,18/36,43.94369444,-114.11025,,,,
U62,,MACKAY,12/30,43.91000833,-113.6023667,,,,
U63,,BRUCE MEADOWS,05/23,44.41545916,-115.3167711,,,,
U64,,MONTICELLO,16/34,37.93242972,-109.3412242,2023-12-27T22:35:00Z,12.0,VFR,KU64 272235Z AUTO 32012KT 10SM CLR M02/M10 A3027 RMK AO2 T10161101 $
U65,,CAREY,08/26,43.30880555,-113.9360278,,,,
U68,,NORTH BIG HORN COUNTY,16/34,44.91166666,-108.4455,2023-12-27T22:35:00Z,0.0,VFR,KU68 272235Z AUTO 00000KT 10SM CLR 00/M12 A3022 RMK AO2
U69,,DUCHESNE MUNI,08/26,40.19363527,-110.3826239,2023-12-27T22:35:00Z,8.0,VFR,KU69 272235Z AUTO 11008KT CLR M02/M13 A3030 RMK A01
U70,,CASCADE,12/30,44.49233333,-116.0147778,,,,
U72,,UPPER LOON CREEK USFS,04/22,44.59157805,-114.8231433,,,,
U74,,CRESCENT VALLEY,05/23,40.41594444,-116.5635,,,,
U76,,MOUNTAIN HOME MUNI,10/28,43.13160944,-115.7305667,,,,
U78,,ALLEN H TIGERT,16/34,42.6485,-111.5818056,,,,
U79,,CHAMBERLAIN USFS,15/33,45.37907833,-115.1967797,,,,
U81,,COLD MEADOWS USFS,16/34,45.2935,-114.9453056,,,,
U82,,COUNCIL MUNI,17/35,44.75033333,-116.4450556,,,,
U84,,DONALD D COSKI MEML,18/36,44.72905972,-116.0926278,,,,
U86,,FROSTENSON FLD,08/26,43.34186111,-114.7982778,,,,
U87,,SMILEY CREEK,14/32,43.91213888,-114.7960556,,,,
U88,,GARDEN VALLEY,10/28,44.06694444,-115.9312778,,,,
U89,,GLENNS FERRY MUNI,08/26,42.94366666,-115.3300833,,,,
U91,,GRASMERE,05/23,42.37330555,-115.8794444,,,,
U92,,ANTELOPE VALLEY,07/25,43.67713888,-113.6027222,,,,
U93,,MAGIC RESERVOIR,10/28,43.28066666,-114.3963889,,,,
U94,,HAZELTON MUNI,06/24,42.57640972,-114.1352403,,,,
U96,,CAL BLACK MEML,01/19,37.43530555,-110.5642778,,,,
U97,,HOWE,13/31,43.83907,-113.0466694,,,,
U98,,IDAHO CITY USFS,04/22,43.82072638,-115.8509428,,,,
U99,,LAIDLAW CORRALS,07/25,43.03702777,-113.7336111,,,,
UAO,KUAO,AURORA STATE,17/35,45.24712638,-122.7700469,2023-12-27T21:53:00Z,6.0,VFR,KUAO 272153Z 36006KT 10SM BKN060 OVC080 09/04 A2981 RMK AO2 RAB14E23 SLP094 P0000 T00940044
UBE,KUBE,CUMBERLAND MUNI,09/27,45.50609966,-91.98080211,2023-12-27T22:35:00Z,0.0,VFR,KUBE 272235Z AUTO 00000KT 10SM SCT025 01/M02 A3008 RMK AO2
UBS,KUBS,COLUMBUS-LOWNDES COUNTY,18/36,33.46533333,-88.38075,,,,
UBX,KUBX,CUBA MUNI,01/19,38.06877305,-91.42885861,,,,
UCP,KUCP,NEW CASTLE MUNI,05/23,41.02533305,-80.41336277,2023-12-27T21:56:00Z,0.0,VFR,KUCP 272156Z AUTO 00000KT 10SM SCT020 OVC048 11/11 A2982 RMK AO2 SLP113 T01110111 $
UCY,KUCY,EVERETT-STEWART RGNL,01/19,36.37974055,-88.98570194,2023-12-27T22:35:00Z,8.0,VFR,KUCY 272235Z AUTO 32008G15KT 10SM FEW028 SCT033 BKN041 06/02 A2987 RMK A01
UDD,KUDD,BERMUDA DUNES,10/28,33.7484375,-116.2748133,2023-12-27T22:30:00Z,10.0,VFR,UUDD 272230Z 29005MPS 9999 -SN SCT036 M02/M04 Q1005 R32L/520242 NOSIG
UDG,KUDG,DARLINGTON COUNTY,05/23,34.44748888,-79.88642416,2023-12-27T21:56:00Z,9.0,MVFR,KUDG 272156Z AUTO 24009KT 10SM OVC026 17/15 A2980 RMK AO2 SLP090 T01670150
UES,KUES,WAUKESHA COUNTY,10/28,43.04102777,-88.23705555,2023-12-27T22:45:00Z,4.0,VFR,KUES 272245Z 02004KT 10SM CLR 01/M02 A3000
UGB,,UGASHIK BAY,12/30,57.42535805,-157.7398656,,,,
UGN,KUGN,WAUKEGAN NTL,05/23,42.42214861,-87.86791611,2023-12-27T21:51:00Z,8.0,VFR,KUGN 272151Z 02008KT 10SM OVC100 04/M01 A2997 RMK AO2 SLP160 T00391011
UIL,KUIL,QUILLAYUTE,04/22,47.93658027,-124.5626158,2023-12-27T21:53:00Z,13.0,VFR,KUIL 272153Z AUTO 14013G24KT 10SM -RA SCT038 BKN055 OVC080 12/08 A2966 RMK AO2 PK WND 17029/2124 RAB07 SLP043 P0000 T01220078
UIN,KUIN,QUINCY RGNL-BALDWIN FLD,13/31,39.94227527,-91.19240444,2023-12-27T22:41:00Z,6.0,MVFR,KUIN 272241Z AUTO 03006KT 3SM UP BR FEW005 OVC024 01/00 A2985 RMK AO2 UPB33SNE33 P0001 T00060000
UKF,KUKF,WILKES COUNTY,01/19,36.22360211,-81.0986063,2023-12-27T22:25:00Z,0.0,VFR,KUKF 272225Z AUTO 00000KT 10SM CLR 12/12 A2983 RMK AO2 TSNO
UKI,KUKI,UKIAH MUNI,15/33,39.12594444,-123.2008611,2023-12-27T22:34:00Z,4.0,MVFR,KUKI 272234Z AUTO 17004KT 4SM -RA BR FEW027 SCT041 OVC055 12/11 A3001 RMK AO2 P0005 T01220111
UKL,KUKL,COFFEY COUNTY,18/36,38.30248194,-95.7249575,2023-12-27T22:35:00Z,12.0,MVFR,KUKL 272235Z AUTO 31012G17KT 10SM OVC019 00/M02 A3000 RMK AO2 T00011020
UKT,KUKT,QUAKERTOWN,11/29,40.43513888,-75.38194444,2023-12-27T22:35:00Z,5.0,LIFR,KUKT 272235Z AUTO 03005KT 2 1/2SM BR OVC004 08/09 A2991 RMK A01
ULM,KULM,NEW ULM MUNI,15/33,44.31838666,-94.50164333,2023-12-27T22:35:00Z,3.0,VFR,KULM 272235Z AUTO 32003KT 10SM CLR 00/M03 A3007 RMK AO2
ULS,KULS,ULYSSES,17/35,37.604,-101.3735556,2023-12-27T22:00:00Z,11.0,VFR,SULS 272200Z 36011KT CAVOK 29/13 Q1009
UMM,PAST,SUMMIT,03/21,63.33104013,-149.1288361,,,,
UMP,KUMP,INDIANAPOLIS METRO,15/33,39.93539847,-86.04506772,2023-12-27T22:35:00Z,5.0,VFR,KUMP 272235Z AUTO 01005KT 10SM OVC085 07/02 A2989 RMK AO2 T00660023
UMT,PAUM,UMIAT,06/24,69.37111266,-152.1349827,,,,
UNI,KUNI,OHIO UNIVERSITY,07/25,39.21189283,-82.22925541,2023-12-27T22:35:00Z,0.0,IFR,KUNI 272235Z AUTO 00000KT 10SM OVC006 08/06 A2984 RMK AO2 T00750063
UNK,PAUN,UNALAKLEET,15/33,63.8885,-160.7991111,,,,
UNO,KUNO,WEST PLAINS RGNL,18/36,36.87842305,-91.90267444,2023-12-27T22:44:00Z,9.0,IFR,KUNO 272244Z AUTO 25009G17KT 1 1/2SM -SN FEW030 BKN036 OVC070 02/M02 A2988 RMK AO2 SNB35 P0000 T00171022
UNU,KUNU,DODGE COUNTY,08/26,43.42647222,-88.70386111,2023-12-27T22:35:00Z,6.0,VFR,KUNU 272235Z AUTO 01006KT 10SM CLR 01/M02 A3002 RMK AO2 T00111020
UNV,KUNV,STATE COLLEGE RGNL,06/24,40.85,-77.84758333,2023-12-27T21:53:00Z,4.0,MVFR,KUNV 272153Z 11004KT 5SM RA BR OVC020 08/08 A2988
UOS,KUOS,FRANKLIN COUNTY,07/25,35.20514583,-85.89814722,,,,
UOX,KUOX,UNIVERSITY-OXFORD,09/27,34.38433333,-89.53680555,2023-12-27T22:35:00Z,7.0,VFR,KUOX 272235Z AUTO 29007KT 10SM BKN050 OVC060 10/00 A2991 RMK AO2 PWINO
UPP,PHUP,UPOLU,07/25,20.26519444,-155.8599444,,,,
USE,KUSE,FULTON COUNTY,09/27,41.60977858,-84.12718855,2023-12-27T22:35:00Z,5.0,MVFR,KUSE 272235Z AUTO 32005KT 9SM OVC010 07/07 A2986 RMK AO2
USW,KUSW,BOGGS FLD,10/28,38.82379694,-81.34882888,,,,
UT9,,WEST DESERT AIRPARK,17/35,40.24326805,-112.0920528,,,,
UTA,KUTA,TUNICA MUNI,17/35,34.68505555,-90.34777777,2023-12-27T22:35:00Z,13.0,VFR,KUTA 272235Z AUTO 30013KT 10SM BKN048 OVC060 08/M00 A2994 RMK AO2 T00811003 $
UTS,KUTS,HUNTSVILLE MUNI,18/36,30.74688888,-95.58716666,2023-12-27T21:53:00Z,9.0,VFR,KUTS 272153Z AUTO 30009KT 10SM CLR 15/01 A3000 RMK AO2 SLP159 T01500011
UUO,PAUO,WILLOW,13/31,61.75418888,-150.0517389,,,,
UUU,KUUU,NEWPORT STATE,16/34,41.53243975,-71.28154394,2023-12-27T22:32:00Z,3.0,IFR,KUUU 272232Z AUTO VRB03KT 1SM -RA BR FEW001 BKN012 OVC075 09/09 A3003 RMK AO2 RAE2157B05 P0001 T00890089
UUV,KUUV,SULLIVAN RGNL,06/24,38.23347222,-91.16427777,2023-12-27T22:35:00Z,0.0,MVFR,KUUV 272235Z AUTO 00000KT 10SM OVC026 01/00 A2987 RMK AO2 PWINO
UVA,KUVA,GARNER FLD,15/33,29.21133333,-99.74358333,2023-12-27T22:35:00Z,9.0,VFR,KUVA 272235Z AUTO 30009KT 10SM CLR 20/M02 A3004 RMK AO2 T01951023
UWL,KUWL,NEW CASTLE HENRY COUNTY MARLATT FLD,10/28,39.87672222,-85.32527777,2023-12-27T22:35:00Z,0.0,VFR,KUWL 272235Z AUTO 00000KT 10SM CLR 06/02 A2985 RMK A01
UXL,KUXL,SOUTHLAND FLD,15/33,30.13144444,-93.37616666,2023-12-27T22:35:00Z,11.0,VFR,KUXL 272235Z AUTO 30011G14KT 10SM CLR 18/M01 A2998 RMK AO2 T01791012
UYF,KUYF,MADISON COUNTY,09/27,39.93272222,-83.462,2023-12-27T22:35:00Z,5.0,MVFR,KUYF 272235Z AUTO 36005KT 10SM BKN015 BKN045 06/05 A2986 RMK AO2
UZA,KUZA,ROCK HILL/YORK COUNTY/BRYANT FLD,02/20,34.98783333,-81.05716666,2023-12-27T21:54:00Z,0.0,VFR,KUZA 272154Z AUTO 00000KT 10SM FEW016 FEW028 14/13 A2981 RMK AO2 SLP089 T01440133
VAK,PAVA,CHEVAK,02/20,61.54083333,-165.6008889,,,,
VAY,KVAY,SOUTH JERSEY RGNL,08/26,39.94288888,-74.84575,2023-12-27T21:54:00Z,6.0,LIFR,KVAY 272154Z AUTO 08006KT 10SM OVC004 10/09 A2993 RMK AO2 RAB10E51 SLP133 P0001 T01000089
VBT,KVBT,BENTONVILLE MUNI/LOUISE M THADEN FLD,18/36,36.34533527,-94.21950333,2023-12-27T21:56:00Z,11.0,MVFR,KVBT 272156Z AUTO 30011G18KT 10SM -RA OVC024 02/M03 A2997 RMK AO2 RAB45 SLP161 P0000 T00171028 FZRANO $
VBW,KVBW,BRIDGEWATER AIR PARK,15/33,38.3667375,-78.96033416,,,,
VCB,KVCB,NUT TREE,02/20,38.37822222,-121.9611944,2023-12-27T22:16:00Z,0.0,IFR,KVCB 272216Z AUTO 00000KT 1SM -RA BR BKN005 OVC026 12/12 A3004 RMK AO2 P0002 T01220117
VCT,KVCT,VICTORIA RGNL,18/36,28.85420583,-96.91873222,2023-12-27T21:51:00Z,5.0,VFR,KVCT 272151Z 36005KT 10SM CLR 21/M02 A3000 RMK AO2 SLP158 T02111017
VCV,KVCV,SOUTHERN CALIFORNIA LOGISTICS,03/21,34.59552611,-117.3826622,,,,
VDF,KVDF,TAMPA EXEC,18/36,28.01398722,-82.34525916,2023-12-27T22:35:00Z,3.0,VFR,KVDF 272235Z AUTO 32003KT 10SM BKN120 17/12 A2998 RMK AO2
VDI,KVDI,VIDALIA RGNL,14/32,32.19272222,-82.37116666,2023-12-27T22:35:00Z,0.0,VFR,KVDI 272235Z AUTO 00000KT 10SM CLR 17/08 A2989 RMK AO2
VDZ,PAVD,VALDEZ PIONEER FLD,06/24,61.13422194,-146.2447681,,,,
VEE,PAVE,VENETIE,04/22,67.008675,-146.3663583,,,,
VEL,KVEL,VERNAL RGNL,17/35,40.43607777,-109.5114225,,,,
VER,KVER,JESSE VIERTEL MEML,18/36,38.94672222,-92.68266666,2023-12-27T22:35:00Z,3.0,IFR,KVER 272235Z AUTO 27003KT 2SM -SN OVC005 01/01 A2988 RMK AO2 T00100010
VES,KVES,DARKE COUNTY,09/27,40.20441083,-84.53242277,2023-12-27T22:35:00Z,4.0,VFR,KVES 272235Z AUTO 02004KT 10SM CLR 06/02 A2986 RMK AO2
VGC,KVGC,HAMILTON MUNI,17/35,42.84344444,-75.56119444,2023-12-27T22:35:00Z,5.0,VFR,KVGC 272235Z AUTO 16005KT 10SM SCT016 SCT060 SCT100 09/08 A2991 RMK AO2
VGT,KVGT,NORTH LAS VEGAS,12L/30R,36.21070291,-115.1944432,2023-12-27T21:53:00Z,0.0,VFR,KVGT 272153Z 00000KT 10SM CLR 13/M06 A3019 RMK AO2 SLP242 T01331056
VHN,KVHN,CULBERSON COUNTY,07/25,31.05783333,-104.7838056,2023-12-27T22:35:00Z,0.0,VFR,KVHN 272235Z AUTO 00000KT 10SM CLR 12/M12 A3017 RMK AO2 T01231124
VIH,KVIH,ROLLA NTL,04/22,38.12742944,-91.76951388,2023-12-27T22:31:00Z,0.0,LIFR,KVIH 272231Z AUTO 00000KT 1/2SM SN FG SCT006 BKN012 OVC021 01/M01 A2984 RMK AO2 P0001 T00061006
VIQ,KVIQ,NEILLSVILLE MUNI,10/28,44.55811111,-90.51225,,,,
VIS,KVIS,VISALIA MUNI,H1,36.31863777,-119.3928608,2023-12-27T21:56:00Z,6.0,VFR,KVIS 272156Z AUTO 22006KT 10SM CLR 17/09 A3010 RMK AO2 SLP201 T01670094
VJI,KVJI,VIRGINIA HIGHLANDS,06/24,36.68710252,-82.03332669,2023-12-27T22:35:00Z,6.0,IFR,KVJI 272235Z AUTO 25006KT 10SM BKN007 BKN016 09/08 A2985 RMK AO2 T00860080
VKS,KVKS,VICKSBURG MUNI,01/19,32.23913888,-90.92819444,2023-12-27T22:35:00Z,8.0,VFR,KVKS 272235Z AUTO 27008G17KT 230V300 10SM CLR 16/M01 A2991 RMK A01
VKX,KVKX,POTOMAC AIRFIELD,06/24,38.74864166,-76.95592222,,,,
VLA,KVLA,VANDALIA MUNI,09/27,38.99146583,-89.16618944,2023-12-27T22:20:00Z,3.0,VFR,EVLA 272220Z AUTO 24003KT 9999 SCT025/// 01/M02 Q1016
VLD,KVLD,VALDOSTA RGNL,13/31,30.78137222,-83.27621944,2023-12-27T21:53:00Z,0.0,VFR,KVLD 272153Z AUTO 00000KT 10SM CLR 17/09 A2992 RMK AO2 SLP140 T01670094
VLL,KVLL,OAKLAND/TROY,10/28,42.54294444,-83.17788888,2023-12-27T22:35:00Z,5.0,IFR,KVLL 272235Z AUTO 33005KT 10SM BKN008 OVC013 09/07 A2986 RMK AO2 T00850068
VMR,KVMR,HAROLD DAVIDSON FLD,12/30,42.76527777,-96.93425,,,,
VNC,KVNC,VENICE MUNI,05/23,27.07126777,-82.4400325,2023-12-27T22:35:00Z,9.0,VFR,KVNC 272235Z AUTO 31009KT 10SM OVC100 20/17 A2996 RMK AO2
VNW,KVNW,VAN WERT COUNTY,18/36,40.86382947,-84.606358,,,,
VNY,KVNY,VAN NUYS,16R/34L,34.20980555,-118.4899722,,,,
VPC,KVPC,CARTERSVILLE,01/19,34.1231475,-84.84870666,2023-12-27T22:35:00Z,3.0,VFR,KVPC 272235Z AUTO 19003KT 10SM CLR 11/07 A2988 RMK AO2
VPS,KVPS,EGLIN AFB/DESTIN-FT WALTON BEACH,02/20,30.48321941,-86.52604433,2023-12-27T21:55:00Z,3.0,VFR,KVPS 272155Z AUTO 23003KT 10SM CLR 14/05 A2995 RMK AO2 SLP149 T01380052 $
VPZ,KVPZ,PORTER COUNTY RGNL,18/36,41.45397222,-87.00708333,2023-12-27T21:56:00Z,9.0,VFR,KVPZ 272156Z AUTO 01009G15KT 10SM OVC110 04/01 A2993 RMK AO2 SLP144 T00440006
VQQ,KVQQ,CECIL,09L/27R,30.21877777,-81.87716666,2023-12-27T21:50:00Z,5.0,VFR,KVQQ 272150Z 25005KT 10SM CLR 17/09 A2993
VQS,TJVQ,ANTONIO RIVERA RODRIGUEZ,09/27,18.13481111,-65.49361666,,,,
VRB,KVRB,VERO BEACH RGNL,12L/30R,27.65555555,-80.41794444,2023-12-27T21:53:00Z,4.0,VFR,KVRB 272153Z 07004KT 10SM FEW110 21/16 A2991 RMK AO2 SLP127 T02110161
VSF,KVSF,HARTNESS STATE (SPRINGFIELD),11/29,43.34372222,-72.51727777,2023-12-27T22:38:00Z,0.0,LIFR,KVSF 272238Z AUTO 00000KT 1/2SM FG SCT006 SCT028 OVC055 06/05 A3003 RMK AO2 T00560050
VT8,,SHELBURNE,01/19,44.36030277,-73.22639444,,,,
VTA,KVTA,NEWARK-HEATH,09/27,40.02466666,-82.46180555,2023-12-27T21:54:00Z,,VFR,KVTA 272154Z AUTO A2984 RMK AO2 SLPNO PWINO FZRANO
VTI,KVTI,VINTON VETERANS MEML AIRPARK,09/27,42.21863888,-92.02591666,2023-12-27T22:35:00Z,4.0,VFR,KVTI 272235Z AUTO 02004KT 10SM OVC050 03/01 A2999 RMK AO2 T00260005
VTN,KVTN,MILLER FLD,03/21,42.85669444,-100.5489722,2023-12-27T22:30:00Z,5.0,MVFR,KVTN 272230Z AUTO 32005KT 10SM OVC010 M01/M03 A3010 RMK AO2 T10061028
VUJ,KVUJ,STANLY COUNTY,04L/22R,35.41669388,-80.15079111,2023-12-27T22:25:00Z,0.0,MVFR,KVUJ 272225Z AUTO 00000KT 10SM OVC012 14/13 A2984 RMK AO2 T01430132
VUO,KVUO,PEARSON FLD,08/26,45.6204525,-122.6564883,2023-12-27T21:53:00Z,3.0,VFR,KVUO 272153Z AUTO 24003KT 10SM -RA OVC065 09/04 A2983 RMK AO2 RAE07B45 SLP103 P0000 T00890039
VVS,KVVS,JOSEPH A HARDY CONNELLSVILLE,14/32,39.95905555,-79.65741666,2023-12-27T22:35:00Z,0.0,MVFR,KVVS 272235Z AUTO 00000KT 10SM OVC011 11/10 A2981 RMK AO2 T01070103
VVV,KVVV,ORTONVILLE MUNI/MARTINSON FLD,16/34,45.30412944,-96.42460888,2023-12-27T22:00:00Z,12.0,VFR,NVVV 272200Z 11012KT 9999 SCT020 29/25 Q1014
VWU,KVWU,WASKISH MUNI,02/20,48.14845555,-94.51691527,2023-12-27T22:35:00Z,3.0,LIFR,KVWU 272235Z AUTO 05003KT 7SM OVC003 02/01 A3010 RMK AO2
VYS,KVYS,ILLINOIS VALLEY RGNL-WALTER A DUNCAN FLD,18/36,41.35013888,-89.15294444,2023-12-27T22:35:00Z,9.0,VFR,KVYS 272235Z AUTO 05009KT 10SM CLR 04/02 A2992 RMK AO2 T00420015 TSNO
W00,,FREEWAY,18/36,38.94135194,-76.77238305,,,,
W01,,TONASKET MUNI,15/33,48.72486833,-119.4656347,,,,
W03,,WILSON INDUSTRIAL AIR CENTER,15/33,35.77040694,-77.96979138,,,,
W04,,OCEAN SHORES MUNI,15/33,46.99921997,-124.1423825,,,,
W05,,GETTYSBURG RGNL,06/24,39.84130916,-77.27465,,,,
W09,,LOWER MONUMENTAL STATE,01/19,46.54972222,-118.5366958,,,,
W10,,WHIDBEY AIR PARK,16/34,48.01751225,-122.4377275,,,,
W11,,SULLIVAN,06/24,43.00720472,-88.60282319,,,,
W12,,LOST RIVER,11/29,48.64958416,-120.5020444,,,,
W13,,EAGLE'S NEST,06/24,38.0769375,-78.9444375,,,,
W16,,FIRST AIR FLD,07/25,47.87136361,-121.9952439,,,,
W17,,RALEIGH EAST,01/19,35.79772222,-78.43700972,,,,
W19,,VERONA,05/23,42.9895843,-89.50920994,,,,
W20,,MOSES LAKE MUNI,16/34,47.14200416,-119.2378819,,,,
W22,,UPSHUR COUNTY RGNL,11/29,39.00058333,-80.27494444,2023-12-27T22:35:00Z,4.0,IFR,KW22 272235Z AUTO 26004KT 2SM BR SCT005 OVC015 11/11 A2981 RMK AO2
W23,,WILD ROSE IDLEWILD,09/27,44.19775527,-89.21789472,,,,
W24,,FALWELL,10/28,37.37792083,-79.12224527,,,,
W27,,WOODLAND STATE,14/32,45.8991825,-122.7375104,,,,
W28,,SEQUIM VALLEY,09/27,48.09792222,-123.1879208,,,,
W29,,BAY BRIDGE,11/29,38.97645544,-76.32996911,2023-12-27T22:25:00Z,7.0,IFR,KW29 272225Z AUTO 10007KT 5SM -RA BKN007 OVC031 13/ A2979 RMK AO2 P0002 T0131////
W31,,LUNENBURG COUNTY,02/20,36.96040277,-78.18511111,2023-12-27T22:35:00Z,4.0,MVFR,KW31 272235Z AUTO 33004KT 3SM SCT004 OVC014 16/16 A2975 RMK AO1 P0008 T01600157
W34,,SHIOCTON,18/36,44.45556536,-88.56120905,,,,
W35,,POTOMAC AIRPARK,11/29,39.69261111,-78.16608333,,,,
W40,,MOUNT OLIVE MUNI,05/23,35.22145416,-78.03861666,2023-12-27T22:25:00Z,0.0,VFR,KW40 272225Z AUTO 00000KT 7SM SCT025 BKN032 OVC047 18/18 A2973 RMK AO2 T01800176
W41,,CRISFIELD-SOMERSET COUNTY,06/24,38.01816666,-75.82686111,,,,
W42,,FALLSTON,04/22,39.50132361,-76.41133472,,,,
W43,,HULETT MUNI,13/31,44.66286111,-104.5678333,2023-12-27T22:35:00Z,0.0,VFR,KW43 272235Z AUTO 00000KT 10SM CLR 03/M08 A3018 RMK AO2
W48,,ESSEX SKYPARK,16W/34W,39.26241666,-76.432125,,,,
W50,,DAVIS,08/26,39.24354444,-77.14987361,,,,
W52,,GOHEEN,15/33,45.82679638,-122.5768561,,,,
W56,,FLY FOR FUN,07/25,45.68728,-122.5218531,,,,
W57,,ROUND LAKE,14/32,42.93118194,-73.77087638,,,,
W58,,CEDARS NORTH,08/26,45.76455555,-122.5150833,,,,
W63,,LAKE COUNTRY RGNL,04/22,36.59636666,-78.55972944,2023-12-27T22:35:00Z,0.0,LIFR,KW63 272235Z AUTO 00000KT 5SM OVC003 15/15 A2975 RMK AO1 P0001
W73,,MID ATLANTIC SOARING CENTER,15/33,39.75704,-77.35137611,,,,
W75,,HUMMEL FLD,01/19,37.60227083,-76.44672916,2023-12-27T22:35:00Z,4.0,LIFR,KW75 272235Z AUTO 12004KT 2SM OVC003 14/14 A2978 RMK AO1 T01380135
W78,,WILLIAM M TUCK,01/19,36.70937241,-78.84833747,2023-12-27T22:35:00Z,5.0,LIFR,KW78 272235Z AUTO 32005KT 10SM OVC004 14/13 A2977 RMK AO1 T01400133
W81,,CREWE MUNI,15/33,37.18101222,-78.09847469,2023-12-27T22:35:00Z,6.0,MVFR,KW81 272235Z AUTO 32006KT 3SM SCT004 BKN013 OVC020 14/13 A2975 RMK AO1 P0005 T01410127
W87,,BUZZWICK,18/36,42.01787777,-83.37216111,,,,
W88,,AIR HARBOR,09/27,36.17361111,-79.80305555,,,,
W90,,NEW LONDON,18/36,37.27172777,-79.3359,,,,
W91,,SMITH MOUNTAIN LAKE,05/23,37.10772222,-79.59247222,,,,
W95,,OCRACOKE ISLAND,06/24,35.10116666,-75.96597222,,,,
W96,,NEW KENT COUNTY,11/29,37.50342944,-77.12655833,2023-12-27T22:35:00Z,5.0,IFR,KW96 272235Z AUTO 12005KT 10SM OVC006 15/15 A2975 RMK AO1 T01500150
W99,,GRANT COUNTY,13/31,38.99494444,-79.14586111,2023-12-27T22:35:00Z,3.0,IFR,KW99 272235Z AUTO 32003KT 10SM BKN008 OVC014 10/09 A2982 RMK AO2 CIG 007V009 T00980094 $
WAY,KWAY,GREENE COUNTY,09/27,39.90113888,-80.13069444,,,,
WBB,,STEBBINS,05/23,63.51597222,-162.278,,,,
WBQ,PAWB,BEAVER,05/23,66.36222222,-147.4065,,,,
WBW,KWBW,WILKES-BARRE WYOMING VALLEY,09/27,41.2973075,-75.85224333,,,,
WCR,PALR,CHANDALAR LAKE,03/21,67.50451666,-148.4832222,2023-12-27T22:00:00Z,5.0,VFR,MWCR 272200Z 17005KT 9999 FEW018 28/23 Q1012
WDG,KWDG,ENID WOODRING RGNL,13/31,36.37594444,-97.78941666,2023-12-27T21:55:00Z,17.0,VFR,KWDG 272155Z 35017KT 10SM BKN041 BKN055 04/M04 A3005
WDR,KWDR,BARROW COUNTY,05/23,33.98268972,-83.66721666,2023-12-27T22:35:00Z,0.0,VFR,KWDR 272235Z AUTO 00000KT 10SM CLR 11/05 A2989 RMK AO2
WEA,KWEA,PARKER COUNTY,17/35,32.74628669,-97.68245219,,,,
WH0,,WOODHAWK,09/27,47.77944444,-109.0786111,,,,
WHP,KWHP,WHITEMAN,12/30,34.25932527,-118.4134331,2023-12-27T22:00:00Z,0.0,VFR,KWHP 272200Z 00000KT 10SM SKC 18/08 A3013
WJF,KWJF,GENERAL WM J FOX AIRFIELD,06/24,34.74105555,-118.2186389,2023-12-27T21:56:00Z,4.0,VFR,KWJF 272156Z 10004KT 10SM CLR 16/04 A3014 RMK AO2 SLP207 T01610044
WLD,KWLD,STROTHER FLD,17/35,37.16861111,-97.03752777,2023-12-27T21:54:00Z,14.0,VFR,KWLD 272154Z AUTO 33014G20KT 10SM BKN036 04/M05 A3006 RMK AO2 SLP189 T00391050
WLK,PASK,SELAWIK,04/22,66.60013888,-159.98575,,,,
WLW,KWLW,WILLOWS/GLENN COUNTY,13/31,39.51575588,-122.2172754,2023-12-27T22:00:00Z,0.0,VFR,UWLW 272200Z 00000MPS 9999 4000NE BR NSC M07/M08 Q0998 R20/590540 NOSIG RMK QFE743/0991
WMC,KWMC,WINNEMUCCA MUNI,H2,40.89661111,-117.8058889,2023-12-27T21:56:00Z,8.0,VFR,KWMC 272156Z AUTO 04008G20KT 10SM CLR 09/00 A3005 RMK AO2 SLP172 T00940000
WMO,PAWM,WHITE MOUNTAIN,15/33,64.68919444,-163.41275,,,,
WNA,PANA,NAPAKIAK,16/34,60.69033333,-161.9785,,,,
WRG,PAWG,WRANGELL,10/28,56.48433333,-132.3698333,,,,
WRL,KWRL,WORLAND MUNI,10/28,43.96288888,-107.9505278,2023-12-27T21:53:00Z,0.0,VFR,KWRL 272153Z AUTO 00000KT 10SM CLR 01/M09 A3021 RMK AO2 SLP287 T00111094
WSM,,WISEMAN,02/20,67.40510694,-150.1208778,,,,
WSN,PFWS,SOUTH NAKNEK NR 2,13/31,58.70208333,-157.0025833,,,,
WST,KWST,WESTERLY STATE,14/32,41.34963297,-71.80341683,2023-12-27T22:41:00Z,3.0,VFR,KWST 272241Z AUTO 05003KT 6SM -RA BR SCT001 SCT040 OVC085 09/08 A3001 RMK AO2 P0000 T00940083
WTK,PAWN,NOATAK,01/19,67.56116666,-162.9804167,,,,
WVI,KWVI,WATSONVILLE MUNI,02/20,36.9357325,-121.7896375,2023-12-27T21:53:00Z,,MVFR,KWVI 272153Z AUTO 10SM -RA OVC028 13/11 A3009 RMK AO2 RAB45 SLP189 P0000 T01330106
WVL,KWVL,WATERVILLE ROBERT LAFLEUR,14/32,44.53325,-69.67552777,2023-12-27T21:56:00Z,3.0,LIFR,KWVL 272156Z AUTO 05003KT 10SM OVC004 03/03 A3006 RMK AO2 RAB2059E43 SLP210 P0000 T00330033
WWD,KWWD,CAPE MAY COUNTY,10/28,39.00836944,-74.90850888,2023-12-27T22:02:00Z,11.0,VFR,KWWD 272202Z AUTO 07011KT 10SM SCT004 BKN055 OVC070 12/11 A2988 RMK AO2
WWR,KWWR,WEST WOODWARD,05/23,36.438,-99.52266666,2023-12-27T22:35:00Z,6.0,VFR,KWWR 272235Z AUTO 34006KT 10SM OVC033 03/M01 A3010 RMK AO2
WYS,KWYS,YELLOWSTONE,01/19,44.68838888,-111.1176389,,,,
X01,,EVERGLADES AIRPARK,15/33,25.84886111,-81.39027777,,,,
X04,,ORLANDO APOPKA,15/33,28.70747441,-81.5819645,,,,
X05,,PILOT COUNTRY,18/36,28.33028277,-82.49648472,,,,
X06,,ARCADIA MUNI,14/32,27.19531805,-81.8382275,,,,
X07,,LAKE WALES MUNI,06/24,27.89321083,-81.62145888,2023-12-27T22:35:00Z,3.0,VFR,KX07 272235Z AUTO 30003KT 10SM BKN120 20/12 A2995 RMK A01
X09,,COVEY TRAILS,17/35,29.69008333,-95.84047361,,,,
X10,,BELLE GLADE STATE MUNI,09/27,26.69818888,-80.66024444,,,,
X13,,CARRABELLE-THOMPSON,05/23,29.842,-84.70111111,,,,
X14,,LA BELLE MUNI,14/32,26.74058333,-81.42827777,,,,
X21,,ARTHUR DUNN AIR PARK,15/33,28.62255166,-80.83540972,,,,
X23,,UMATILLA MUNI,01/19,28.924735,-81.65178111,,,,
X25,,CHALET SUZANNE AIR STRIP,18/36,27.95380555,-81.60141666,,,,
X26,,SEBASTIAN MUNI,10/28,27.81325,-80.49558333,2023-12-27T22:35:00Z,3.0,VFR,KX26 272235Z AUTO 04003KT 10SM SCT120 20/17 A2993 RMK AO2 P0001 T01960166
X33,,DONIPHAN MUNI,07/25,36.69386111,-90.78447222,,,,
X35,,MARION COUNTY,10/28,29.06176722,-82.37661944,,,,
X36,,BUCHAN,12/30,26.99008055,-82.37401777,,,,
X39,,TAMPA NORTH AERO PARK,14/32,28.22127777,-82.37455555,,,,
X43,,SUNRAY,17/35,36.02920222,-101.8287822,,,,
X49,,SOUTH LAKELAND,14/32,27.93335805,-82.04397388,,,,
X50,,MASSEY RANCH AIRPARK,18/36,28.97891666,-80.92477777,,,,
X51,,MIAMI HOMESTEAD GENERAL AVIATION,09U/27U,25.49922694,-80.55424666,,,,
X52,,NEW HIBISCUS AIRPARK,18/36,27.632255,-80.52755444,,,,
X54,,BENGER AIR PARK,17/35,34.65423361,-102.6918811,,,,
X55,,MID-FLORIDA,18/36,28.84333333,-81.63008333,,,,
X58,,INDIANTOWN,13/31,27.0375,-80.441,,,,
X59,,VALKARIA,14/32,27.96086555,-80.55832777,,,,
X60,,WILLISTON MUNI,05/23,29.354605,-82.47056361,2023-12-27T22:35:00Z,0.0,VFR,KX60 272235Z AUTO 00000KT 10SM CLR 15/11 A2994 RMK AO2 T01520112
X61,,BOB WHITE FLD,09/27,28.73527222,-81.62911666,,,,
X63,,DR HERMENEGILDO ORTIZ QUINONES,10/28,18.13806944,-65.80070555,,,,
X65,,TXAEROSPORT AERODROME,17/35,33.53628963,-96.68041711,,,,
XA0,,PROSE FLD,18/36,33.14816666,-97.28002777,,,,
XBP,KXBP,BRIDGEPORT MUNI,18/36,33.17395972,-97.82842713,2023-12-27T22:30:00Z,11.0,VFR,KXBP 272230Z AUTO 32011G16KT 10SM CLR 09/00 A3010 RMK AO2 T00911005
XLL,KXLL,ALLENTOWN QUEEN CITY MUNI,07/25,40.57027777,-75.48830555,2023-12-27T22:35:00Z,6.0,IFR,KXLL 272235Z AUTO 07006KT 4SM RA OVC005 09/08 A2992 RMK AO2 P0003
XNA,KXNA,NORTHWEST ARKANSAS NTL,16R/34L,36.28157916,-94.30776555,2023-12-27T21:53:00Z,7.0,MVFR,KXNA 272153Z 29007KT 9SM BKN027 OVC032 03/M03 A2996 RMK AO2 SNB08E49 SLP150 P0000 T00281028
XNI,KXNI,ANDREW OTHOLE MEML,06/24,35.06067527,-108.9375994,,,,
XNX,KXNX,MUSIC CITY EXEC,17/35,36.37508055,-86.40841222,,,,
XSA,KXSA,TAPPAHANNOCK/ESSEX COUNTY,10/28,37.85960916,-76.89411944,2023-12-27T22:35:00Z,5.0,LIFR,KXSA 272235Z AUTO 11005KT 5SM -DZ OVC002 15/15 A2976 RMK AO2 T01450145
XVG,KXVG,LONGVILLE MUNI,13/31,46.9899075,-94.20363194,2023-12-27T22:33:00Z,0.0,IFR,KXVG 272233Z AUTO 00000KT 10SM OVC008 02/01 A3006 RMK AO2
XWA,KXWA,WILLISTON BASIN INTL,04/22,48.25978361,-103.7505567,2023-12-27T21:51:00Z,9.0,VFR,KXWA 272151Z AUTO 24009KT 10SM CLR 02/M05 A3015 RMK AO2 SLP246 T00221050
Y01,,WAUKON MUNI,07/25,43.28047611,-91.46952805,,,,
Y03,,SPRINGFIELD MUNI,15/33,42.88112008,-97.9016255,,,,
Y14,,MARV SKIE-LINCOLN COUNTY,16/34,43.45490194,-96.8013125,,,,
Y19,,MANDAN RGNL/LAWLER FLD,04/22,46.76797222,-100.8943611,2023-12-27T22:35:00Z,8.0,VFR,KY19 272235Z AUTO 30008KT 10SM CLR 00/M00 A3015 RMK AO2
Y23,,CHETEK MUNI/SOUTHWORTH,07/25,45.30648755,-91.63682302,2023-12-27T22:35:00Z,0.0,VFR,KY23 272235Z AUTO 00000KT 10SM SCT035 01/M03 A3008 RMK AO2 T00101027
Y27,,STANDING ROCK,14/32,46.06688472,-100.6327775,,,,
Y30,,PBEAAYE,01/19,45.53112194,-84.55698166,,,,
Y31,,WEST BRANCH COMMUNITY,09/27,44.24481694,-84.17980861,2023-12-27T22:35:00Z,7.0,IFR,KY31 272235Z AUTO 33007KT 300V010 10SM OVC007 05/04 A2992 RMK AO2 T00500040
Y37,,PARK RIVER - W C SKJERVEN FLD,04/22,48.39408305,-97.78077027,,,,
Y43,,ANITA MUNI-KEVIN BURKE MEML FLD,05/23,41.43991111,-94.77013763,,,,
Y46,,BEDFORD MUNI,18/36,40.63776555,-94.72941333,,,,
Y47,,OAKLAND SOUTHWEST,08/26,42.50312388,-83.62370138,,,,
Y48,,BELMOND MUNI,17/35,42.85274638,-93.59465361,,,,
Y49,,WALKER MUNI,15/33,47.15948066,-94.64534669,2023-12-27T22:35:00Z,4.0,LIFR,KY49 272235Z AUTO 36004KT 1/2SM FG OVC004 01/01 A3008 RMK AO2 T00050005
Y50,,WAUTOMA MUNI,13/31,44.04313508,-89.30569052,2023-12-27T21:56:00Z,6.0,VFR,KY50 272156Z AUTO 04006KT 10SM CLR 03/M03 A3004 RMK AO2 SLP180 T00331033 $
Y51,,VIROQUA MUNI,11/29,43.57963888,-90.89772222,2023-12-27T22:35:00Z,3.0,VFR,KY51 272235Z AUTO 03003KT 10SM CLR 01/M02 A3001 RMK AO2
Y55,,CRANDON/STEVE CONWAY MUNI,01/19,45.52264833,-88.9284373,,,,
Y58,,SLEEPY EYE MUNI,14/32,44.24963958,-94.710425,,,,
Y63,,ELBOW LAKE MUNI/PRIDE OF THE PRAIRIE,11W/29W,45.98616666,-95.98575,2023-12-27T22:35:00Z,5.0,IFR,KY63 272235Z AUTO 04005KT 10SM OVC009 01/01 A3006 RMK AO2 T00130005
Y65,,CAMPBELL-PRATT,10/28,45.40617083,-84.5984,,,,
Y70,,IONIA COUNTY,10/28,42.93792786,-85.06057302,2023-12-27T22:35:00Z,6.0,MVFR,KY70 272235Z AUTO 36006KT 10SM SCT008 SCT013 OVC024 05/05 A2991 RMK AO2 T00500050
Y71,,ELGIN MUNI,12/30,46.38275416,-101.8449028,,,,
Y72,,BLOYER FLD,07/25,43.97622222,-90.48061111,,,,
Y73,,STAMBAUGH,17/35,46.07881944,-88.6355,,,,
Y74,,PARSHALL-HANKINS,12/30,47.93568472,-102.1421244,,,,
Y77,,BAYFIELD COUNTY,08/26,46.57714166,-91.45618611,,,,
Y83,,SANDUSKY CITY,10/28,43.45563561,-82.84178119,,,,
Y87,,WILLIAM B BOLTON,09/27,44.79051638,-86.0027698,,,,
Y88,,GREEN LAKE,05/23,44.60570413,-85.75679011,,,,
Y89,,KALKASKA CITY,10/28,44.72518333,-85.203125,,,,
Y91,,HOME ACRES SKY RANCH,09/27,44.32013763,-85.17019741,,,,
Y93,,ATLANTA MUNI,05/23,44.99689488,-84.12723436,,,,
Y94,,EAST JORDAN CITY,18/36,45.13018391,-85.106815,,,,
Y95,,HILLMAN,04/22,45.0832195,-83.9384945,,,,
Y98,,GRAND MARAIS,14/32,46.62036472,-85.92008363,,,,
Y99,,TRULSON FLD,08/26,48.03056805,-101.9532225,,,,
YAK,PAYA,YAKUTAT,11/29,59.50332333,-139.6602681,,,,
YIP,KYIP,WILLOW RUN,05/23,42.24027388,-83.53146166,2023-12-27T21:53:00Z,8.0,IFR,KYIP 272153Z 32008KT 8SM OVC006 07/06 A2986 RMK AO2 SLP112 T00720061
YKM,KYKM,YAKIMA AIR TRML/MCALLISTER FLD,09/27,46.56816722,-120.5440625,2023-12-27T21:53:00Z,0.0,VFR,KYKM 272153Z AUTO 00000KT 10SM OVC080 05/02 A2999 RMK AO2 PRESFR SLP162 T00500017
YKN,KYKN,CHAN GURNEY MUNI,02/20,42.91667861,-97.38593166,2023-12-27T21:56:00Z,7.0,VFR,KYKN 272156Z AUTO 33007KT 10SM OVC055 00/M02 A3009 RMK AO2 SNE2058 SLP219 P0000 T00001022 FZRANO
YNG,KYNG,YOUNGSTOWN/WARREN RGNL,05/23,41.26158333,-80.68036111,2023-12-27T22:39:00Z,4.0,LIFR,KYNG 272239Z 29004KT 4SM -RA BR BKN004 OVC013 10/09 A2981 RMK AO2 P0000 T01000089
Z08,NSAS,OFU,08/26,-14.18434305,-169.6701,,,,
Z09,PFKA,KASIGLUK,17/35,60.87333333,-162.5243056,,,,
Z13,PFZK,AKIACHAK,01/19,60.91380972,-161.4933292,,,,
Z14,,TAZLINA,13/31,62.06478861,-146.4605219,,,,
Z17,,OPHIR,11/29,63.14591944,-156.5289083,,,,
Z25,,TRIPOD,11/29,59.26314583,-158.5577553,,,,
Z40,,GOOSE BAY,08/26,61.39465,-149.8422694,,,,
Z47,,ENGSTROM FLD,16/34,64.67909027,-165.2992014,,,,
Z48,,BEAR CREEK 3,15/33,63.57160916,-156.1440506,,,,
Z52,,JOHNSONS LANDING,18/36,56.03668555,-160.2662053,,,,
Z55,,LAKE LOUISE,13/31,62.29161805,-146.57735,,,,
Z81,,SALMON LAKE,15/33,64.90900972,-165.0147167,,,,
Z84,PACL,CLEAR,01/19,64.30038888,-149.1165278,,,,
Z90,,STAMPEDE,15/33,63.75120555,-150.3302639,,,,
Z91,,BIRCH CREEK,16/34,66.27447222,-145.8181944,,,,
Z92,,HARSENS ISLAND,04/22,42.58945833,-82.57568611,,,,
Z93,,COPPER CENTER 2,13/31,61.94119,-145.2940808,,,,
Z95,,CIBECUE,07/25,34.00333333,-110.4441667,,,,
Z98,,OTTAWA EXEC,02/20,42.81717638,-85.92791666,,,,
ZEF,KZEF,ELKIN MUNI,07/25,36.28,-80.78605555,,,,
ZER,KZER,SCHUYLKILL COUNTY/JOE ZERBEY,04/22,40.70675083,-76.37375027,2023-12-27T22:35:00Z,15.0,LIFR,KZER 272235Z AUTO 12015KT 1/4SM -RA OVC002 06/06 A2986 RMK AO2 P0005
ZPH,KZPH,ZEPHYRHILLS MUNI,05/23,28.22666944,-82.15564527,2023-12-27T22:35:00Z,5.0,VFR,KZPH 272235Z AUTO 30005KT 10SM OVC120 16/11 A2998 RMK A02 T01630114
ZZV,KZZV,ZANESVILLE MUNI,04/22,39.94444611,-81.89209416,2023-12-27T21:53:00Z,4.0,LIFR,KZZV 272153Z AUTO 28004KT 6SM BR OVC004 09/08 A2984 RMK AO2 SLP106 T00890078
